{"type":"FeatureCollection","features":[{"type":"Feature","properties":{"adm3_name":"Bidur","adm3_pcode":"NP0328301","adm2_name":"Nuwakot","adm2_pcode":"NP0328","adm1_name":"Bagmati","adm1_pcode":"NP03","center_lat":27.9194339,"center_lon":85.13055006,"area_sqkm":129.99557795},"geometry":{"type":"Polygon","coordinates":[[[85.11887738800003,27.986009158000172],[85.12703291300008,27.97817543700006],[85.13679611899997,27.98091954500012],[85.15085428600015,27.979345302000187],[85.16086719700016,27.985537104000173],[85.16748489100007,27.982194205000035],[85.17899223300009,27.982504374000087],[85.1841202600001,27.972897574000097],[85.18929006400009,27.976221053000188],[85.21233170500008,27.97277138200013],[85.21900694700014,27.97550068700013],[85.22871068300013,27.97440145400003],[85.225502171,27.96294542600003],[85.21557428100016,27.961014429000045],[85.22206774300008,27.951834114000118],[85.20385430300016,27.94528107700011],[85.20138939800005,27.941593990000182],[85.20579103900018,27.936971481000057],[85.20197591700018,27.937092779000118],[85.20102402399999,27.932271195000165],[85.19320345800008,27.934132645000144],[85.18516645100003,27.931776968],[85.1737271720001,27.919516997000184],[85.17167959500004,27.909628661000067],[85.17928885700012,27.89994228300009],[85.16649534999998,27.889157282999967],[85.15775984600003,27.888023985000185],[85.15178289000005,27.8763724900001],[85.14362452,27.87417992300015],[85.14484028600009,27.865942369000155],[85.13951279999998,27.866198568000126],[85.1330948680001,27.859003040000175],[85.11349082600003,27.856906708000103],[85.09152810500012,27.860308281000066],[85.0726028410001,27.852734514000034],[85.0634676700002,27.858891932000063],[85.06768007900013,27.860447614000176],[85.06779538000015,27.86903747200017],[85.09542224300013,27.89383721600006],[85.09699529200014,27.91083015600008],[85.09030193999999,27.91915360800004],[85.08146234000013,27.920238485000027],[85.061784626,27.92958912500012],[85.07422138300014,27.942518613000175],[85.07293099399999,27.95691717400002],[85.06483076000015,27.965523326000156],[85.07490568300004,27.967879161000084],[85.09192651500007,27.957841602000137],[85.09413288300004,27.953291860000093],[85.0986094800001,27.958886997000032],[85.10823384900004,27.954934140000073],[85.11434240400017,27.964061988000026],[85.1252046520001,27.960977699000182],[85.12590006000005,27.96671788400004],[85.11524205799998,27.974524439000167],[85.11381380200015,27.980624805000048],[85.11887738800003,27.986009158000172]]]}},{"type":"Feature","properties":{"adm3_name":"Belkotgadhi","adm3_pcode":"NP0328302","adm2_name":"Nuwakot","adm2_pcode":"NP0328","adm1_name":"Bagmati","adm1_pcode":"NP03","center_lat":27.82583511,"center_lon":85.10910491,"area_sqkm":155.58484526},"geometry":{"type":"Polygon","coordinates":[[[85.16844430200015,27.89101314900004],[85.17803593400009,27.883834394000186],[85.20023887900015,27.883126273000123],[85.20478220200009,27.869253344000068],[85.19748426800003,27.85312391500002],[85.20081823700014,27.845695386999974],[85.20002349000004,27.818561178000152],[85.19141795000013,27.812449891000135],[85.1867587930002,27.813597646000115],[85.18152898700002,27.80774545600019],[85.17796223000005,27.795198956000135],[85.18094760500001,27.78260107199998],[85.17876939900015,27.776546577000097],[85.16929929300011,27.772997170000107],[85.16381847700012,27.766223620000122],[85.15402882400008,27.76681102700013],[85.14854536800004,27.763707337000024],[85.13949183500009,27.76581493200007],[85.13438403800016,27.76166084200008],[85.13080352300017,27.764090501999988],[85.1246619740001,27.76060327200014],[85.11530928700012,27.768838877000064],[85.11487191300017,27.77438993500015],[85.1057198810002,27.77424460500004],[85.08771397800012,27.78773846700005],[85.05245832700012,27.797225085000033],[85.04647552700015,27.801584030000186],[85.04836590600019,27.810138046000077],[85.04698815300014,27.81297976800015],[85.04157844900016,27.812226557000148],[85.04139380500015,27.81720929400018],[85.03780202500018,27.814594468000003],[85.02747104700018,27.816259957000053],[85.01213853500002,27.809652478000032],[85.01676030200008,27.826969567000166],[85.02309631800011,27.833686322000176],[85.01941053600018,27.843432511000167],[85.02823095000008,27.848294161000066],[85.03171073600005,27.854192441000123],[85.04343176100016,27.856249768000115],[85.05124346000002,27.854020162000047],[85.06125668700014,27.86019034100007],[85.0726028410001,27.852734514000034],[85.09152810500012,27.860308281000066],[85.11989229500011,27.856712771000165],[85.13354455600016,27.859103164000146],[85.13951279999998,27.866198568000126],[85.14501051000013,27.86613498000003],[85.143412054,27.873890695000174],[85.15178289000005,27.8763724900001],[85.15731397600004,27.88763738800007],[85.16844430200015,27.89101314900004]]]}},{"type":"Feature","properties":{"adm3_name":"Kispang","adm3_pcode":"NP0328402","adm2_name":"Nuwakot","adm2_pcode":"NP0328","adm1_name":"Bagmati","adm1_pcode":"NP03","center_lat":28.03472184,"center_lon":85.10303261,"area_sqkm":82.56519487},"geometry":{"type":"Polygon","coordinates":[[[85.1350502970001,28.084067000000175],[85.15445956100007,28.088371695999967],[85.17038956900004,28.08264217100015],[85.14807049900008,28.06135701400018],[85.13292751700004,28.038098158000025],[85.1436197650001,28.027492543000104],[85.18704711700008,28.019079729000055],[85.18366883600002,28.009557526000037],[85.18606092000012,27.996818148000106],[85.18021601300006,27.988005027000153],[85.18017877600008,27.981846766],[85.16748489100007,27.982194205000035],[85.16086719700016,27.985537104000173],[85.15085428600015,27.979345302000187],[85.13679611899997,27.98091954500012],[85.12703291300008,27.97817543700006],[85.11887738800003,27.986009158000172],[85.12378429400013,27.992042137000062],[85.10414513700009,28.010104242000185],[85.08193044800015,28.013671606000113],[85.06966403300017,28.012892279000027],[85.05850249900016,28.00784416800008],[85.06192661900013,28.02464702900005],[85.07278627100003,28.03757261500015],[85.08053166700017,28.066906610000164],[85.10467043800011,28.076520783000092],[85.11479008700019,28.076766121000105],[85.12236239200007,28.091178206000045],[85.1350502970001,28.084067000000175]]]}},{"type":"Feature","properties":{"adm3_name":"Tarakeshwor","adm3_pcode":"NP0328403","adm2_name":"Nuwakot","adm2_pcode":"NP0328","adm1_name":"Bagmati","adm1_pcode":"NP03","center_lat":27.88249602,"center_lon":85.03693504,"area_sqkm":72.62078356},"geometry":{"type":"Polygon","coordinates":[[[85.05510182600004,27.932460440999986],[85.09112459100015,27.91868460200016],[85.09685010000005,27.911920931000168],[85.09542224300013,27.89383721600006],[85.06779538000015,27.86903747200017],[85.06744724000012,27.860196632000168],[85.059135166,27.85972603400012],[85.05124346000002,27.854020162000047],[85.04343176100016,27.856249768000115],[85.03171073600005,27.854192441000123],[85.02823095000008,27.848294161000066],[85.01941053600018,27.843432511000167],[85.02280755900011,27.83293719600016],[85.01414153600012,27.83230179500008],[85.00575138000012,27.841969286000165],[85.00628931300014,27.850549526000062],[84.98890357700014,27.858408841000145],[84.994725824,27.8750660070001],[84.98872790000006,27.885337859000167],[84.99228232600016,27.895965216000093],[84.99767110000013,27.899409560000155],[85.0094181250002,27.924579874000134],[85.02834172100006,27.92538287300005],[85.04076951400008,27.930884339000155],[85.05510182600004,27.932460440999986]]]}},{"type":"Feature","properties":{"adm3_name":"Aamachhodingmo","adm3_pcode":"NP0329401","adm2_name":"Rasuwa","adm2_pcode":"NP0329","adm1_name":"Bagmati","adm1_pcode":"NP03","center_lat":28.2161206,"center_lon":85.25326404,"area_sqkm":246.59242001},"geometry":{"type":"Polygon","coordinates":[[[85.202335834,28.340593689000006],[85.24133814800018,28.317752112000054],[85.24699203000006,28.30316896100004],[85.25465957900008,28.29439594700017],[85.27035573800015,28.29732539300005],[85.27362603300014,28.29260300100015],[85.27161793900007,28.283549031000064],[85.30032007000015,28.257628676000138],[85.30961899500008,28.236218453000113],[85.31425824800004,28.20822736500014],[85.3508180840002,28.196592546000147],[85.34208171100005,28.181208528000187],[85.33693481800009,28.181827382000048],[85.33247801400009,28.17430498200009],[85.31580222200006,28.160575238999975],[85.32461081400004,28.151521330000037],[85.30509506400014,28.138724392000086],[85.29883544300012,28.128066554000043],[85.26129706100016,28.096558173000123],[85.24775396100011,28.091969602000123],[85.24315968500011,28.09244216700005],[85.2305447120001,28.10783244200007],[85.22126984400003,28.11241349600004],[85.22093151500002,28.126621525000125],[85.22999536000009,28.138609166000148],[85.21817432400007,28.16337548500001],[85.21207253500017,28.167972841000104],[85.19819111600009,28.162956241000185],[85.19564613900012,28.168778173000124],[85.199924021,28.176710657999987],[85.198813991,28.1848074720001],[85.204263782,28.203961219000128],[85.20109992200007,28.211079022000092],[85.18847666700003,28.219425303000097],[85.18738616600012,28.223238066000192],[85.19402163100017,28.244314971000165],[85.2024552560001,28.250149029000053],[85.1982972990001,28.259109525000156],[85.18675283900006,28.267437137000115],[85.17708570100007,28.29521303000019],[85.17928376300006,28.301790037000163],[85.15972451800008,28.33184930000011],[85.18174775200009,28.324216120000017],[85.202335834,28.340593689000006]]]}},{"type":"Feature","properties":{"adm3_name":"Gosaikunda","adm3_pcode":"NP0329402","adm2_name":"Rasuwa","adm2_pcode":"NP0329","adm1_name":"Bagmati","adm1_pcode":"NP03","center_lat":28.21167284,"center_lon":85.54385998,"area_sqkm":976.95922687},"geometry":{"type":"Polygon","coordinates":[[[85.71189115400004,28.38579927300003],[85.71763781400017,28.375497364000072],[85.72420580400006,28.373294243000085],[85.71878622300004,28.36726799999999],[85.71981720400004,28.35940066400013],[85.73214877500008,28.33927731699997],[85.72741651700005,28.32878242600002],[85.73577902700009,28.32356360700015],[85.73712688500007,28.31919546100005],[85.73294007800013,28.291221274000122],[85.74282377300015,28.271655832000075],[85.74291266100005,28.256836227000175],[85.74827525200008,28.249030836000145],[85.74874100100016,28.238094513000085],[85.75690306500013,28.22887736000013],[85.76383868100004,28.227289001000027],[85.77393392700007,28.218034075000105],[85.77625914700008,28.20853084200007],[85.78201644900001,28.20841983000013],[85.79907523400009,28.198146494000117],[85.79906715800013,28.19049917900002],[85.79356300400019,28.188127232000117],[85.79215960800008,28.183476872000135],[85.78021725200011,28.178069832],[85.77866548100008,28.174302330000042],[85.74957269100005,28.175208231000116],[85.72756436100016,28.16962765300008],[85.71912544400013,28.174013173000045],[85.71246855300012,28.169524831999983],[85.712226879,28.16201756300012],[85.7032798970001,28.163949856000045],[85.68843942000011,28.15599674500003],[85.67716905300011,28.158157663000164],[85.65155790900006,28.1515736760001],[85.6483420190001,28.146218537000156],[85.6374661350001,28.141267601000106],[85.63247654500006,28.130284185000104],[85.62708522200013,28.129212999000117],[85.61483611200003,28.134054662000104],[85.61289712800004,28.15042303400014],[85.60150134199999,28.158044337000035],[85.58385097700004,28.153378633000163],[85.55606883900015,28.167843158000156],[85.53284705700008,28.167400101000165],[85.5267214070002,28.15733258600017],[85.50316727700016,28.15206058300015],[85.49021866900011,28.138640749000047],[85.4952231830001,28.122264056000123],[85.48878457800004,28.111980490999994],[85.48912604700011,28.105712685000135],[85.47334377900012,28.105122962000106],[85.45706659000005,28.092698729000176],[85.44521741000005,28.09001570100003],[85.44168148300012,28.082516501000043],[85.43244856600013,28.080474773000045],[85.42559721500015,28.07246830900016],[85.42544709500015,28.061820448000102],[85.41969465300005,28.05980927900009],[85.412175541,28.06195989300005],[85.40496245900007,28.055210186000135],[85.40396286600009,28.03996697300005],[85.39901321700005,28.036809731999995],[85.3951826380001,28.03795181300012],[85.39630727300013,28.04205715300014],[85.38301362900015,28.05772720300013],[85.35733538000017,28.07053917100006],[85.34621633200015,28.068776387000014],[85.32546568000008,28.073027521000093],[85.29729477300003,28.06271239700009],[85.29244673700005,28.056669668000097],[85.27409043800009,28.061691276000065],[85.25425448700014,28.054206418000035],[85.24920687000017,28.05875954700008],[85.242117073,28.072519064000172],[85.22789810800015,28.085868558000172],[85.23561441500004,28.090665072000032],[85.26011842300015,28.095729852000034],[85.29862953800003,28.12787000500003],[85.30509506400014,28.138724392000086],[85.32510161100002,28.152107661000176],[85.31580222200006,28.160575238999975],[85.33247801400009,28.17430498200009],[85.33693481800009,28.181827382000048],[85.34208171100005,28.181208528000187],[85.3508180840002,28.196592546000147],[85.31425824800004,28.20822736500014],[85.30961899500008,28.236218453000113],[85.30112830600004,28.256215630999964],[85.27460512700014,28.279702180000015],[85.27279256400013,28.28771573900007],[85.30345337500017,28.28984020500013],[85.34025479100004,28.3038935190001],[85.34807898700018,28.30163742200005],[85.34814627200011,28.288427300000016],[85.37006066900008,28.285698616000047],[85.37752371100015,28.278509019000182],[85.41192003500004,28.308287002000096],[85.41526923200011,28.32706012100004],[85.43725213599998,28.334718380000027],[85.45788540300003,28.33695354000002],[85.48725950300008,28.331121395000018],[85.50640995600014,28.33393816700004],[85.52593411200019,28.328276896000087],[85.56163578500014,28.30975544300003],[85.57580414000012,28.31028745800006],[85.58065777400009,28.306230471000045],[85.59183398500008,28.308597393000127],[85.60048199700014,28.304287747000043],[85.59651770600016,28.29895746900008],[85.5988549670002,28.279187723000177],[85.60857055800017,28.256806657000023],[85.63531512000003,28.27385891100017],[85.64499372600002,28.28972728200011],[85.6606064790002,28.3028968750001],[85.6536424500001,28.317400261000163],[85.66427790100005,28.331670729000173],[85.66563103900005,28.347961226000052],[85.67608240200019,28.350627798000062],[85.68607565900001,28.34688068700012],[85.68380190200014,28.382402139000188],[85.71189115400004,28.38579927300003]]]}},{"type":"Feature","properties":{"adm3_name":"Uttargaya","adm3_pcode":"NP0329403","adm2_name":"Rasuwa","adm2_pcode":"NP0329","adm1_name":"Bagmati","adm1_pcode":"NP03","center_lat":28.07091035,"center_lon":85.18278069,"area_sqkm":118.43502337},"geometry":{"type":"Polygon","coordinates":[[[85.19564613900012,28.168778173000124],[85.19819111600009,28.162956241000185],[85.21207253500017,28.167972841000104],[85.21817432400007,28.16337548500001],[85.22999536000009,28.138609166000148],[85.22093151500002,28.126621525000125],[85.22126984400003,28.11241349600004],[85.2305447120001,28.10783244200007],[85.24315968500011,28.09244216700005],[85.23185032300017,28.089167205000024],[85.20939407100002,28.074239283000114],[85.20535080300016,28.06814569900007],[85.20820822000007,28.05456953100014],[85.1946875070002,28.04062705100012],[85.1936690490001,28.030595059000174],[85.20591663000016,28.026829044000017],[85.21737879300007,28.018351940000116],[85.22887235899996,28.016943514000104],[85.21983465300005,28.015557670000202],[85.21621928300004,28.008652916000184],[85.21133588199999,28.013760499000114],[85.20439656399998,28.01331392000003],[85.20825732,28.003832337],[85.19365054900004,27.999184317000186],[85.19294389700019,27.99317396800018],[85.19801305100002,27.992565922000153],[85.1979013780001,27.975277784000074],[85.18839005900014,27.976176915000107],[85.1841202600001,27.972897574000097],[85.18013534500017,27.98754775300017],[85.18606092000012,27.996818148000106],[85.18366883600002,28.009557526000037],[85.18704711700008,28.019079729000055],[85.1436197650001,28.027492543000104],[85.13292751700004,28.038098158000025],[85.14807049900008,28.06135701400018],[85.17038956900004,28.08264217100015],[85.15549473800016,28.088308844000096],[85.13565428100019,28.083996580000186],[85.12955148900008,28.085871993000183],[85.12236239200007,28.091178206000045],[85.12262129700012,28.099683008000117],[85.12501576700015,28.10656868000018],[85.13772169300006,28.109870226000105],[85.1503282130002,28.118093702000177],[85.15814854600006,28.12958467800006],[85.15474182000008,28.14067837200014],[85.17407515000014,28.16233038200016],[85.19564613900012,28.168778173000124]]]}},{"type":"Feature","properties":{"adm3_name":"Kalika","adm3_pcode":"NP0329404","adm2_name":"Rasuwa","adm2_pcode":"NP0329","adm1_name":"Bagmati","adm1_pcode":"NP03","center_lat":28.02928431,"center_lon":85.21658344,"area_sqkm":42.4955192},"geometry":{"type":"Polygon","coordinates":[[[85.2328338580001,28.01871492300006],[85.23939768399998,28.00103762200016],[85.22686498700017,27.986047000999978],[85.23545202600003,27.98071394000005],[85.23724388500004,27.987756402000116],[85.2468960540001,27.98718418100009],[85.25008202800011,27.98045090300008],[85.2447104680001,27.972847681000125],[85.1979013780001,27.975277784000074],[85.19801305100002,27.992565922000153],[85.19294389700019,27.99317396800018],[85.19365054900004,27.999184317000186],[85.20825732,28.003832337],[85.20475020000012,28.01351609500011],[85.21133588199999,28.013760499000114],[85.21621928300004,28.008652916000184],[85.21983465300005,28.015557670000202],[85.22887235899996,28.016943514000104],[85.21737879300007,28.018351940000116],[85.20591663000016,28.026829044000017],[85.1936690490001,28.030595059000174],[85.19356340200017,28.03801326600012],[85.20820822000007,28.05456953100014],[85.20518439600013,28.067761419000078],[85.2091822910001,28.074006488000116],[85.22789810800015,28.085868558000172],[85.242117073,28.072519064000172],[85.25425448700014,28.054206418000035],[85.24458593000013,28.041223917000128],[85.23685830300012,28.036763997000023],[85.2328338580001,28.01871492300006]]]}},{"type":"Feature","properties":{"adm3_name":"Siddhalek","adm3_pcode":"NP0330407","adm2_name":"Dhading","adm2_pcode":"NP0330","adm1_name":"Bagmati","adm1_pcode":"NP03","center_lat":27.84672633,"center_lon":84.83660215,"area_sqkm":106.36238752},"geometry":{"type":"Polygon","coordinates":[[[84.84405239700015,27.89583142200001],[84.87199821100012,27.882698694000055],[84.871963688,27.8752156160001],[84.86532621000009,27.862711440000055],[84.87277296900008,27.86278412000001],[84.872192533,27.866304982000027],[84.8805641290001,27.868343127000173],[84.88477255500013,27.86317016200018],[84.89335651900018,27.861152049000104],[84.90646988000009,27.841637396000067],[84.92403836500003,27.826624224000057],[84.92852990500005,27.8143797730001],[84.94242127500013,27.813110308000148],[84.94024842100015,27.805131924000076],[84.92368597100003,27.797345219000192],[84.91323519700006,27.804979234000093],[84.90767501300007,27.804217272000074],[84.90614301700015,27.80778742600006],[84.90001062300007,27.805799314000073],[84.8812511550001,27.809717212000063],[84.87164493000012,27.80677537700012],[84.87235609500003,27.803375444000096],[84.8683126740001,27.80139980300015],[84.84985215700003,27.808749898000144],[84.84835081900019,27.80459437100012],[84.84092599400002,27.801582767000177],[84.82915475900009,27.818673849000103],[84.82271047400012,27.81644956700012],[84.821194795,27.807824503000063],[84.80848040300015,27.817575915000077],[84.79182778500005,27.812463098000073],[84.78226502700005,27.813796819000178],[84.77691575700007,27.818822029000163],[84.77299911800013,27.82939801400005],[84.77584067900008,27.83526828400011],[84.76744299200014,27.843714636000186],[84.7679215740001,27.851653368000136],[84.76503109000004,27.85427758600003],[84.76923435500008,27.86259940700012],[84.78611257600016,27.867253395000088],[84.79928040800002,27.87820538100016],[84.84405239700015,27.89583142200001]]]}},{"type":"Feature","properties":{"adm3_name":"Benighat Rorang","adm3_pcode":"NP0330408","adm2_name":"Dhading","adm2_pcode":"NP0330","adm1_name":"Bagmati","adm1_pcode":"NP03","center_lat":27.74697313,"center_lon":84.75774476,"area_sqkm":206.53917276},"geometry":{"type":"Polygon","coordinates":[[[84.6655787940001,27.825231169000176],[84.6679158750001,27.818465003000078],[84.68494222100007,27.810266271000103],[84.70729501400012,27.806613781000067],[84.71105239400015,27.800428398000125],[84.71863125600014,27.803674170000082],[84.73072425700016,27.795529289000047],[84.73690748900003,27.798991206000046],[84.73866971299998,27.803992599000082],[84.75373066100002,27.806393008000146],[84.75683495500004,27.814441588000133],[84.76295037400016,27.818270408000053],[84.77383932300012,27.808398038000167],[84.78226502700005,27.813796819000178],[84.79249850800005,27.81249760600007],[84.80848040300015,27.817575915000077],[84.821194795,27.807824503000063],[84.82307604100008,27.816896345000146],[84.83096385100009,27.817735714000037],[84.8359763200001,27.808408134000086],[84.83159730900007,27.803875031000132],[84.83711960700012,27.799422022000158],[84.82853299700017,27.790571235000186],[84.83046599000018,27.778706082000156],[84.82258835900005,27.769313667000056],[84.82305734600001,27.761017419000044],[84.83484218500017,27.756678254000064],[84.84646026399996,27.739091212000115],[84.84756160500007,27.73076166400017],[84.85484538000009,27.725239030000065],[84.85569610500005,27.718113496000115],[84.87048526500018,27.718228857000152],[84.8817720440001,27.708074892000123],[84.88950060700017,27.70684775599999],[84.89522386200008,27.69731039300007],[84.90194551200005,27.695344679999998],[84.88755854200019,27.674685853000028],[84.87853304800016,27.668895534000065],[84.86562340700004,27.679754222000042],[84.82873028500018,27.69239535100013],[84.79945035700013,27.671481550000184],[84.79658484600007,27.68422948600016],[84.78595722000003,27.691900122000106],[84.79065415700012,27.69501848400006],[84.79635960400013,27.709154312000067],[84.78726022700017,27.71612366100004],[84.76997526100011,27.722585420000087],[84.75737097500013,27.735609731000125],[84.73737281500019,27.7327260950001],[84.72848536000015,27.727245628000052],[84.72346278900017,27.729661266000058],[84.71506479100003,27.72609957100013],[84.69997620500004,27.72733864800011],[84.69253582200017,27.721198701000006],[84.68039318000017,27.73042117300014],[84.67452201900016,27.730603372000186],[84.67003802200014,27.73797120000017],[84.68137109600006,27.75820769700005],[84.668475025,27.765842299000106],[84.67467293600006,27.77853457400016],[84.66488555600017,27.78118561200011],[84.64955825499999,27.77940395700005],[84.64748036900004,27.784151622000024],[84.63776256100016,27.78294238200016],[84.63703560600008,27.79444758700009],[84.64456361900011,27.793808017999993],[84.6454691190001,27.80000597700007],[84.63494249800016,27.806990114000033],[84.61820117700006,27.809207139000023],[84.62325147400018,27.816697423000043],[84.64004506600008,27.822136900000036],[84.66149007900013,27.82264720900008],[84.6655787940001,27.825231169000176]]]}},{"type":"Feature","properties":{"adm3_name":"Gajuri","adm3_pcode":"NP0330409","adm2_name":"Dhading","adm2_pcode":"NP0330","adm1_name":"Bagmati","adm1_pcode":"NP03","center_lat":27.75032834,"center_lon":84.89695573,"area_sqkm":139.30526324},"geometry":{"type":"Polygon","coordinates":[[[84.950010248,27.817033459000132],[84.94959044400015,27.798658536000065],[84.94508463400018,27.803118122999987],[84.94365810700015,27.795700951000068],[84.9386486790001,27.794126508000097],[84.94301937800012,27.78981921800005],[84.93454577000016,27.783133426000173],[84.93790183200002,27.765028353000048],[84.9487955840001,27.761671462000038],[84.98900541800009,27.706626128000153],[84.97936752300018,27.702965419000055],[84.97568431200017,27.694675536999966],[84.95856195100014,27.68902850500012],[84.95849252200018,27.68608258000016],[84.95138252100013,27.6834130740001],[84.94449786000013,27.686925458000076],[84.92231182800008,27.68862718500015],[84.91946009000003,27.694096835000092],[84.90821930200008,27.698475692999974],[84.90194551200005,27.695344679999998],[84.89623361500017,27.69672864900002],[84.88950060700017,27.70684775599999],[84.8817720440001,27.708074892000123],[84.87048526500018,27.718228857000152],[84.8582054330002,27.716428439000026],[84.83484218500017,27.756678254000064],[84.82342830700007,27.760509846000048],[84.82247459200008,27.76784560900013],[84.83046599000018,27.778706082000156],[84.82853299700017,27.790571235000186],[84.83677992999996,27.798131320000156],[84.83159730900007,27.803875031000132],[84.8359763200001,27.808408134000086],[84.83968540300012,27.80183847400008],[84.84835081900019,27.80459437100012],[84.84985215700003,27.808749898000144],[84.8608552450001,27.806436915000177],[84.8656036610002,27.80131751500005],[84.8812511550001,27.809717212000063],[84.90001062300007,27.805799314000073],[84.90614301700015,27.80778742600006],[84.90767501300007,27.804217272000074],[84.91323519700006,27.804979234000093],[84.92368597100003,27.797345219000192],[84.94024842100015,27.805131924000076],[84.950010248,27.817033459000132]]]}},{"type":"Feature","properties":{"adm3_name":"Galchhi","adm3_pcode":"NP0330410","adm2_name":"Dhading","adm2_pcode":"NP0330","adm1_name":"Bagmati","adm1_pcode":"NP03","center_lat":27.77908331,"center_lon":84.9872937,"area_sqkm":118.85532418},"geometry":{"type":"Polygon","coordinates":[[[84.91871740900017,27.851995171000056],[84.93537988600008,27.851928333000046],[84.94891531900008,27.84692451000018],[84.97241512300006,27.84755503600013],[84.9761196890002,27.844882526000163],[84.98010017500019,27.847153201000026],[85.00588286800017,27.841778805000107],[85.01394743500012,27.832377660000077],[85.02280755900011,27.83293719600016],[85.01676030200008,27.826969567000166],[85.01231420300019,27.809443687000044],[85.02747104700018,27.816259957000053],[85.03780202500018,27.814594468000003],[85.04139380500015,27.81720929400018],[85.04157844900016,27.812226557000148],[85.04698815300014,27.81297976800015],[85.04836590600019,27.810138046000077],[85.04647552700015,27.801584030000186],[85.05245832700012,27.797225085000033],[85.08771397800012,27.78773846700005],[85.09666740600005,27.779539353000075],[85.08165648300013,27.76666531500013],[85.06772381900004,27.775951060000068],[85.05650794400007,27.775383046000183],[85.05175377900008,27.783396561000185],[85.04856775800015,27.783589990000113],[85.03196691400005,27.77405237600005],[85.02414951200004,27.777014041000022],[85.01878154500007,27.770732328000122],[85.02100920200007,27.767142310999997],[85.01859874500008,27.762474313000155],[85.0147358540001,27.763804441000048],[85.01129844700017,27.760274137000184],[85.00220009900016,27.762894187000022],[85.00152784900017,27.758231343999967],[85.00641005700012,27.75626472700008],[85.00119546200011,27.746222539000144],[85.00331778400006,27.74130026400013],[84.9982875710001,27.70621888300013],[84.98877632300008,27.70665712200008],[84.9487955840001,27.761671462000038],[84.93790183200002,27.765028353000048],[84.93454577000016,27.783133426000173],[84.94301937800012,27.78981921800005],[84.9386486790001,27.794126508000097],[84.94365810700015,27.795700951000068],[84.94508463400018,27.803118122999987],[84.95006874700013,27.79903432300017],[84.95208262300018,27.815855036000073],[84.94860744300007,27.816558040000125],[84.94369271099995,27.811168191000146],[84.92852990500005,27.8143797730001],[84.92403836500003,27.826624224000057],[84.90676353500015,27.841319616000078],[84.905172,27.84702664100018],[84.91321706500013,27.846626185000108],[84.91871740900017,27.851995171000056]]]}},{"type":"Feature","properties":{"adm3_name":"Ichchha Kamana","adm3_pcode":"NP0335401","adm2_name":"Chitawan","adm2_pcode":"NP0335","adm1_name":"Bagmati","adm1_pcode":"NP03","center_lat":27.80395015,"center_lon":84.57707535,"area_sqkm":166.75204648},"geometry":{"type":"Polygon","coordinates":[[[84.6185707090001,27.880181328000106],[84.62671916700015,27.878102775000173],[84.62750987700002,27.872014335000184],[84.63369049700003,27.868825287000107],[84.63466553300003,27.86090857800013],[84.64937966900013,27.859405205000144],[84.64686237400012,27.85368192800007],[84.65860736899997,27.851029610000182],[84.66386876300012,27.84051789200015],[84.66083963700012,27.829957977000113],[84.6655787940001,27.825231169000176],[84.66328100900017,27.82357265400003],[84.63273808400015,27.819876045000107],[84.62325147400018,27.816697423000043],[84.61820117700006,27.809207139000023],[84.63494249800016,27.806990114000033],[84.6454691190001,27.80000597700007],[84.64456361900011,27.793808017999993],[84.63703560600008,27.79444758700009],[84.63776256100016,27.78294238200016],[84.64748036900004,27.784151622000024],[84.64955825499999,27.77940395700005],[84.66488555600017,27.78118561200011],[84.67467293600006,27.77853457400016],[84.668475025,27.765842299000106],[84.68137109600006,27.75820769700005],[84.67003802200014,27.73797120000017],[84.67452201900016,27.730603372000186],[84.65808335600008,27.73817523500008],[84.63748291400003,27.737777556000143],[84.63471858600008,27.744159438000043],[84.6258283840001,27.750571403000105],[84.62759288900014,27.757108534000174],[84.60772843200016,27.77377558500012],[84.58216651700013,27.761778929000172],[84.5756935410001,27.762904848000115],[84.57197518500014,27.76772822900017],[84.57024409700011,27.749961170000113],[84.56495815100008,27.744998905000163],[84.56455063200016,27.739493267000057],[84.54809369600014,27.736371465000047],[84.54234414000013,27.72767165200008],[84.54383533400005,27.735916686000163],[84.51768932400012,27.732183719000147],[84.52581937100018,27.750200359000132],[84.52328534700013,27.761623979000092],[84.5149492600001,27.771059057000063],[84.52374128300002,27.785991297000123],[84.51450525000013,27.80458753800019],[84.494976176,27.809848120000087],[84.49632458200006,27.82083084200019],[84.51698087000011,27.816082545000143],[84.5218440750001,27.8322544830001],[84.5459979360001,27.831716615000175],[84.55505845900007,27.835739278000176],[84.55866995399997,27.857889157000102],[84.57620850400002,27.863529564000086],[84.58041984300007,27.87431885100005],[84.590615061,27.87976021700018],[84.60844642300015,27.871549312000173],[84.61363257600014,27.873015391000074],[84.6185707090001,27.880181328000106]]]}},{"type":"Feature","properties":{"adm3_name":"Shahid Lakhan","adm3_pcode":"NP0436408","adm2_name":"Gorkha","adm2_pcode":"NP0436","adm1_name":"Gandaki","adm1_pcode":"NP04","center_lat":27.92788666,"center_lon":84.63900284,"area_sqkm":148.98348256},"geometry":{"type":"Polygon","coordinates":[[[84.68154036900017,27.994178115000068],[84.69971642400009,27.977640031000192],[84.70313160800002,27.97995319300009],[84.70426571800009,27.976436903000145],[84.70747566500006,27.97941425200002],[84.70897105000005,27.975494504000043],[84.71223101400011,27.97736826400018],[84.71389099800018,27.973589757000074],[84.71702356100009,27.974541349000166],[84.71902005300005,27.968175581000143],[84.72453811400001,27.969060342000034],[84.72445089300001,27.962276764000077],[84.72790275500014,27.961904355000115],[84.73334729000008,27.946678565000127],[84.73957152400008,27.940797510000152],[84.7391602350001,27.936357528000148],[84.73377883200007,27.93309235600014],[84.73607069300012,27.928213833000022],[84.72152833000007,27.927507906000127],[84.71816753000013,27.921413772000047],[84.7109938710002,27.91788859400003],[84.70653200500007,27.921907096000155],[84.69878056200014,27.91773903000006],[84.67528516600015,27.91575350500005],[84.65975544100013,27.896936128000156],[84.64604281600002,27.89150738900014],[84.63271967400003,27.86952464500007],[84.62241469400008,27.88027232100007],[84.6080189180002,27.87150155900002],[84.590615061,27.87976021700018],[84.57792327900006,27.87237098500003],[84.57687640100016,27.86417658000016],[84.56932906500009,27.85957380700006],[84.55877775300013,27.857872910000136],[84.54751446200017,27.862827468000095],[84.55230792900005,27.86980923100015],[84.54447434600011,27.86979066700008],[84.54062342300011,27.87575531599998],[84.54498092800013,27.880582079000135],[84.54044330500008,27.885502563000102],[84.54019772600013,27.89689253299997],[84.54558996900015,27.90773458300004],[84.55140057900007,27.91033757000003],[84.54538516700012,27.91450378400009],[84.55180685900012,27.91832267000007],[84.55309033500008,27.923222312000114],[84.5573219570001,27.923349684000133],[84.55343715600007,27.92960799400015],[84.55740081500005,27.93263553700012],[84.55795678500004,27.942463224000107],[84.568520202,27.944897242000074],[84.57149920300003,27.952785830000145],[84.58162874600012,27.957939221000117],[84.59536986300012,27.957512675000032],[84.59669992100004,27.952302103000186],[84.60812370500008,27.949603410000062],[84.61507698900003,27.95456982800016],[84.65035178500011,27.948995289000152],[84.65347073599997,27.952425595000083],[84.64841533300012,27.964957258000027],[84.65029325200014,27.98362429600019],[84.66024193400017,27.98627741000012],[84.67229589800007,27.997799510000114],[84.68154036900017,27.994178115000068]]]}},{"type":"Feature","properties":{"adm3_name":"Gandaki","adm3_pcode":"NP0436409","adm2_name":"Gorkha","adm2_pcode":"NP0436","adm1_name":"Gandaki","adm1_pcode":"NP04","center_lat":27.86190884,"center_lon":84.69488658,"area_sqkm":123.87544417},"geometry":{"type":"Polygon","coordinates":[[[84.72766487699998,27.928028398000038],[84.73350193700013,27.92396804700007],[84.73589647800014,27.892070017000144],[84.74912384700008,27.886035904000096],[84.74593921400009,27.879833159000157],[84.7524217030001,27.875037510000134],[84.75662900600014,27.860853042000148],[84.76497705400004,27.859234513000047],[84.76744299200014,27.843714636000186],[84.77584067900008,27.83526828400011],[84.77360058600014,27.8241244350001],[84.78227433799995,27.81386218800003],[84.77296699700003,27.80857663100012],[84.76839791499998,27.811627533000074],[84.76887339400017,27.81555056400009],[84.76252512100012,27.818162224000154],[84.75683495500004,27.814441588000133],[84.75373066100002,27.806393008000146],[84.73866971299998,27.803992599000082],[84.73690748900003,27.798991206000046],[84.73072425700016,27.795529289000047],[84.71863125600014,27.803674170000082],[84.71070912600013,27.80050244900014],[84.70729501400012,27.806613781000067],[84.68494222100007,27.810266271000103],[84.6679158750001,27.818465003000078],[84.66089102300013,27.829118430000047],[84.66386876300012,27.84051789200015],[84.66027180400015,27.849451343000112],[84.64718771400007,27.853319466000134],[84.64886335900007,27.859669361000158],[84.63537857600015,27.860300643000187],[84.63271967400003,27.86952464500007],[84.64604281600002,27.89150738900014],[84.65975544100013,27.896936128000156],[84.67528516600015,27.91575350500005],[84.69878056200014,27.91773903000006],[84.70653200500007,27.921907096000155],[84.7109938710002,27.91788859400003],[84.71816753000013,27.921413772000047],[84.72152833000007,27.927507906000127],[84.72766487699998,27.928028398000038]]]}},{"type":"Feature","properties":{"adm3_name":"Aanbu Khaireni","adm3_pcode":"NP0440405","adm2_name":"Tanahu","adm2_pcode":"NP0440","adm1_name":"Gandaki","adm1_pcode":"NP04","center_lat":27.87954825,"center_lon":84.47708151,"area_sqkm":128.01799847},"geometry":{"type":"Polygon","coordinates":[[[84.4630032180001,27.943690676000074],[84.47385304700015,27.939574663000155],[84.47329220300014,27.93564188300018],[84.48164716000014,27.932280573000067],[84.48363860900014,27.927977931000044],[84.50643736500007,27.922966319000125],[84.50793648400017,27.91967132800011],[84.50057994500014,27.91757977000003],[84.5013401980001,27.91555096400003],[84.51000408600002,27.91360146900013],[84.51303240800011,27.917687339000164],[84.51706323000019,27.912476437000123],[84.5229485770002,27.91524278500003],[84.532732761,27.912910780999987],[84.53796771600017,27.917612569000028],[84.54004952800015,27.91334030000013],[84.53753695100013,27.909090579000125],[84.54528457100014,27.904827590000075],[84.54019772600013,27.89689253299997],[84.54044330500008,27.885502563000102],[84.54498092800013,27.880582079000135],[84.5404742380001,27.87651393400006],[84.54447434600011,27.86979066700008],[84.55219193700003,27.870093891000074],[84.54731667200014,27.862995199000185],[84.5586240060001,27.858710583000057],[84.55663150700018,27.838383939999954],[84.54719302300013,27.83191718000012],[84.5218440750001,27.8322544830001],[84.5165984240001,27.8159576110001],[84.46796203400008,27.824311877000124],[84.46481037800007,27.81886031600004],[84.45457683600011,27.820252649],[84.46515636899998,27.82621197400005],[84.46704895000005,27.831250489000134],[84.44760376200014,27.83550235100006],[84.43637434100013,27.834410204000164],[84.43407517000009,27.842440443000157],[84.44301240200004,27.849227978000155],[84.43165843900005,27.857083836000193],[84.43026295800013,27.865138213000023],[84.42204050700008,27.86132136100008],[84.41177578200009,27.865742920000056],[84.40410776800017,27.864434413000083],[84.40283131900013,27.867156834000184],[84.42808791400009,27.89936872100009],[84.44069873500015,27.893314098000126],[84.45525129100005,27.911683745000115],[84.45211951600004,27.917903008000152],[84.4368635580002,27.911470213000033],[84.43202348100004,27.913098737000098],[84.43052978200015,27.917202843000045],[84.43862928700018,27.931278208000144],[84.43587189000002,27.934930647000098],[84.45303917900003,27.937296089000075],[84.4630032180001,27.943690676000074]]]}},{"type":"Feature","properties":{"adm3_name":"Devghat","adm3_pcode":"NP0440406","adm2_name":"Tanahu","adm2_pcode":"NP0440","adm1_name":"Gandaki","adm1_pcode":"NP04","center_lat":27.81076212,"center_lon":84.36702452,"area_sqkm":159.47578722},"geometry":{"type":"Polygon","coordinates":[[[84.33457395599999,27.88015892800001],[84.34816583900007,27.87684026000004],[84.35960024700006,27.86801411600004],[84.38190431500001,27.869152188000044],[84.40007276300017,27.851358086],[84.41040431900004,27.84859781600005],[84.41302224300011,27.85049418800014],[84.42237721700018,27.842909960000043],[84.43321536600016,27.844516555000155],[84.43695745800017,27.83409024100007],[84.44760376200014,27.83550235100006],[84.46648445000004,27.831893172000086],[84.46532584200008,27.82636714900018],[84.45457683600011,27.820252649],[84.44568508600018,27.8230949980001],[84.43265514600017,27.81334016300008],[84.42986705000004,27.79061778500011],[84.43838022100003,27.77883173400006],[84.45180014800007,27.777644622000082],[84.46136765900008,27.77293820000006],[84.47044282600015,27.76085274700006],[84.47134875300006,27.752569443000024],[84.46573381299999,27.752554604000128],[84.45756463500014,27.759280553000004],[84.450442832,27.759276813000053],[84.43693546800012,27.74277088900004],[84.42192493300007,27.741258468000016],[84.42405848800011,27.746075694000176],[84.41770308300016,27.749152190000196],[84.41987662400015,27.754328136000144],[84.41739898400016,27.759017298000174],[84.40613486200002,27.761755994000108],[84.39200789799997,27.77546940700012],[84.37836720000007,27.779124106000094],[84.36765334799998,27.774435292000078],[84.36062908500014,27.7535364310001],[84.35163550300013,27.74885539500002],[84.34377837700012,27.751115564000084],[84.33986004500014,27.7439323960001],[84.33399816200016,27.74887654500002],[84.32503579600007,27.748663231000137],[84.32187787700013,27.75922298100004],[84.31554632400017,27.76327395100003],[84.3182187430001,27.774298441000038],[84.31376004700012,27.785359561000064],[84.29998930100007,27.792314463000142],[84.29795628400018,27.80641791100004],[84.30168166900012,27.80913760200008],[84.3008046610002,27.815242538000177],[84.3056233210001,27.818803545000023],[84.29996999500005,27.822705665000115],[84.29235028700003,27.836617914000033],[84.29633603300016,27.838369259000103],[84.29726672400015,27.84740333400004],[84.30811275700006,27.863712104000058],[84.32625421000012,27.870053139000106],[84.33457395599999,27.88015892800001]]]}}]}