{"type":"FeatureCollection","features":[{"type":"Feature","properties":{"DISTRICT":"DHADING","PALIKA":"Benighat Rorang","TYPE":"Gaunpalika","WARD":3},"geometry":{"type":"Polygon","coordinates":[[[84.83474581200005,27.813756040000047],[84.83598119800007,27.808410665000054],[84.831602188,27.803877561000032],[84.83678480800005,27.798133850000056],[84.82769827300005,27.78882578400004],[84.81934536200002,27.786824762000037],[84.81369227400003,27.788033622000057],[84.80615759900007,27.79641405800004],[84.80020338700005,27.793576651000013],[84.79510520200003,27.795905045000033],[84.78694264900005,27.814343567000037],[84.79250338700005,27.81250013700003],[84.80848528200005,27.817578447000074],[84.82119967400007,27.80782703400007],[84.82537032400006,27.81890217200004],[84.83474581200005,27.813756040000047]]]}},{"type":"Feature","properties":{"DISTRICT":"DHADING","PALIKA":"Benighat Rorang","TYPE":"Gaunpalika","WARD":4},"geometry":{"type":"Polygon","coordinates":[[[84.82849301900006,27.78992876100006],[84.83047086800005,27.77870861300005],[84.82259323600005,27.76931619900006],[84.82217426700002,27.755583486000035],[84.81439857100008,27.751561718000055],[84.81460647500003,27.74592697700007],[84.80855865400008,27.74286033900006],[84.80841847400006,27.737441947000043],[84.80346042100004,27.732570614000046],[84.78696222600007,27.744990540000067],[84.79443888600005,27.749678931000066],[84.79678930900005,27.756336748000027],[84.79234032900007,27.771645238000076],[84.77506812200005,27.783594504000057],[84.78917250900005,27.78608664000008],[84.79338418200004,27.798838878000026],[84.79909297100002,27.793596631000067],[84.80615759900007,27.79641405800004],[84.81479851300007,27.787548809000043],[84.82849301900006,27.78992876100006]]]}},{"type":"Feature","properties":{"DISTRICT":"DHADING","PALIKA":"Benighat Rorang","TYPE":"Gaunpalika","WARD":5},"geometry":{"type":"Polygon","coordinates":[[[84.77297187600004,27.808579165000026],[84.78790403700002,27.813600337000032],[84.79338418200004,27.798838878000026],[84.78917250900005,27.78608664000008],[84.77194025700004,27.782050779000034],[84.76352678300003,27.783433140000056],[84.75040038500003,27.805118664000073],[84.76252999999998,27.818164756000044],[84.76887827400004,27.81555309600003],[84.76840279400004,27.81163006500003],[84.77297187600004,27.808579165000026]]]}},{"type":"Feature","properties":{"DISTRICT":"DHADING","PALIKA":"Benighat Rorang","TYPE":"Gaunpalika","WARD":7},"geometry":{"type":"Polygon","coordinates":[[[84.75040038500003,27.805118664000073],[84.76159119900005,27.78478623700004],[84.76918549200008,27.782339145000034],[84.75706568800007,27.772244537000063],[84.74572176900006,27.76868504400004],[84.74457618000008,27.76526645700005],[84.732634,27.771994843000066],[84.737717532,27.780051516000064],[84.72748628600004,27.794019281000036],[84.73663603400006,27.798744758000048],[84.73867459100006,27.803995133000054],[84.75040038500003,27.805118664000073]]]}},{"type":"Feature","properties":{"DISTRICT":"DHADING","PALIKA":"Benighat Rorang","TYPE":"Gaunpalika","WARD":8},"geometry":{"type":"Polygon","coordinates":[[[84.72959140400008,27.795925894000046],[84.72848048300004,27.790264384000064],[84.73367732800006,27.788562811000077],[84.733954807,27.78181779600004],[84.737717532,27.780051516000064],[84.73259075500006,27.772071773000036],[84.74342636100005,27.766917352000064],[84.74366599700004,27.761869121000075],[84.73730197900005,27.758297899000077],[84.73909734500006,27.756289359000053],[84.73422288700004,27.749379961000045],[84.74604950500002,27.73434269200002],[84.72849023500004,27.727248164000052],[84.72346766400005,27.72966380200006],[84.71506966600003,27.72610210800007],[84.69872332200003,27.726805962000075],[84.69451886800005,27.736400095000086],[84.70056280600005,27.74882358000008],[84.69477641000003,27.756713152000035],[84.70405072800006,27.757354372000066],[84.70933212000006,27.761839682000073],[84.70851721300002,27.77454365300002],[84.71229922100008,27.777073676000047],[84.71425838800005,27.78653254700003],[84.72394604600004,27.792122455000023],[84.72525570100004,27.80033461400006],[84.72959140400008,27.795925894000046]]]}},{"type":"Feature","properties":{"DISTRICT":"DHADING","PALIKA":"Benighat Rorang","TYPE":"Gaunpalika","WARD":6},"geometry":{"type":"Polygon","coordinates":[[[84.77425584700006,27.783966833000076],[84.79234032900007,27.771645238000076],[84.79678930900005,27.756336748000027],[84.79443888600005,27.749678931000066],[84.77753517000008,27.741763485000035],[84.76630590100007,27.742259380000064],[84.76257993900003,27.734207415000068],[84.74604950500002,27.73434269200002],[84.73422288700004,27.749379961000045],[84.73909734500006,27.756289359000053],[84.73730197900005,27.758297899000077],[84.74096105800001,27.75821071700005],[84.74572176900006,27.76868504400004],[84.74898741500002,27.76786198400003],[84.75091532700003,27.77177266500007],[84.75706568800007,27.772244537000063],[84.77425584700006,27.783966833000076]]]}},{"type":"Feature","properties":{"DISTRICT":"DHADING","PALIKA":"Gajuri","TYPE":"Gaunpalika","WARD":1},"geometry":{"type":"Polygon","coordinates":[[[84.89146176800003,27.808492396000073],[84.88730659400005,27.80438375700004],[84.88660310400006,27.790542737000063],[84.879682239,27.786248569000065],[84.87652288200007,27.766721892000074],[84.84677218500008,27.770668230000073],[84.84840497900004,27.77908475300007],[84.85929755300002,27.781079505000033],[84.86661382200003,27.78748174000003],[84.86574156700003,27.796177571000047],[84.87236097400003,27.803377973000067],[84.87164980900008,27.806777906000036],[84.88125603400005,27.809719740000048],[84.89146176800003,27.808492396000073]]]}},{"type":"Feature","properties":{"DISTRICT":"DHADING","PALIKA":"Gajuri","TYPE":"Gaunpalika","WARD":2},"geometry":{"type":"Polygon","coordinates":[[[84.86831755300004,27.801402333000055],[84.86590093700005,27.786504816000047],[84.85929755300002,27.781079505000033],[84.84840497900004,27.77908475300007],[84.84879749300006,27.772954809000044],[84.84289787600004,27.771170183000038],[84.84331485400008,27.76069263000005],[84.84719573400007,27.756750048000075],[84.84569493400005,27.747791201000034],[84.85078113200007,27.738965764000056],[84.84642683100003,27.73914136400004],[84.83310375100007,27.758712638000073],[84.82302885000006,27.76113519000006],[84.82259323600005,27.76931619900006],[84.83047086800005,27.77870861300005],[84.82853787500004,27.790573766000023],[84.83712448600005,27.79942455300005],[84.83159962100007,27.804123477000072],[84.83598119800007,27.808410665000054],[84.83897636900008,27.802206334000054],[84.843369475,27.80213447600005],[84.84985703600003,27.808752428000048],[84.86831755300004,27.801402333000055]]]}},{"type":"Feature","properties":{"DISTRICT":"DHADING","PALIKA":"Gajuri","TYPE":"Gaunpalika","WARD":3},"geometry":{"type":"Polygon","coordinates":[[[84.84299623700008,27.77125986400005],[84.87555914600006,27.76617980000003],[84.87515634000002,27.76250718500006],[84.88023876600003,27.760685808000062],[84.88316860200004,27.741109111000075],[84.88075081500006,27.73433592800007],[84.87084773100007,27.72653158800006],[84.871883972,27.717435232000067],[84.85821030700001,27.71643097000003],[84.85485025500003,27.725241562000065],[84.84756648100006,27.730764196000035],[84.84642683100003,27.73914136400004],[84.85078113200007,27.738965764000056],[84.84569493400005,27.747791201000034],[84.84719573400007,27.756750048000075],[84.84331485400008,27.76069263000005],[84.84299623700008,27.77125986400005]]]}},{"type":"Feature","properties":{"DISTRICT":"DHADING","PALIKA":"Benighat Rorang","TYPE":"Gaunpalika","WARD":10},"geometry":{"type":"Polygon","coordinates":[[[84.68494709900006,27.81026880600007],[84.69690623700004,27.80836123700003],[84.69435678300005,27.79846520900001],[84.69040891800006,27.799148208000076],[84.69409596600006,27.794355761000084],[84.69010367500005,27.788776009000056],[84.69375348400007,27.77767106600004],[84.68697345100007,27.76852252500005],[84.68673172000007,27.754163310000017],[84.68107297300008,27.751093555000065],[84.68069496200008,27.76003880800005],[84.66847990100007,27.765844836000035],[84.67415718200004,27.779162359000054],[84.64956313200005,27.779406494000057],[84.64748524700008,27.78415415900002],[84.63776743900004,27.782944920000034],[84.63704048400005,27.794450125000022],[84.64456849600003,27.79381055600004],[84.64547399700007,27.80000851400007],[84.63494737600006,27.80699265100002],[84.61820605500003,27.80920967700007],[84.62357674500001,27.81681801900004],[84.64075578400006,27.822316620000034],[84.66149495800003,27.82264974400005],[84.66558367300006,27.825233705000073],[84.668459877,27.818126516000056],[84.68494709900006,27.81026880600007]]]}},{"type":"Feature","properties":{"DISTRICT":"DHADING","PALIKA":"Benighat Rorang","TYPE":"Gaunpalika","WARD":9},"geometry":{"type":"Polygon","coordinates":[[[84.72525570100004,27.80033461400006],[84.72394604600004,27.792122455000023],[84.71425838800005,27.78653254700003],[84.71229922100008,27.777073676000047],[84.70872373300003,27.775289402000055],[84.70933212000006,27.761839682000073],[84.70405072800006,27.757354372000066],[84.69467086700007,27.756465547000058],[84.70072544400006,27.747184855000047],[84.69451886800005,27.736400095000086],[84.69872332200003,27.726805962000075],[84.69221905100005,27.721256978000046],[84.68039805500005,27.730423711000075],[84.67452689300006,27.73060591100006],[84.67002422300001,27.737515841000054],[84.67573063100006,27.747555035000058],[84.68744389700001,27.75611808400004],[84.68697345100007,27.76852252500005],[84.69375348400007,27.77767106600004],[84.69010367500005,27.788776009000056],[84.69409596600006,27.794355761000084],[84.69047153100007,27.799319381000025],[84.69435678300005,27.79846520900001],[84.69690623700004,27.80836123700003],[84.70729989200001,27.80661631600004],[84.71071400400005,27.80050498400005],[84.718464345,27.80369338800006],[84.72525570100004,27.80033461400006]]]}},{"type":"Feature","properties":{"DISTRICT":"DHADING","PALIKA":"Gajuri","TYPE":"Gaunpalika","WARD":8},"geometry":{"type":"Polygon","coordinates":[[[84.96259512800003,27.744071548000072],[84.96507646800003,27.736101678000054],[84.97095764000002,27.73245310300007],[84.98886173700002,27.704276676000067],[84.97937239700008,27.70296794700005],[84.97568918600004,27.694678065000048],[84.95856682500005,27.68903103400004],[84.95849739600004,27.686085109000032],[84.95138739500003,27.683415604000047],[84.94450273300001,27.686927987000043],[84.92188106800003,27.688813066000016],[84.91941825300006,27.695552609000067],[84.93218831300004,27.710235632000032],[84.92088722100004,27.73231484100006],[84.92336362200007,27.745153482000035],[84.93382652300005,27.752176340000066],[84.94820723200006,27.743692716000055],[84.96259512800003,27.744071548000072]]]}},{"type":"Feature","properties":{"DISTRICT":"DHADING","PALIKA":"Gajuri","TYPE":"Gaunpalika","WARD":7},"geometry":{"type":"Polygon","coordinates":[[[84.93448822700003,27.78273255000005],[84.93790671000004,27.765030881000015],[84.94880046100005,27.76167399000008],[84.96259512800003,27.744071548000072],[84.94820723200006,27.743692716000055],[84.93382652300005,27.752176340000066],[84.92463678400006,27.744280894000042],[84.91697841500007,27.753622429000075],[84.91870100600005,27.759208332000064],[84.91282898100008,27.76472492700002],[84.91982875700005,27.78165546400004],[84.92169085100002,27.780325552000086],[84.91970640200002,27.784453836000065],[84.92511043500008,27.787400287000022],[84.93097238100007,27.779748946000044],[84.93448822700003,27.78273255000005]]]}},{"type":"Feature","properties":{"DISTRICT":"DHADING","PALIKA":"Siddhalek","TYPE":"Gaunpalika","WARD":6},"geometry":{"type":"Polygon","coordinates":[[[84.89867177500008,27.851516093000047],[84.91317783300008,27.834536547000024],[84.89579587300007,27.829497646000046],[84.89397221500008,27.83363805700003],[84.88141888900002,27.830352642000037],[84.87840712500008,27.826259084000068],[84.87993078500006,27.809155144000044],[84.87164980900008,27.806777906000036],[84.87215157100005,27.803049936000033],[84.86528033200003,27.801364973000027],[84.86086012400006,27.806439444000038],[84.84985703600003,27.808752428000048],[84.84740815000004,27.80395975500005],[84.83847754900005,27.802753089000074],[84.83474581200005,27.813756040000047],[84.84124679900003,27.814932667000054],[84.84686476200005,27.834647992000047],[84.85647555900005,27.834137510000055],[84.86383692000001,27.838822588000024],[84.87332039900008,27.836407588000046],[84.87287331200008,27.84332752200004],[84.87897737800003,27.84915003900005],[84.89091885500005,27.84618344200002],[84.89867177500008,27.851516093000047]]]}},{"type":"Feature","properties":{"DISTRICT":"DHADING","PALIKA":"Siddhalek","TYPE":"Gaunpalika","WARD":5},"geometry":{"type":"Polygon","coordinates":[[[84.88897074200005,27.863754832000037],[84.89674275700008,27.858542680000024],[84.89860921300004,27.85185718700008],[84.89361147500006,27.84722633100005],[84.87897737800003,27.84915003900005],[84.87287331200008,27.84332752200004],[84.87332039900008,27.836407588000046],[84.86383692000001,27.838822588000024],[84.85647555900005,27.834137510000055],[84.84686476200005,27.834647992000047],[84.84371065400003,27.841846168000064],[84.86059331700002,27.855206125000052],[84.86458141900005,27.86373167700004],[84.87277785000003,27.86278664800005],[84.87219741500004,27.866307510000073],[84.88056901000003,27.868345655000045],[84.88477743600002,27.863172690000052],[84.88897074200005,27.863754832000037]]]}},{"type":"Feature","properties":{"DISTRICT":"DHADING","PALIKA":"Siddhalek","TYPE":"Gaunpalika","WARD":7},"geometry":{"type":"Polygon","coordinates":[[[84.91317783300008,27.834536547000024],[84.92404324600004,27.826626751000045],[84.92853478400006,27.814382300000034],[84.94242615500008,27.813112834000048],[84.94025330000005,27.805134451000075],[84.92290108000003,27.797337234000047],[84.91324007600006,27.804981762000068],[84.90767989300006,27.80421980000006],[84.90614789500006,27.80778995400004],[84.90001550200002,27.805801842000054],[84.87993078500006,27.809155144000044],[84.87840712500008,27.826259084000068],[84.88141888900002,27.830352642000037],[84.89397221500008,27.83363805700003],[84.89579587300007,27.829497646000046],[84.91317783300008,27.834536547000024]]]}},{"type":"Feature","properties":{"DISTRICT":"DHADING","PALIKA":"Benighat Rorang","TYPE":"Gaunpalika","WARD":2},"geometry":{"type":"Polygon","coordinates":[[[84.84642683100003,27.73914136400004],[84.84756648100006,27.730764196000035],[84.85485025500003,27.725241562000065],[84.855299395,27.718711842000047],[84.86213531500005,27.71504840900007],[84.85474964200006,27.70745727900004],[84.84547054700005,27.70812337800004],[84.84497272100002,27.70594025200006],[84.85455885400006,27.70452997500007],[84.85529770400007,27.695094895000068],[84.86466102200008,27.692239182000037],[84.85651465300003,27.68384511100004],[84.82873515900005,27.692397884000066],[84.79945523000002,27.671484085000024],[84.79658971900005,27.68423202000002],[84.78596209400006,27.69190265700007],[84.79065903100008,27.695021018000034],[84.79636447800004,27.70915684600004],[84.78726510200005,27.716126195000076],[84.76998013700008,27.722587955000048],[84.75737585000007,27.735612266000032],[84.76285408700002,27.73433903300003],[84.76630590100007,27.742259380000064],[84.77619716700006,27.741443804000035],[84.78687466500008,27.745509992000056],[84.80424669100005,27.732606562000054],[84.80855865400008,27.74286033900006],[84.81460647500003,27.74592697700007],[84.81439857100008,27.751561718000055],[84.82152281700006,27.75436002300006],[84.82270493400006,27.765112391000056],[84.82343318400007,27.760512378000044],[84.83310375100007,27.758712638000073],[84.84642683100003,27.73914136400004]]]}},{"type":"Feature","properties":{"DISTRICT":"DHADING","PALIKA":"Benighat Rorang","TYPE":"Gaunpalika","WARD":1},"geometry":{"type":"Polygon","coordinates":[[[84.871883972,27.717435232000067],[84.88177691900006,27.708077423000073],[84.88950548200005,27.70685028600007],[84.89522873600004,27.69731292300002],[84.90195038600005,27.695347211000065],[84.88756341500005,27.674688384000035],[84.87973945300007,27.66870766500005],[84.85651465300003,27.68384511100004],[84.86474156600008,27.69257027900005],[84.85529770400007,27.695094895000068],[84.85455885400006,27.70452997500007],[84.84704516900007,27.70424450100006],[84.84459849600006,27.707131514000018],[84.85443462500005,27.707294538000028],[84.861049049,27.71675398800005],[84.871883972,27.717435232000067]]]}},{"type":"Feature","properties":{"DISTRICT":"DHADING","PALIKA":"Siddhalek","TYPE":"Gaunpalika","WARD":2},"geometry":{"type":"Polygon","coordinates":[[[84.84080677000006,27.848708878000036],[84.83512876700004,27.852021361000034],[84.81223820400004,27.84808127100007],[84.80919886700006,27.85356791500003],[84.80074822500006,27.854275961000035],[84.80430112600003,27.86620126200006],[84.79611417900009,27.87377732000004],[84.79707724900003,27.876242114000036],[84.83763668600004,27.89329219700005],[84.84167551600007,27.884852460000047],[84.832104756,27.874501105000036],[84.83880867400003,27.871723841000065],[84.83648466500003,27.869026169000048],[84.83905182500007,27.866043855000044],[84.84671124100002,27.863242422000045],[84.84088548000004,27.861956003000056],[84.84080677000006,27.848708878000036]]]}},{"type":"Feature","properties":{"DISTRICT":"DHADING","PALIKA":"Siddhalek","TYPE":"Gaunpalika","WARD":1},"geometry":{"type":"Polygon","coordinates":[[[84.84326275200002,27.896204279000077],[84.85540308900005,27.892630365000056],[84.85812807800004,27.887853153000034],[84.86680890100007,27.886045898000077],[84.87330923100005,27.879827752000043],[84.86059331700002,27.855206125000052],[84.84795671300002,27.847866386000085],[84.84616461100006,27.843268269000077],[84.84071552800003,27.848887611000066],[84.84077837700005,27.861559599000024],[84.84662606000006,27.863464026000024],[84.83905182500007,27.866043855000044],[84.83648466500003,27.869026169000048],[84.83880867400003,27.871723841000065],[84.83204487200001,27.875306844000086],[84.84167551600007,27.884852460000047],[84.83763668600004,27.89329219700005],[84.84326275200002,27.896204279000077]]]}},{"type":"Feature","properties":{"DISTRICT":"DHADING","PALIKA":"Siddhalek","TYPE":"Gaunpalika","WARD":3},"geometry":{"type":"Polygon","coordinates":[[[84.81223820400004,27.84808127100007],[84.80151175100005,27.842296237000024],[84.80190985600005,27.831807623000035],[84.79579742500005,27.828492694000037],[84.791299683,27.82977512900004],[84.78820874700004,27.82249666800004],[84.79374977700007,27.81283362800008],[84.78226990600005,27.813799351000053],[84.77360546500005,27.82412696700004],[84.77558076900004,27.83587013300007],[84.76729975800001,27.84411731700003],[84.76505164900004,27.854611650000038],[84.76923923700008,27.86260193900005],[84.78611745800004,27.867255927000027],[84.79611417900009,27.87377732000004],[84.80430112600003,27.86620126200006],[84.80074822500006,27.854275961000035],[84.80919886700006,27.85356791500003],[84.81223820400004,27.84808127100007]]]}},{"type":"Feature","properties":{"DISTRICT":"DHADING","PALIKA":"Siddhalek","TYPE":"Gaunpalika","WARD":4},"geometry":{"type":"Polygon","coordinates":[[[84.83740059300004,27.85186322600003],[84.84616461100006,27.843268269000077],[84.84333428800007,27.84084225200007],[84.84686476200005,27.834647992000047],[84.84124679900003,27.814932667000054],[84.83474581200005,27.813756040000047],[84.82537032400006,27.81890217200004],[84.82119967400007,27.80782703400007],[84.80848528200005,27.817578447000074],[84.79374977700007,27.81283362800008],[84.78823066600006,27.823254601000034],[84.79174311500002,27.830210347000047],[84.79602870600007,27.828541006000023],[84.80308498100003,27.833280760000036],[84.80200586400008,27.842706208000035],[84.8099639580001,27.847390733000054],[84.83740059300004,27.85186322600003]]]}},{"type":"Feature","properties":{"DISTRICT":"DHADING","PALIKA":"Gajuri","TYPE":"Gaunpalika","WARD":5},"geometry":{"type":"Polygon","coordinates":[[[84.91793617700003,27.800276013000033],[84.91201648600008,27.796240838000084],[84.90395326200007,27.798297269000045],[84.89981342400006,27.792975114000054],[84.90464948100004,27.777658631000058],[84.91567955400005,27.776259425000035],[84.90977630200007,27.764615680000073],[84.91625087600003,27.75645733600004],[84.91122921400003,27.751925485000076],[84.90316946500008,27.752165641000037],[84.90352266700006,27.743346563000042],[84.88931710800006,27.743619114000065],[84.87990473400004,27.761330932000085],[84.87492592200005,27.763036571000036],[84.88064889100008,27.778864997000028],[84.879682239,27.786248569000065],[84.886583795,27.79050680200004],[84.88493052200005,27.793109604000048],[84.88873837200003,27.79699944300006],[84.88744631800006,27.80472129200007],[84.89146176800003,27.808492396000073],[84.90001550200002,27.805801842000054],[84.90614789500006,27.80778995400004],[84.90767989300006,27.80421980000006],[84.91324007600006,27.804981762000068],[84.91793617700003,27.800276013000033]]]}},{"type":"Feature","properties":{"DISTRICT":"DHADING","PALIKA":"Gajuri","TYPE":"Gaunpalika","WARD":6},"geometry":{"type":"Polygon","coordinates":[[[84.95208750200003,27.815857562000076],[84.95007362600003,27.799036849000057],[84.94508951300008,27.803120650000025],[84.94366298500003,27.79570347800007],[84.93865355800006,27.794129036000072],[84.94329276100007,27.79087803000004],[84.93979707600002,27.78608740100003],[84.93586340700006,27.78625175800005],[84.93159761200008,27.779672526000073],[84.92564199200005,27.78726812000008],[84.91970640200002,27.784453836000065],[84.92169085100002,27.780325552000086],[84.91982875700005,27.78165546400004],[84.91283992500004,27.76436164700004],[84.91870100600005,27.759208332000064],[84.91697841500007,27.753622429000075],[84.92347279000003,27.74833157400008],[84.92183137800004,27.730772182000067],[84.90950430300005,27.731875753000054],[84.90238645500003,27.748707626000055],[84.90316946500008,27.752165641000037],[84.91122921400003,27.751925485000076],[84.91625087600003,27.75645733600004],[84.90977630200007,27.764615680000073],[84.91567955400005,27.776259425000035],[84.90331181400005,27.779163161000042],[84.90094803400007,27.795435850000054],[84.90408093300003,27.798318956000053],[84.91228213700003,27.79630002500005],[84.91793617700003,27.800276013000033],[84.92445749400005,27.797547929000075],[84.94025330000005,27.805134451000075],[84.94787843000006,27.81612790500003],[84.95208750200003,27.815857562000076]]]}},{"type":"Feature","properties":{"DISTRICT":"DHADING","PALIKA":"Gajuri","TYPE":"Gaunpalika","WARD":4},"geometry":{"type":"Polygon","coordinates":[[[84.88931710800006,27.743619114000065],[84.907393267,27.740945530000033],[84.90545231000004,27.736285915000057],[84.90908597800006,27.732101913000065],[84.92183137800004,27.730772182000067],[84.93185258200002,27.711451643000036],[84.92968008200006,27.704346055000027],[84.91946496500003,27.694099365000042],[84.90767305900002,27.698576580000058],[84.90195038600005,27.695347211000065],[84.89566787200005,27.697001021000062],[84.88950548200005,27.70685028600007],[84.88177691900006,27.708077423000073],[84.871883972,27.717435232000067],[84.87084773100007,27.72653158800006],[84.88075081500006,27.73433592800007],[84.88316860200004,27.741109111000075],[84.88052750500002,27.759375430000038],[84.88931710800006,27.743619114000065]]]}},{"type":"Feature","properties":{"DISTRICT":"CHITAWAN","PALIKA":"Kalika","TYPE":"Nagarpalika","WARD":6},"geometry":{"type":"Polygon","coordinates":[[[84.53279039900005,27.685709868000064],[84.53246325,27.68292698700003],[84.54530344100004,27.678838439000064],[84.54930745700004,27.67347086000007],[84.54614894000007,27.670372024000073],[84.52997705600006,27.668907392000055],[84.52313467900007,27.655429928000043],[84.51419390900007,27.65946135800004],[84.51623583600008,27.665035704000054],[84.50927525500003,27.66226596400002],[84.50750573800006,27.66538378000007],[84.52189752800007,27.670767844000068],[84.51918429000006,27.672551390000024],[84.52240906200007,27.67495116400005],[84.51738449100003,27.67742704800003],[84.52671426400005,27.685933936000026],[84.53279039900005,27.685709868000064]]]}},{"type":"Feature","properties":{"DISTRICT":"CHITAWAN","PALIKA":"Kalika","TYPE":"Nagarpalika","WARD":7},"geometry":{"type":"Polygon","coordinates":[[[84.56455550700007,27.739495808000065],[84.56393841400006,27.72835726300008],[84.55728196800004,27.721978904000025],[84.55548438300006,27.714971625000032],[84.54004878000003,27.70672763600004],[84.54289360600004,27.689415950000072],[84.55552241500003,27.69006753500003],[84.56470205200002,27.684870526000033],[84.54930745700004,27.67347086000007],[84.54530344100004,27.678838439000064],[84.53246325,27.68292698700003],[84.53282451500007,27.685960159000047],[84.53944693000005,27.692861886000063],[84.53904247200006,27.708117072000054],[84.54762470600008,27.73591785300005],[84.56455550700007,27.739495808000065]]]}},{"type":"Feature","properties":{"DISTRICT":"CHITAWAN","PALIKA":"Kalika","TYPE":"Nagarpalika","WARD":5},"geometry":{"type":"Polygon","coordinates":[[[84.54384020900005,27.735919228000053],[84.54442277600003,27.718827269000034],[84.53904247200006,27.708117072000054],[84.53944693000005,27.692861886000063],[84.53279039900005,27.685709868000064],[84.51763955600006,27.683273126000078],[84.52712215000008,27.734413653000043],[84.54384020900005,27.735919228000053]]]}},{"type":"Feature","properties":{"DISTRICT":"CHITAWAN","PALIKA":"Kalika","TYPE":"Nagarpalika","WARD":2},"geometry":{"type":"Polygon","coordinates":[[[84.50462919500005,27.716427586000055],[84.50658903900005,27.694496846000042],[84.50206289900007,27.68596679100006],[84.50591761300005,27.679154695000076],[84.47740445100004,27.682358031000035],[84.47546144300007,27.68929161400008],[84.48459294700007,27.69701450600007],[84.48461334800004,27.710818017000065],[84.50462919500005,27.716427586000055]]]}},{"type":"Feature","properties":{"DISTRICT":"CHITAWAN","PALIKA":"Kalika","TYPE":"Nagarpalika","WARD":9},"geometry":{"type":"Polygon","coordinates":[[[84.62589317900006,27.751072274000016],[84.63261214400003,27.745888600000047],[84.61690745600004,27.72293977700008],[84.61103604500005,27.72007793800002],[84.60131666000007,27.72256168000007],[84.59926128300003,27.714703289000056],[84.58726090000003,27.719661960000053],[84.58177101100004,27.73141725300007],[84.58679861000006,27.73666648900008],[84.58673521900005,27.743875278000075],[84.57972700200008,27.745003562000072],[84.58257368200003,27.757305817000027],[84.58763453000003,27.759303658000086],[84.58466116000005,27.76304571000002],[84.60773330900008,27.773778125000018],[84.62759776500009,27.75711107300003],[84.62589317900006,27.751072274000016]]]}},{"type":"Feature","properties":{"DISTRICT":"CHITAWAN","PALIKA":"Kalika","TYPE":"Nagarpalika","WARD":8},"geometry":{"type":"Polygon","coordinates":[[[84.58466116000005,27.76304571000002],[84.58763453000003,27.759303658000086],[84.58257368200003,27.757305817000027],[84.57972700200008,27.745003562000072],[84.58673521900005,27.743875278000075],[84.58679861000006,27.73666648900008],[84.58185652800003,27.733079730000046],[84.58428846800007,27.723379203000032],[84.59926128300003,27.714703289000056],[84.606925028,27.70198111900004],[84.59613983100006,27.684034865000058],[84.58832544600004,27.68333498800007],[84.58059342100003,27.673738160000028],[84.56370093400004,27.68191227500005],[84.56424966200005,27.685488276000065],[84.55638718000006,27.68978657400003],[84.54289360600004,27.689415950000072],[84.53932452700008,27.70250008200002],[84.54748171200002,27.713004517000055],[84.55548438300006,27.714971625000032],[84.55728196800004,27.721978904000025],[84.56393841400006,27.72835726300008],[84.56478662100005,27.74459610400004],[84.57024897200006,27.749963712000064],[84.57166673300009,27.767474787000026],[84.57569841700007,27.762907388000038],[84.58466116000005,27.76304571000002]]]}},{"type":"Feature","properties":{"DISTRICT":"CHITAWAN","PALIKA":"Kalika","TYPE":"Nagarpalika","WARD":11},"geometry":{"type":"Polygon","coordinates":[[[84.69254069700008,27.721201238000024],[84.69297404400002,27.713753726000057],[84.68631037400007,27.70735912700007],[84.68647537000004,27.697460518000064],[84.67907307600005,27.692738757000026],[84.68154683900006,27.68231435700005],[84.65542919700003,27.678516894000037],[84.64716040800002,27.664016871000058],[84.63578495100005,27.662424765000026],[84.63785097300006,27.66924250000006],[84.61977023100008,27.685203647000034],[84.63159494900003,27.68939865200003],[84.62917695900006,27.692387782000026],[84.64041579700006,27.70055779600005],[84.63858852200005,27.704428793000027],[84.64667402100008,27.706958824000026],[84.64910680300005,27.704887550000027],[84.65566812000002,27.710867059000066],[84.66555606400004,27.710537876000057],[84.68449867000001,27.725764822000038],[84.69254069700008,27.721201238000024]]]}},{"type":"Feature","properties":{"DISTRICT":"CHITAWAN","PALIKA":"Kalika","TYPE":"Nagarpalika","WARD":10},"geometry":{"type":"Polygon","coordinates":[[[84.67021701800005,27.731098358000057],[84.68039805500005,27.730423711000075],[84.68449867000001,27.725764822000038],[84.67927400500008,27.718938660000045],[84.66504282400007,27.710346322000074],[84.65566812000002,27.710867059000066],[84.64910680300005,27.704887550000027],[84.64667402100008,27.706958824000026],[84.63858852200005,27.704428793000027],[84.64041579700006,27.70055779600005],[84.62917695900006,27.692387782000026],[84.63159494900003,27.68939865200003],[84.61977023100008,27.685203647000034],[84.59613983100006,27.684034865000058],[84.606925028,27.70198111900004],[84.59985229200002,27.71048392800003],[84.60131666000007,27.72256168000007],[84.61103604500005,27.72007793800002],[84.61690745600004,27.72293977700008],[84.63261214400003,27.745888600000047],[84.63781031200006,27.73764780000003],[84.65808823200007,27.73817777300007],[84.67021701800005,27.731098358000057]]]}},{"type":"Feature","properties":{"DISTRICT":"CHITAWAN","PALIKA":"Kalika","TYPE":"Nagarpalika","WARD":4},"geometry":{"type":"Polygon","coordinates":[[[84.51763955600006,27.683273126000078],[84.50223415400006,27.684896725000044],[84.50658903900005,27.694496846000042],[84.50462919500005,27.716427586000055],[84.51593544000005,27.72269877300005],[84.51769419900006,27.732186262000024],[84.52712215000008,27.734413653000043],[84.51763955600006,27.683273126000078]]]}},{"type":"Feature","properties":{"DISTRICT":"CHITAWAN","PALIKA":"Kalika","TYPE":"Nagarpalika","WARD":1},"geometry":{"type":"Polygon","coordinates":[[[84.50591761300005,27.679154695000076],[84.50686694500004,27.671653895000077],[84.49898203700008,27.666423298000037],[84.49062481900006,27.66717734500003],[84.48499510600004,27.662258382000065],[84.48438285600005,27.666213330000065],[84.47900789800008,27.66850178700002],[84.48194093600006,27.67509330600007],[84.47740445100004,27.682358031000035],[84.50591761300005,27.679154695000076]]]}},{"type":"Feature","properties":{"DISTRICT":"CHITAWAN","PALIKA":"Kalika","TYPE":"Nagarpalika","WARD":3},"geometry":{"type":"Polygon","coordinates":[[[84.50240318200008,27.684620335000016],[84.52433525600006,27.68298765700007],[84.51738449100003,27.67742704800003],[84.52240906200007,27.67495116400005],[84.51918429000006,27.672551390000024],[84.52218767200003,27.671023951000056],[84.50946880600003,27.66766673200004],[84.50240318200008,27.684620335000016]]]}},{"type":"Feature","properties":{"DISTRICT":"RASUWA","PALIKA":"Uttargaya","TYPE":"Gaunpalika","WARD":2},"geometry":{"type":"Polygon","coordinates":[[[85.20832763600004,28.055604327000026],[85.1946923980001,28.040629563000042],[85.19247761000008,28.027181233000082],[85.18569077600004,28.023610313000066],[85.18709125300006,28.01901424900007],[85.18193604100006,28.020008385000043],[85.18799399900007,28.030906197000036],[85.18458799700004,28.034572122000043],[85.15023724800005,28.054695539000072],[85.14310076500001,28.054410005000083],[85.15663343200004,28.070381113000057],[85.16362316000004,28.06603587400008],[85.19311703700004,28.066804622000078],[85.20832763600004,28.055604327000026]]]}},{"type":"Feature","properties":{"DISTRICT":"RASUWA","PALIKA":"Uttargaya","TYPE":"Gaunpalika","WARD":1},"geometry":{"type":"Polygon","coordinates":[[[85.23000025400006,28.13861167600004],[85.22093640900005,28.126624035000077],[85.221274738,28.112416006000046],[85.23054960500008,28.107834952000072],[85.24316457800005,28.092444677000053],[85.23292199800002,28.089755680000046],[85.20939896200008,28.074241796000024],[85.20518928800004,28.06776393000007],[85.20832763600004,28.055604327000026],[85.19272783700004,28.06691398100001],[85.16077095800006,28.066917245000067],[85.15663343200004,28.070381113000057],[85.16694359800005,28.077361537000055],[85.16895812800003,28.083773620000045],[85.15446445400002,28.088374209000047],[85.13505519000005,28.08406951400008],[85.12236728500005,28.091180720000064],[85.12421372100005,28.105795],[85.14952973200009,28.11720509400004],[85.15815344100007,28.129587190000052],[85.15474671400005,28.14068088400007],[85.18013847000002,28.166075160000045],[85.19565103500008,28.168780683000026],[85.19819601200001,28.162958751000055],[85.21276796700005,28.167869997000025],[85.21817922100004,28.163377994000044],[85.23000025400006,28.13861167600004]]]}},{"type":"Feature","properties":{"DISTRICT":"RASUWA","PALIKA":"Kalika","TYPE":"Gaunpalika","WARD":2},"geometry":{"type":"Polygon","coordinates":[[[85.23376440400006,28.017353386000014],[85.23205671900006,28.004668183000035],[85.22140211000001,28.002881848000076],[85.22153604800008,27.99627775500005],[85.21802777300005,27.992965680000044],[85.21212567700009,27.99032431600006],[85.20603093700002,27.995469438000043],[85.20045983700004,27.990929687000058],[85.198311926,27.997086723000056],[85.20278332600003,28.00317237800005],[85.20826220900004,28.003834850000032],[85.20440145300005,28.01331643200007],[85.21134077200006,28.013763011000037],[85.21622417200007,28.00865542800005],[85.21983954200003,28.01556018300005],[85.22707020000006,28.01585003100007],[85.23096733700004,28.020236641000054],[85.23376440400006,28.017353386000014]]]}},{"type":"Feature","properties":{"DISTRICT":"RASUWA","PALIKA":"Uttargaya","TYPE":"Gaunpalika","WARD":4},"geometry":{"type":"Polygon","coordinates":[[[85.22887724900005,28.01694602600002],[85.21983954200003,28.01556018300005],[85.21622417200007,28.00865542800005],[85.21134077200006,28.013763011000037],[85.20440145300005,28.01331643200007],[85.20745820100004,28.00335469200007],[85.19764973200006,28.001446320000078],[85.18386947500005,28.005436789000044],[85.18569077600004,28.023610313000066],[85.19367393900006,28.03059757200002],[85.20592151900006,28.026831557000037],[85.21738368200005,28.01835445200004],[85.22887724900005,28.01694602600002]]]}},{"type":"Feature","properties":{"DISTRICT":"RASUWA","PALIKA":"Kalika","TYPE":"Gaunpalika","WARD":1},"geometry":{"type":"Polygon","coordinates":[[[85.25425937800009,28.054208928000026],[85.24459082100003,28.041226428000073],[85.23783165900005,28.038192522000028],[85.22887724900005,28.01694602600002],[85.21738368200005,28.01835445200004],[85.20592151900006,28.026831557000037],[85.19367393900006,28.03059757200002],[85.1946923980001,28.040629563000042],[85.20821311100008,28.054572043000057],[85.20535569500004,28.068148211000043],[85.20939896200008,28.074241796000024],[85.22790299999998,28.085871068000074],[85.24212196500008,28.072521575000053],[85.25425937800009,28.054208928000026]]]}},{"type":"Feature","properties":{"DISTRICT":"RASUWA","PALIKA":"Uttargaya","TYPE":"Gaunpalika","WARD":3},"geometry":{"type":"Polygon","coordinates":[[[85.18193604100006,28.020008385000043],[85.13846471400005,28.030409707000043],[85.1328805890001,28.038674120000053],[85.14310076500001,28.054410005000083],[85.15023724800005,28.054695539000072],[85.18511062500005,28.03411867200003],[85.18799399900007,28.030906197000036],[85.18193604100006,28.020008385000043]]]}},{"type":"Feature","properties":{"DISTRICT":"RASUWA","PALIKA":"Gosaikunda","TYPE":"Gaunpalika","WARD":1},"geometry":{"type":"Polygon","coordinates":[[[85.37737307000005,28.278553700000028],[85.37707630900006,28.26959475100005],[85.36571783000004,28.257850423000036],[85.36479818800007,28.250052609000075],[85.35806194400004,28.24229456500007],[85.36054494000004,28.224781184000047],[85.35459035200005,28.21650082500003],[85.35082298100008,28.196595050000052],[85.31426314600002,28.208229869000036],[85.30962389400008,28.236220957000054],[85.30113320600003,28.25621813500004],[85.2715525930001,28.283809324000053],[85.27279746600001,28.28771824400007],[85.30345827700006,28.28984270900002],[85.34025969300006,28.30389602100006],[85.34808389000005,28.301639923000035],[85.34815117500004,28.288429802000053],[85.37006557100003,28.285701117000027],[85.37737307000005,28.278553700000028]]]}},{"type":"Feature","properties":{"DISTRICT":"RASUWA","PALIKA":"Kalika","TYPE":"Gaunpalika","WARD":4},"geometry":{"type":"Polygon","coordinates":[[[85.24471535600009,27.97285019200006],[85.21959213200006,27.975527397000054],[85.21259449600004,27.972776149000026],[85.21894149400003,27.980096788000026],[85.21836753400002,27.98752598700002],[85.22901838100003,27.989905893000053],[85.22700380500001,27.985592621000023],[85.23545691400003,27.98071645300007],[85.23724877300003,27.98775891400004],[85.24690094200007,27.987186694000062],[85.25008691500005,27.98045341500005],[85.24471535600009,27.97285019200006]]]}},{"type":"Feature","properties":{"DISTRICT":"RASUWA","PALIKA":"Kalika","TYPE":"Gaunpalika","WARD":3},"geometry":{"type":"Polygon","coordinates":[[[85.21766470100005,27.992770379000035],[85.21894149400003,27.980096788000026],[85.21259449600004,27.972776149000026],[85.19790626600005,27.975280298000037],[85.19801793900007,27.992568436000052],[85.19294878600003,27.99317648200002],[85.19388802400005,27.999473558000034],[85.20278332600003,28.00317237800005],[85.19799892200007,27.99630435000006],[85.20045983700004,27.990929687000058],[85.20603093700002,27.995469438000043],[85.21212567700009,27.99032431600006],[85.21766470100005,27.992770379000035]]]}},{"type":"Feature","properties":{"DISTRICT":"RASUWA","PALIKA":"Kalika","TYPE":"Gaunpalika","WARD":5},"geometry":{"type":"Polygon","coordinates":[[[85.23671555500005,27.995257732000027],[85.23263172000009,27.995395900000062],[85.22579171800004,27.988351102000017],[85.21803950400005,27.988018437000054],[85.22157678900004,27.996451053000047],[85.21941200300004,27.999831525000047],[85.22257344500005,28.003295581000028],[85.23088190200006,28.003447022000046],[85.23389028400004,28.013456363000056],[85.23940257300004,28.001040134000057],[85.23568955500005,27.998666534000055],[85.23671555500005,27.995257732000027]]]}},{"type":"Feature","properties":{"DISTRICT":"RASUWA","PALIKA":"Uttargaya","TYPE":"Gaunpalika","WARD":5},"geometry":{"type":"Polygon","coordinates":[[[85.19764973200006,28.001446320000078],[85.19365543700007,27.99918683000004],[85.19283867000006,27.993443644000024],[85.19801793900007,27.992568436000052],[85.19790626600005,27.975280298000037],[85.18839494700006,27.97617943000006],[85.18360902500005,27.973046629000063],[85.18014023300003,27.987550268000064],[85.18606580800008,27.996820662000058],[85.18387134800008,28.002646227000074],[85.18860535600004,28.004974036000075],[85.19764973200006,28.001446320000078]]]}},{"type":"Feature","properties":{"DISTRICT":"RASUWA","PALIKA":"Gosaikunda","TYPE":"Gaunpalika","WARD":3},"geometry":{"type":"Polygon","coordinates":[[[85.43909273200006,28.217169425000066],[85.43041835000008,28.210288205000047],[85.41978080700005,28.194266085000027],[85.40558566100003,28.18446946800002],[85.39965947700006,28.154975578000077],[85.36201212600007,28.151089461000023],[85.34904469800006,28.15791737200004],[85.344836044,28.170376741000023],[85.34159183700007,28.17099056800004],[85.34208660800005,28.18121103200009],[85.35178963800004,28.19783970500004],[85.35459035200005,28.21650082500003],[85.36080911500005,28.22658533900005],[85.39000555200003,28.23194686500005],[85.40614905200005,28.23103741500006],[85.43909273200006,28.217169425000066]]]}},{"type":"Feature","properties":{"DISTRICT":"RASUWA","PALIKA":"Gosaikunda","TYPE":"Gaunpalika","WARD":6},"geometry":{"type":"Polygon","coordinates":[[[85.42560210700002,28.072470813000052],[85.42620437000005,28.062566337000078],[85.42038826500006,28.05982948100007],[85.40976515900007,28.06053898300007],[85.40422628700009,28.054051844000064],[85.40384884200006,28.039623257000073],[85.39729171100002,28.03685239200007],[85.38301852000006,28.05772970900005],[85.35708068000007,28.07057354500006],[85.346221224,28.068778893000058],[85.32547057300008,28.07303002800007],[85.29729966400004,28.062714906000053],[85.29245162800004,28.05667217700005],[85.27409533000007,28.061693785000053],[85.25425937800009,28.054208928000026],[85.24212196500008,28.072521575000053],[85.22790299999998,28.085871068000074],[85.23561930700002,28.090667582000037],[85.26012331600003,28.095732361000042],[85.29863443200009,28.127872512000067],[85.31423176300007,28.101001696000026],[85.32507181500004,28.095704610000038],[85.35780677900004,28.095797293000025],[85.38005937100004,28.082313514000077],[85.40901737500008,28.077922785000055],[85.41288535100006,28.08124405400003],[85.42560210700002,28.072470813000052]]]}},{"type":"Feature","properties":{"DISTRICT":"RASUWA","PALIKA":"Gosaikunda","TYPE":"Gaunpalika","WARD":4},"geometry":{"type":"Polygon","coordinates":[[[85.79990006300005,28.196346970000032],[85.79847347200007,28.189413504000058],[85.77867037700005,28.174304819000042],[85.74957758900007,28.175210721000038],[85.72756925800007,28.16963014400005],[85.71913034100004,28.174015664000013],[85.71247344900004,28.16952732300007],[85.71223177600005,28.16202005500003],[85.70328479400007,28.16395234800007],[85.68844431600007,28.155999237000053],[85.67717394900006,28.15816015600006],[85.65156280600007,28.151576170000055],[85.64834691500003,28.14622103100004],[85.63747103100008,28.14127009600003],[85.63248143900003,28.130286681000033],[85.62709011600003,28.129215494000057],[85.61484100700004,28.134057157000022],[85.61290202300006,28.15042553000007],[85.60150623900006,28.158046833000068],[85.58385587200007,28.153381129000017],[85.55441238500003,28.168234278000057],[85.532851953,28.167402600000067],[85.526726303,28.15733508400007],[85.50317217200006,28.152063083000023],[85.49022356400008,28.13864324900004],[85.48396688400004,28.139112660000023],[85.47839934600006,28.145948949000054],[85.46792807100007,28.150579725000057],[85.45379003800008,28.152183147000073],[85.43331617700005,28.161378901000038],[85.39963022800002,28.155075131000054],[85.40558566100003,28.18446946800002],[85.41714265200007,28.191721955000045],[85.43266949500008,28.212822516000074],[85.45375448900006,28.22763649000007],[85.47217751100004,28.24855243200005],[85.49269696600003,28.254426950000035],[85.49760232600003,28.259498080000064],[85.51630746900005,28.256528738000036],[85.53209353600003,28.268719669000063],[85.55420100100007,28.273085603000023],[85.54402020700007,28.299080024000034],[85.55775335800004,28.311277856000075],[85.57580904300005,28.310289951000065],[85.58066267700006,28.306232964000063],[85.59183888900003,28.308599886000028],[85.60048689900003,28.30429023900007],[85.59677359700004,28.292436802000054],[85.60717095900003,28.25672494500003],[85.62684817500006,28.267070301000047],[85.66152528100008,28.304762589000063],[85.65364735300003,28.31740275100003],[85.66428280500008,28.331673219000038],[85.66563594300004,28.34796371500005],[85.67608730600006,28.350630286000058],[85.68608056400004,28.34688317500007],[85.68366926900006,28.382209267000068],[85.69520803200002,28.38565872500004],[85.7117382630001,28.386066420000073],[85.71764272000007,28.375499851000026],[85.72421071000008,28.373296729000064],[85.71879113000006,28.36727048700004],[85.71982210900006,28.359403150000045],[85.73215368000005,28.339279804000057],[85.72742142200008,28.32878491300005],[85.73578393000007,28.323566094000064],[85.73713178800004,28.319197948000067],[85.73294498000007,28.291223762000072],[85.74282867500004,28.27165832000003],[85.74291756200006,28.256838715000054],[85.74828015200006,28.249033324000028],[85.74874590100006,28.238097001000032],[85.75690796500001,28.228879849000066],[85.76384358100006,28.22729149000003],[85.77393882600005,28.218036562000066],[85.77626404600005,28.20853333100007],[85.78202134800003,28.208422319000075],[85.79990006300005,28.196346970000032]]]}},{"type":"Feature","properties":{"DISTRICT":"RASUWA","PALIKA":"Gosaikunda","TYPE":"Gaunpalika","WARD":5},"geometry":{"type":"Polygon","coordinates":[[[85.34208660800005,28.18121103200009],[85.34159183700007,28.17099056800004],[85.344836044,28.170376741000023],[85.34791487900002,28.159309040000043],[85.35846420800003,28.151736029000066],[85.42205007500004,28.157375127000016],[85.43331617700005,28.161378901000038],[85.45379003800008,28.152183147000073],[85.47708750400005,28.14668492200008],[85.48322291100004,28.139553795000033],[85.49022356400008,28.13864324900004],[85.49480656900005,28.125126855000072],[85.48913094100004,28.10571518500007],[85.47266827000004,28.104805730000063],[85.45707148300004,28.092701232000024],[85.44522230300004,28.09001820400005],[85.44168637500005,28.082519003000073],[85.43274916500005,28.080674951000056],[85.42441477700004,28.071869533000026],[85.41288535100006,28.08124405400003],[85.40901737500008,28.077922785000055],[85.38005937100004,28.082313514000077],[85.35780677900004,28.095797293000025],[85.32662299200007,28.095355730000055],[85.31532800900001,28.100262657000034],[85.29863443200009,28.127872512000067],[85.30509995900007,28.138726899000062],[85.32510650600003,28.15211016700005],[85.31580711800005,28.160577744000076],[85.33248291100003,28.174307486000032],[85.33693971500009,28.18182988700005],[85.34208660800005,28.18121103200009]]]}},{"type":"Feature","properties":{"DISTRICT":"RASUWA","PALIKA":"Gosaikunda","TYPE":"Gaunpalika","WARD":2},"geometry":{"type":"Polygon","coordinates":[[[85.55775335800004,28.311277856000075],[85.54402020700007,28.299080024000034],[85.55383243300008,28.272741065000044],[85.53209353600003,28.268719669000063],[85.51630746900005,28.256528738000036],[85.49760232600003,28.259498080000064],[85.49269696600003,28.254426950000035],[85.47277148700003,28.248906973000032],[85.45988904600003,28.233336647000048],[85.43985906100005,28.217490785000052],[85.40614905200005,28.23103741500006],[85.39000555200003,28.23194686500005],[85.36080911500005,28.22658533900005],[85.35806194400004,28.24229456500007],[85.36479818800007,28.250052609000075],[85.36548693200007,28.257476078000032],[85.37587589200005,28.267436862000057],[85.37737307000005,28.278553700000028],[85.41192493700004,28.308289501000054],[85.41527413500006,28.32706261900005],[85.43725703900003,28.334720877000056],[85.45789030700007,28.33695603800004],[85.48726440700003,28.331123891000058],[85.50641486000006,28.333940662000035],[85.52593901600005,28.32827939000002],[85.55775335800004,28.311277856000075]]]}},{"type":"Feature","properties":{"DISTRICT":"GORKHA","PALIKA":"Gandaki","TYPE":"Gaunpalika","WARD":6},"geometry":{"type":"Polygon","coordinates":[[[84.71380379800004,27.84449014700005],[84.70128918400007,27.848789053000065],[84.69483998300007,27.84259706500007],[84.69101874300007,27.809620465000023],[84.66792075400008,27.81846753900004],[84.66089590300004,27.829120966000055],[84.66387364400003,27.840520428000048],[84.65915206100001,27.85057607100004],[84.66538331000001,27.85583001400005],[84.68567576900006,27.860288012000076],[84.70240052900003,27.86998179200004],[84.72511287500004,27.87045987500005],[84.71972326000008,27.865402866000068],[84.72274821900004,27.854149364000016],[84.71380379800004,27.84449014700005]]]}},{"type":"Feature","properties":{"DISTRICT":"GORKHA","PALIKA":"Gandaki","TYPE":"Gaunpalika","WARD":5},"geometry":{"type":"Polygon","coordinates":[[[84.74598143500002,27.881304247000067],[84.75329181500005,27.87349669500002],[84.75592077600004,27.861700986000077],[84.76454410900006,27.85969743400005],[84.76792645400008,27.851655901000072],[84.76793912500005,27.846428558000067],[84.76221801000005,27.846419651000083],[84.75344258100003,27.839033981000057],[84.71380379800004,27.84449014700005],[84.72274821900004,27.854149364000016],[84.71972326000008,27.865402866000068],[84.72511287500004,27.87045987500005],[84.69790716100005,27.86834186500004],[84.69184928700008,27.870960154000056],[84.68900835500006,27.87977775200005],[84.70759261000003,27.88683767500003],[84.70766615100007,27.893364215000084],[84.73086954800004,27.88825493400002],[84.73853343700006,27.87777287800002],[84.74598143500002,27.881304247000067]]]}},{"type":"Feature","properties":{"DISTRICT":"GORKHA","PALIKA":"Gandaki","TYPE":"Gaunpalika","WARD":7},"geometry":{"type":"Polygon","coordinates":[[[84.70128918400007,27.848789053000065],[84.73275622500006,27.841076580000053],[84.73337247300003,27.82835554500008],[84.72655681300006,27.828479671000025],[84.72374107600007,27.81890592200006],[84.72752573200006,27.817268444000042],[84.73673049500007,27.820924143000056],[84.73887108100006,27.818126430000063],[84.73467613900004,27.806189120000063],[84.73831270800007,27.803667719000035],[84.73714507900004,27.79936021100008],[84.73175593600007,27.795614396000076],[84.71863613500004,27.803676705000044],[84.71105727300005,27.800430933000026],[84.70729989200001,27.80661631600004],[84.69101874300007,27.809620465000023],[84.69483998300007,27.84259706500007],[84.70128918400007,27.848789053000065]]]}},{"type":"Feature","properties":{"DISTRICT":"GORKHA","PALIKA":"Gandaki","TYPE":"Gaunpalika","WARD":8},"geometry":{"type":"Polygon","coordinates":[[[84.76793912500005,27.846428558000067],[84.77056137300006,27.83883115900005],[84.77584555900006,27.83527081600004],[84.77360546500005,27.82412696700004],[84.78226990600005,27.813799351000053],[84.77297187600004,27.808579165000026],[84.76840279400004,27.81163006500003],[84.76887827400004,27.81555309600003],[84.762955253,27.818272941000036],[84.75683983400005,27.81444412100006],[84.75239617200003,27.805613152000042],[84.73599237000008,27.80470433700002],[84.73776600300003,27.819916938000055],[84.72376583000005,27.81852233200005],[84.72655681300006,27.828479671000025],[84.73337247300003,27.82835554500008],[84.73275622500006,27.841076580000053],[84.75344258100003,27.839033981000057],[84.76221801000005,27.846419651000083],[84.76793912500005,27.846428558000067]]]}},{"type":"Feature","properties":{"DISTRICT":"GORKHA","PALIKA":"Gandaki","TYPE":"Gaunpalika","WARD":1},"geometry":{"type":"Polygon","coordinates":[[[84.66297974500003,27.86526987600007],[84.63675953400006,27.859795998000042],[84.63377793900007,27.86239746500007],[84.63272455500004,27.869527181000024],[84.63789527500008,27.879906333000044],[84.65045273300004,27.89469971000006],[84.66704607700005,27.895220500000057],[84.66919446400003,27.886975277000033],[84.67783795900003,27.88007222800007],[84.67081296100008,27.87982682200004],[84.66990297000007,27.87326820900006],[84.66297974500003,27.86526987600007]]]}},{"type":"Feature","properties":{"DISTRICT":"GORKHA","PALIKA":"Gandaki","TYPE":"Gaunpalika","WARD":2},"geometry":{"type":"Polygon","coordinates":[[[84.69643035800004,27.918935666000042],[84.69627911800005,27.89859318100003],[84.70749947900003,27.893701244000056],[84.70878441000008,27.88882820400005],[84.68907996400003,27.88006847700007],[84.69184928700008,27.870960154000056],[84.69664848500007,27.869807962000035],[84.69842371100003,27.865665802000017],[84.67760671300005,27.857489630000032],[84.66987198000002,27.85800801800007],[84.65915206100001,27.85057607100004],[84.64740806900002,27.853169832000045],[84.64973132500005,27.85902709400005],[84.64544522200002,27.86131238000006],[84.66297974500003,27.86526987600007],[84.66990297000007,27.87326820900006],[84.67081296100008,27.87982682200004],[84.67783795900003,27.88007222800007],[84.66919446400003,27.886975277000033],[84.66704607700005,27.895220500000057],[84.65976032300006,27.896938663000068],[84.66735021200002,27.90774719100006],[84.67529005000006,27.915756040000083],[84.69643035800004,27.918935666000042]]]}},{"type":"Feature","properties":{"DISTRICT":"GORKHA","PALIKA":"Gandaki","TYPE":"Gaunpalika","WARD":3},"geometry":{"type":"Polygon","coordinates":[[[84.73234997100005,27.927101403000048],[84.73340379500009,27.908040885000045],[84.72737108300004,27.91168489400007],[84.71123861400005,27.905251268000026],[84.70471937300006,27.90738515500004],[84.70382300500006,27.897887057000045],[84.70125102000006,27.895590033000058],[84.69720239900005,27.89723938000003],[84.69643035800004,27.918935666000042],[84.70653688900006,27.921909629000023],[84.71099875500005,27.917891127000075],[84.71817241400001,27.921416304000047],[84.72153321400002,27.927510437000027],[84.73234997100005,27.927101403000048]]]}},{"type":"Feature","properties":{"DISTRICT":"GORKHA","PALIKA":"Gandaki","TYPE":"Gaunpalika","WARD":4},"geometry":{"type":"Polygon","coordinates":[[[84.73340379500009,27.908040885000045],[84.73618139600006,27.89160628300004],[84.74921353500007,27.885816895000062],[84.73911236000002,27.877776513000075],[84.73086954800004,27.88825493400002],[84.70125102000006,27.895590033000058],[84.70471937300006,27.90738515500004],[84.71123861400005,27.905251268000026],[84.72737108300004,27.91168489400007],[84.73340379500009,27.908040885000045]]]}},{"type":"Feature","properties":{"DISTRICT":"KALIKOT","PALIKA":"Kalika","TYPE":"Gaunpalika","WARD":7},"geometry":{"type":"Polygon","coordinates":[[[81.69183310500004,29.107640779000068],[81.69312542600005,29.084014618000023],[81.69040240800007,29.077994638000042],[81.69564457800004,29.063849026000057],[81.68930952100004,29.04929628800005],[81.67673945000007,29.054667861000045],[81.67428770400004,29.086312137000053],[81.68160904500006,29.101801302000073],[81.67808162300008,29.10674773000005],[81.69183310500004,29.107640779000068]]]}},{"type":"Feature","properties":{"DISTRICT":"KALIKOT","PALIKA":"Kalika","TYPE":"Gaunpalika","WARD":8},"geometry":{"type":"Polygon","coordinates":[[[81.67808162300008,29.10674773000005],[81.68160904500006,29.101801302000073],[81.67954104400008,29.093424926000065],[81.67464568100007,29.09169476700004],[81.67673945000007,29.054667861000045],[81.66563245000003,29.062289121000035],[81.65600624000005,29.09082402200005],[81.66149157400007,29.113588796000045],[81.66433737400007,29.11014153200006],[81.67808162300008,29.10674773000005]]]}},{"type":"Feature","properties":{"DISTRICT":"KALIKOT","PALIKA":"Kalika","TYPE":"Gaunpalika","WARD":5},"geometry":{"type":"Polygon","coordinates":[[[81.63849138900008,29.11763872000006],[81.66151192700002,29.114657822000026],[81.66000320600006,29.10042956100006],[81.65555696000006,29.08902162000004],[81.64347059800006,29.08278215400003],[81.64107541800007,29.07635803000004],[81.62370076500005,29.06051669400005],[81.61820681800002,29.067882182000055],[81.62670591700002,29.084501445000054],[81.61396754700004,29.104119692000044],[81.61812845300005,29.108939116000045],[81.62523764100007,29.10712863400004],[81.62937458200007,29.110235716000034],[81.63979528900005,29.106570517000023],[81.63849138900008,29.11763872000006]]]}},{"type":"Feature","properties":{"DISTRICT":"KALIKOT","PALIKA":"Kalika","TYPE":"Gaunpalika","WARD":6},"geometry":{"type":"Polygon","coordinates":[[[81.66563245000003,29.062289121000035],[81.68663663000008,29.049605409000034],[81.65797988500002,29.040892875000054],[81.64435800600006,29.040178437000062],[81.63051152800006,29.046605332000066],[81.62370076500005,29.06051669400005],[81.64107541800007,29.07635803000004],[81.64347059800006,29.08278215400003],[81.65640501300004,29.090025789000027],[81.66563245000003,29.062289121000035]]]}},{"type":"Feature","properties":{"DISTRICT":"KALIKOT","PALIKA":"Kalika","TYPE":"Gaunpalika","WARD":3},"geometry":{"type":"Polygon","coordinates":[[[81.60384270800003,29.09907001900007],[81.61684243200006,29.08549002700005],[81.61820681800002,29.067882182000055],[81.62421677500001,29.062966286000066],[81.63067176400006,29.04615568900005],[81.61327930600001,29.033430375000027],[81.59871913700003,29.045377124000026],[81.58924155400007,29.04885454200007],[81.58118637300004,29.047091780000073],[81.56363215000005,29.05360230400003],[81.56306074800005,29.062781131000065],[81.58421700200006,29.085945088000077],[81.57793708200006,29.10796120300004],[81.58235382900003,29.10933157500004],[81.59468131900007,29.10330205900004],[81.58907864100007,29.096731029000065],[81.59677997100005,29.09298854700006],[81.60384270800003,29.09907001900007]]]}},{"type":"Feature","properties":{"DISTRICT":"KALIKOT","PALIKA":"Kalika","TYPE":"Gaunpalika","WARD":2},"geometry":{"type":"Polygon","coordinates":[[[81.60571848300003,29.124763219000045],[81.61030069400005,29.123422909000062],[81.61316421400002,29.114610206000048],[81.60349903600006,29.09739104500005],[81.59677997100005,29.09298854700006],[81.58907864100007,29.096731029000065],[81.59468131900007,29.10330205900004],[81.58677437600005,29.10795664000004],[81.57845400200004,29.10851159600003],[81.57953608900003,29.116203459000076],[81.59450316400006,29.126823245000026],[81.60270155100002,29.119642715000058],[81.60571848300003,29.124763219000045]]]}},{"type":"Feature","properties":{"DISTRICT":"KALIKOT","PALIKA":"Kalika","TYPE":"Gaunpalika","WARD":1},"geometry":{"type":"Polygon","coordinates":[[[81.56306074800005,29.062781131000065],[81.56764621300002,29.09557152200006],[81.57793708200006,29.10796120300004],[81.58421700200006,29.085945088000077],[81.56306074800005,29.062781131000065]]]}},{"type":"Feature","properties":{"DISTRICT":"KALIKOT","PALIKA":"Kalika","TYPE":"Gaunpalika","WARD":4},"geometry":{"type":"Polygon","coordinates":[[[81.63822954900006,29.117664776000034],[81.63979528900005,29.106570517000023],[81.62937458200007,29.110235716000034],[81.62523764100007,29.10712863400004],[81.61812845300005,29.108939116000045],[81.61396754700004,29.104119692000044],[81.62670591700002,29.084501445000054],[81.61928110500008,29.071493237000023],[81.61684243200006,29.08549002700005],[81.60368566500006,29.099224065000044],[81.60401224600005,29.102592694000062],[81.61294819400007,29.113923204000056],[81.61252582600008,29.120126059000032],[81.62606227100008,29.121148593000044],[81.63822954900006,29.117664776000034]]]}},{"type":"Feature","properties":{"DISTRICT":"NUWAKOT","PALIKA":"Kispang","TYPE":"Gaunpalika","WARD":1},"geometry":{"type":"Polygon","coordinates":[[[85.15663343200004,28.070381113000057],[85.13776190600004,28.04890934600007],[85.1328805890001,28.038674120000053],[85.14535550400007,28.023846415000037],[85.14552498900008,28.011938362000024],[85.14115458400002,28.01415615100005],[85.14012772800004,28.019585583000033],[85.11680248600001,28.012226597000044],[85.11421500400007,28.001254538000072],[85.10614365800004,28.00906201200008],[85.09624758900009,28.012331237000055],[85.09425096500007,28.01880805900004],[85.09760967300005,28.031899439000036],[85.10669074700007,28.05068603100005],[85.11643937100007,28.063055148000032],[85.13020959800008,28.07191646100005],[85.13565917400008,28.08399909300005],[85.15446445400002,28.088374209000047],[85.16978246600007,28.08332442500006],[85.16694359800005,28.077361537000055],[85.15663343200004,28.070381113000057]]]}},{"type":"Feature","properties":{"DISTRICT":"NUWAKOT","PALIKA":"Kispang","TYPE":"Gaunpalika","WARD":3},"geometry":{"type":"Polygon","coordinates":[[[85.14552498900008,28.011938362000024],[85.14097652100006,27.997975976000077],[85.14327329700005,27.97977427500007],[85.12695162400004,27.978196701000062],[85.11888227600008,27.986011674000054],[85.12389798300003,27.991872296000054],[85.11419537800003,27.998543031000064],[85.11616270300004,28.011873117000054],[85.14012772800004,28.019585583000033],[85.14115458400002,28.01415615100005],[85.14552498900008,28.011938362000024]]]}},{"type":"Feature","properties":{"DISTRICT":"NUWAKOT","PALIKA":"Kispang","TYPE":"Gaunpalika","WARD":5},"geometry":{"type":"Polygon","coordinates":[[[85.16027018700004,28.02489432500004],[85.18731773100006,28.01862653800003],[85.18373956300007,28.010820428000034],[85.18606580800008,27.996820662000058],[85.18022090000005,27.98800754100004],[85.18018366400008,27.981849281000056],[85.16748977900004,27.982196720000047],[85.16087208500005,27.98553962000005],[85.15250722700003,27.981210928000056],[85.15407325200002,27.99356240800006],[85.15044984000008,28.000157504000075],[85.16166336600008,28.005240489000077],[85.16781730300004,28.002154122000032],[85.17399539900003,28.00888949700004],[85.16699740700005,28.008146007000057],[85.16865859700005,28.015165780000086],[85.16023165100006,28.021059607000034],[85.16027018700004,28.02489432500004]]]}},{"type":"Feature","properties":{"DISTRICT":"NUWAKOT","PALIKA":"Kispang","TYPE":"Gaunpalika","WARD":2},"geometry":{"type":"Polygon","coordinates":[[[85.16027018700004,28.02489432500004],[85.16023165100006,28.021059607000034],[85.16865859700005,28.015165780000086],[85.16699740700005,28.008146007000057],[85.17399539900003,28.00888949700004],[85.16781730300004,28.002154122000032],[85.16166336600008,28.005240489000077],[85.15981598700003,28.002316658000034],[85.15119272200006,28.001055874000023],[85.15409881800005,27.993219315000037],[85.15245118700003,27.98054136200004],[85.14366075000004,27.979586048000044],[85.14097652100006,27.997975976000077],[85.14635851700004,28.019960156000018],[85.14137831300005,28.028192769000043],[85.16027018700004,28.02489432500004]]]}},{"type":"Feature","properties":{"DISTRICT":"NUWAKOT","PALIKA":"Kispang","TYPE":"Gaunpalika","WARD":4},"geometry":{"type":"Polygon","coordinates":[[[85.13565917400008,28.08399909300005],[85.13020959800008,28.07191646100005],[85.11643937100007,28.063055148000032],[85.10669074700007,28.05068603100005],[85.09760967300005,28.031899439000036],[85.09425096500007,28.01880805900004],[85.09624758900009,28.012331237000055],[85.06966892100006,28.012894797000055],[85.05952510000003,28.006252847000045],[85.06085558400005,28.021995892000067],[85.07279116100004,28.037575132000025],[85.08053655900005,28.06690912600004],[85.10467533000008,28.07652329800004],[85.11479497900005,28.076768637000047],[85.12236728500005,28.091180720000064],[85.13565917400008,28.08399909300005]]]}},{"type":"Feature","properties":{"DISTRICT":"NUWAKOT","PALIKA":"Bidur","TYPE":"Nagarpalika","WARD":1},"geometry":{"type":"Polygon","coordinates":[[[85.18032714300004,27.927067886000017],[85.16853456300004,27.922187373000046],[85.16085198900005,27.91495664000007],[85.14745106200007,27.915797587000043],[85.14669854300007,27.929986926000023],[85.15986220400002,27.937145258000044],[85.18032714300004,27.927067886000017]]]}},{"type":"Feature","properties":{"DISTRICT":"NUWAKOT","PALIKA":"Bidur","TYPE":"Nagarpalika","WARD":2},"geometry":{"type":"Polygon","coordinates":[[[85.17513772100006,27.89454577600003],[85.15926240000002,27.888289129000043],[85.15463325200005,27.894637857000088],[85.14892810700006,27.892980033000068],[85.14269372800003,27.917073391000017],[85.14691779800006,27.91971610100006],[85.14855518200002,27.91502136300005],[85.16085198900005,27.91495664000007],[85.16898262300003,27.922456481000037],[85.17804007200004,27.92415023400002],[85.17167602800004,27.91031705300002],[85.17926961600006,27.900116410000063],[85.17513772100006,27.89454577600003]]]}},{"type":"Feature","properties":{"DISTRICT":"NUWAKOT","PALIKA":"Bidur","TYPE":"Nagarpalika","WARD":4},"geometry":{"type":"Polygon","coordinates":[[[85.14691779800006,27.91971610100006],[85.14192299400008,27.915268290000032],[85.14884753700002,27.89095033900003],[85.14247748400004,27.892020760000037],[85.14192240800008,27.898942067000046],[85.13744078600006,27.900298807000073],[85.14084781700006,27.903986221000025],[85.13410160900008,27.914602029000033],[85.14691779800006,27.91971610100006]]]}},{"type":"Feature","properties":{"DISTRICT":"NUWAKOT","PALIKA":"Bidur","TYPE":"Nagarpalika","WARD":5},"geometry":{"type":"Polygon","coordinates":[[[85.15838358000008,27.888262679000036],[85.15178777300005,27.87637500800002],[85.14341693700003,27.873893213000038],[85.14501539200006,27.866137498000057],[85.13951768200005,27.86620108700004],[85.13393500900007,27.85926042600005],[85.12024050500008,27.85671929700003],[85.10678780700005,27.858860502000027],[85.11450762400005,27.869164522000062],[85.13915917900002,27.88016164100002],[85.15401020800005,27.894728775000033],[85.15838358000008,27.888262679000036]]]}},{"type":"Feature","properties":{"DISTRICT":"NUWAKOT","PALIKA":"Bidur","TYPE":"Nagarpalika","WARD":6},"geometry":{"type":"Polygon","coordinates":[[[85.14884753700002,27.89095033900003],[85.13915917900002,27.88016164100002],[85.11446531800003,27.86912421200003],[85.11315984300003,27.878932435000028],[85.10464379100006,27.88446710700004],[85.10843252300003,27.888089097000037],[85.11074482100007,27.886148435000052],[85.11521585400003,27.891901120000053],[85.12586905100005,27.892554430000068],[85.13049429500006,27.884636531000066],[85.13705758000003,27.889022249000057],[85.13744078600006,27.900298807000073],[85.14192240800008,27.898942067000046],[85.14278195000009,27.891697856000064],[85.14884753700002,27.89095033900003]]]}},{"type":"Feature","properties":{"DISTRICT":"NUWAKOT","PALIKA":"Bidur","TYPE":"Nagarpalika","WARD":8},"geometry":{"type":"Polygon","coordinates":[[[85.15241991100004,27.961697991000054],[85.14114835800007,27.94953326500007],[85.14569809000004,27.94554532600006],[85.13977518100005,27.931429554000037],[85.14339880200004,27.929594718000033],[85.13597552500003,27.921437823000065],[85.13804291600007,27.91670584500002],[85.12294478200005,27.920173028000075],[85.11692993200006,27.92418337800007],[85.11756814600002,27.92770876000002],[85.11975221700004,27.93125316700009],[85.12727431600007,27.93252055600003],[85.12642583600005,27.94554874700003],[85.13620893900008,27.955883924000034],[85.12645319800004,27.963361337000038],[85.15241991100004,27.961697991000054]]]}},{"type":"Feature","properties":{"DISTRICT":"NUWAKOT","PALIKA":"Bidur","TYPE":"Nagarpalika","WARD":9},"geometry":{"type":"Polygon","coordinates":[[[85.16246396600008,27.95529242400005],[85.16269829800007,27.947166907000053],[85.15510255700005,27.93265764200003],[85.15080085500006,27.93372459800003],[85.14669854300007,27.929986926000023],[85.14722129100002,27.921044550000037],[85.13804291600007,27.91670584500002],[85.13597552500003,27.921437823000065],[85.14339880200004,27.929594718000033],[85.13977518100005,27.931429554000037],[85.14569809000004,27.94554532600006],[85.14114835800007,27.94953326500007],[85.14371109200005,27.95478408800005],[85.15241991100004,27.961697991000054],[85.16246396600008,27.95529242400005]]]}},{"type":"Feature","properties":{"DISTRICT":"NUWAKOT","PALIKA":"Bidur","TYPE":"Nagarpalika","WARD":12},"geometry":{"type":"Polygon","coordinates":[[[85.09030682400004,27.91915612700006],[85.11927919500005,27.92361840600006],[85.13549720300006,27.916126729000034],[85.14084781700006,27.903986221000025],[85.13676170400004,27.899584734000033],[85.13705758000003,27.889022249000057],[85.13049429500006,27.884636531000066],[85.12586905100005,27.892554430000068],[85.11521585400003,27.891901120000053],[85.11074482100007,27.886148435000052],[85.10843252300003,27.888089097000037],[85.10464379100006,27.88446710700004],[85.09535988100002,27.89403202900008],[85.09685498500002,27.911923450000074],[85.09030682400004,27.91915612700006]]]}},{"type":"Feature","properties":{"DISTRICT":"NUWAKOT","PALIKA":"Belkotgadhi","TYPE":"Nagarpalika","WARD":6},"geometry":{"type":"Polygon","coordinates":[[[85.09227582100002,27.819683768000058],[85.08867297600004,27.81430687600005],[85.07302884600004,27.806334763000056],[85.06537828400008,27.79237069800007],[85.04648040600006,27.80158655400004],[85.04676748900005,27.816449226000028],[85.06000430600005,27.824740582000064],[85.06160360000007,27.836150461000045],[85.07357514200002,27.835893061000032],[85.08240674400005,27.84061810000003],[85.08362797600006,27.84558517500006],[85.09227582100002,27.819683768000058]]]}},{"type":"Feature","properties":{"DISTRICT":"NUWAKOT","PALIKA":"Belkotgadhi","TYPE":"Nagarpalika","WARD":5},"geometry":{"type":"Polygon","coordinates":[[[85.07378325900004,27.83788576100006],[85.07074740500008,27.835310441000054],[85.06160360000007,27.836150461000045],[85.06000430600005,27.824740582000064],[85.04687190900006,27.81662215000006],[85.04564728700004,27.81235176200005],[85.04158332900003,27.812229080000066],[85.04139868500005,27.817211818000033],[85.03780690400004,27.814596991000034],[85.02747592700005,27.816262481000013],[85.01214341400004,27.809655002000056],[85.01676518200007,27.82697209000002],[85.02285246300005,27.83456601200003],[85.04709404800006,27.835079062000037],[85.068581319,27.841064263000078],[85.07378325900004,27.83788576100006]]]}},{"type":"Feature","properties":{"DISTRICT":"NUWAKOT","PALIKA":"Belkotgadhi","TYPE":"Nagarpalika","WARD":4},"geometry":{"type":"Polygon","coordinates":[[[85.13692981300005,27.812056769000034],[85.13903293000001,27.808136656000034],[85.12993894600004,27.80823843000007],[85.12529111400005,27.805857940000067],[85.12573550000008,27.802578678000035],[85.11766805700005,27.800248313000047],[85.10228813500004,27.78086885100003],[85.10810813400008,27.774045310000073],[85.09772073000002,27.77842811800008],[85.08771885800006,27.787740990000028],[85.06537828400008,27.79237069800007],[85.07302884600004,27.806334763000056],[85.08867297600004,27.81430687600005],[85.09227582100002,27.819683768000058],[85.09719142100005,27.816651060000016],[85.10915186200003,27.824140154000077],[85.12519820100005,27.81401858200007],[85.13692981300005,27.812056769000034]]]}},{"type":"Feature","properties":{"DISTRICT":"NUWAKOT","PALIKA":"Bidur","TYPE":"Nagarpalika","WARD":11},"geometry":{"type":"Polygon","coordinates":[[[85.21572051900006,27.961214240000064],[85.21733681300002,27.955081943000035],[85.22215755300003,27.95198930200007],[85.20385918900006,27.945283591000077],[85.20139428300008,27.94159650500006],[85.20573349800007,27.936839131000056],[85.18969051600004,27.941971021000032],[85.17366552700008,27.938632172000037],[85.17414583900006,27.95016033400003],[85.17780144400004,27.95466124200004],[85.18655562000004,27.959262541000037],[85.19485678100004,27.958647051000067],[85.19451233400007,27.969879850000048],[85.21572051900006,27.961214240000064]]]}},{"type":"Feature","properties":{"DISTRICT":"NUWAKOT","PALIKA":"Bidur","TYPE":"Nagarpalika","WARD":10},"geometry":{"type":"Polygon","coordinates":[[[85.18781859000005,27.975983625000026],[85.21272391600006,27.97275696500003],[85.21901183500005,27.97550320200003],[85.22871557100007,27.974403966000068],[85.22550705800005,27.962947939000063],[85.21992629100004,27.96039644800004],[85.19451233400007,27.969879850000048],[85.19485678100004,27.958647051000067],[85.18595745300006,27.959102983000037],[85.17414583900006,27.95016033400003],[85.17366552700008,27.938632172000037],[85.18341128500003,27.942049970000035],[85.19796114600007,27.940094581000043],[85.20259808800006,27.93744408500003],[85.20102890900006,27.932273710000054],[85.19261055100003,27.93399597400002],[85.17833622800003,27.92669013600004],[85.16072090200002,27.937153772000045],[85.15566131600005,27.93462685000002],[85.16269829800007,27.947166907000053],[85.16246396600008,27.95529242400005],[85.18781859000005,27.975983625000026]]]}},{"type":"Feature","properties":{"DISTRICT":"NUWAKOT","PALIKA":"Belkotgadhi","TYPE":"Nagarpalika","WARD":8},"geometry":{"type":"Polygon","coordinates":[[[85.09153298700005,27.860310801000026],[85.11989717600004,27.856715291000057],[85.12411059200006,27.84623817700004],[85.11800328100009,27.834407821000067],[85.10652168400009,27.834143963000027],[85.10647925900005,27.830906940000034],[85.09227582100002,27.819683768000058],[85.08690862500002,27.841663332000056],[85.08037417500003,27.85063704200007],[85.08126756700003,27.85594514400003],[85.09153298700005,27.860310801000026]]]}},{"type":"Feature","properties":{"DISTRICT":"NUWAKOT","PALIKA":"Belkotgadhi","TYPE":"Nagarpalika","WARD":9},"geometry":{"type":"Polygon","coordinates":[[[85.13375738300002,27.834195857000047],[85.13692981300005,27.812056769000034],[85.12519820100005,27.81401858200007],[85.10915186200003,27.824140154000077],[85.09719142100005,27.816651060000016],[85.09227582100002,27.819683768000058],[85.10647925900005,27.830906940000034],[85.10652168400009,27.834143963000027],[85.11800328100009,27.834407821000067],[85.12421525900004,27.84654640100007],[85.11989717600004,27.856715291000057],[85.122995094,27.85886258900007],[85.13423377800007,27.859436166000023],[85.13671245600003,27.856210059000034],[85.13375738300002,27.834195857000047]]]}},{"type":"Feature","properties":{"DISTRICT":"NUWAKOT","PALIKA":"Bidur","TYPE":"Nagarpalika","WARD":13},"geometry":{"type":"Polygon","coordinates":[[[85.12592937300008,27.964236374000052],[85.13620893900008,27.955883924000034],[85.12642583600005,27.94554874700003],[85.12727431600007,27.93252055600003],[85.11960323900007,27.931155110000073],[85.11692993200006,27.92418337800007],[85.08830833700006,27.919246398000034],[85.06178951100009,27.92959164500007],[85.07422626900006,27.94252113300007],[85.07293588100002,27.956919693000025],[85.06483564600005,27.965525845000062],[85.06888042600008,27.968208423000085],[85.08608045900006,27.962178881000064],[85.09426725100008,27.953275320000035],[85.09778079500005,27.95861421300003],[85.10753333400001,27.954716728000047],[85.11434729000005,27.96406450500007],[85.12493251800004,27.960788479000037],[85.12592937300008,27.964236374000052]]]}},{"type":"Feature","properties":{"DISTRICT":"NUWAKOT","PALIKA":"Bidur","TYPE":"Nagarpalika","WARD":3},"geometry":{"type":"Polygon","coordinates":[[[85.09542712600005,27.89383973500003],[85.11315984300003,27.878932435000028],[85.11446531800003,27.86912421200003],[85.10678780700005,27.858860502000027],[85.09069572600002,27.860166300000063],[85.08670577700008,27.85625658300007],[85.072607723,27.852737035000068],[85.06347255300004,27.858894453000055],[85.06768496100005,27.860450135000068],[85.06780026100006,27.86903999200007],[85.09542712600005,27.89383973500003]]]}},{"type":"Feature","properties":{"DISTRICT":"NUWAKOT","PALIKA":"Belkotgadhi","TYPE":"Nagarpalika","WARD":3},"geometry":{"type":"Polygon","coordinates":[[[85.13903293000001,27.808136656000034],[85.14388857500003,27.803433409000036],[85.14181561200006,27.797043634000033],[85.15323708600003,27.78008084600003],[85.15345628200004,27.76665367700008],[85.14855024500008,27.763709857000034],[85.13949671200004,27.76581745300007],[85.13406764700005,27.761620862000026],[85.13061542700007,27.764072021000064],[85.12466685200008,27.76060579300002],[85.11531416500009,27.768841398000063],[85.11500646500008,27.774298904000034],[85.11250595800003,27.772588703000068],[85.10179066000006,27.779889180000055],[85.11766805700005,27.800248313000047],[85.12573550000008,27.802578678000035],[85.12529111400005,27.805857940000067],[85.12993894600004,27.80823843000007],[85.13903293000001,27.808136656000034]]]}},{"type":"Feature","properties":{"DISTRICT":"NUWAKOT","PALIKA":"Belkotgadhi","TYPE":"Nagarpalika","WARD":2},"geometry":{"type":"Polygon","coordinates":[[[85.14034935500005,27.809319197000036],[85.15705526700003,27.797584594000053],[85.16526961500003,27.80928706000003],[85.16843226600008,27.80016211900005],[85.17871723500006,27.793426459000038],[85.17877427700006,27.776549095000064],[85.16930417100008,27.77299969000006],[85.16382335500002,27.76622614100006],[85.15345628200004,27.76665367700008],[85.15336982700003,27.779678197000063],[85.14174980500007,27.797177246000057],[85.14393501200004,27.803146498000046],[85.14034935500005,27.809319197000036]]]}},{"type":"Feature","properties":{"DISTRICT":"NUWAKOT","PALIKA":"Belkotgadhi","TYPE":"Nagarpalika","WARD":13},"geometry":{"type":"Polygon","coordinates":[[[85.20024376300006,27.883128790000068],[85.20478708500008,27.869255861000056],[85.19748915000007,27.85312643100008],[85.20082311800005,27.845697904000083],[85.20002837000004,27.81856369500002],[85.19701487300004,27.81667906300003],[85.19065601800008,27.820075088000067],[85.17771823700008,27.819877011000063],[85.173090739,27.845424394000077],[85.17811057200001,27.85127189300005],[85.18841655700004,27.855280271000023],[85.18216574800003,27.861673155000066],[85.18356202400005,27.87797840500009],[85.17950306200002,27.883768004000036],[85.19415372100008,27.884814910000046],[85.20024376300006,27.883128790000068]]]}},{"type":"Feature","properties":{"DISTRICT":"NUWAKOT","PALIKA":"Belkotgadhi","TYPE":"Nagarpalika","WARD":12},"geometry":{"type":"Polygon","coordinates":[[[85.17332616200005,27.88526451500008],[85.18269480000002,27.882102833000033],[85.18216574800003,27.861673155000066],[85.18841655700004,27.855280271000023],[85.17444619900003,27.847621407000073],[85.17138507300007,27.857815067000047],[85.15388753600004,27.865731935000042],[85.14786779600006,27.873346338000033],[85.15731885900004,27.887639905000068],[85.16844918500004,27.891015666000044],[85.17332616200005,27.88526451500008]]]}},{"type":"Feature","properties":{"DISTRICT":"NUWAKOT","PALIKA":"Belkotgadhi","TYPE":"Nagarpalika","WARD":7},"geometry":{"type":"Polygon","coordinates":[[[85.061778,27.860177622000034],[85.072607723,27.852737035000068],[85.08126756700003,27.85594514400003],[85.08240674400005,27.84061810000003],[85.07359103600002,27.83782632600002],[85.068581319,27.841064263000078],[85.03263931200007,27.833471150000033],[85.02285246300005,27.83456601200003],[85.01941541700005,27.843435034000034],[85.02823583000007,27.848296684000047],[85.03171561800009,27.854194964000044],[85.04343664300006,27.856252289000057],[85.05124834200006,27.854022684000043],[85.061778,27.860177622000034]]]}},{"type":"Feature","properties":{"DISTRICT":"NUWAKOT","PALIKA":"Bidur","TYPE":"Nagarpalika","WARD":7},"geometry":{"type":"Polygon","coordinates":[[[85.12695162400004,27.978196701000062],[85.15085917400005,27.97934781700008],[85.16087208500005,27.98553962000005],[85.16748977900004,27.982196720000047],[85.17804973800006,27.982842093000038],[85.18421990200005,27.972098412000033],[85.16246396600008,27.95529242400005],[85.15112538100004,27.962356284000066],[85.12833040800005,27.96234658500003],[85.11511639600008,27.97467919000008],[85.11381869000004,27.980627321000043],[85.11888227600008,27.986011674000054],[85.12695162400004,27.978196701000062]]]}},{"type":"Feature","properties":{"DISTRICT":"NUWAKOT","PALIKA":"Belkotgadhi","TYPE":"Nagarpalika","WARD":10},"geometry":{"type":"Polygon","coordinates":[[[85.14928587400001,27.87547092200004],[85.15019266100005,27.868183403000053],[85.16231449000009,27.862387816000023],[85.15949866600005,27.851231018000078],[85.14418455700007,27.828648156000046],[85.134461168,27.828236590000074],[85.13397722900002,27.84294945100003],[85.13757194400006,27.851494809000034],[85.13467445700007,27.862931547000066],[85.14484516800007,27.865944887000076],[85.14341693700003,27.873893213000038],[85.14928587400001,27.87547092200004]]]}},{"type":"Feature","properties":{"DISTRICT":"NUWAKOT","PALIKA":"Belkotgadhi","TYPE":"Nagarpalika","WARD":1},"geometry":{"type":"MultiPolygon","coordinates":[[[[85.16526961500003,27.80928706000003],[85.15705526700003,27.797584594000053],[85.14034935500005,27.809319197000036],[85.14321208100006,27.810243038000063],[85.16526961500003,27.80928706000003]]],[[[85.16526961500003,27.80928706000003],[85.17955935100008,27.820659909000025],[85.19671812700003,27.81830591200003],[85.18153386700003,27.80774797400004],[85.17795569500004,27.794204439000048],[85.16843226600008,27.80016211900005],[85.16526961500003,27.80928706000003]]]]}},{"type":"Feature","properties":{"DISTRICT":"NUWAKOT","PALIKA":"Belkotgadhi","TYPE":"Nagarpalika","WARD":11},"geometry":{"type":"Polygon","coordinates":[[[85.17138507300007,27.857815067000047],[85.17761275500003,27.819683901000076],[85.16526961500003,27.80928706000003],[85.13732997300008,27.810830761000037],[85.134461168,27.828236590000074],[85.14326950800006,27.82783683800006],[85.14943883800002,27.83841112000005],[85.15503627600002,27.841673923000027],[85.16207376100004,27.862904203000028],[85.17138507300007,27.857815067000047]]]}}]}