{"type":"FeatureCollection","features":[{"type":"Feature","properties":{"EventCode":"FL20260826NPL","Area_m2":65661000.0,"Area_ha":65661000.0},"geometry":{"type":"MultiPolygon","coordinates":[[[[85.08938567700005,27.855544905000045],[85.08926588000001,27.85557117900004],[85.08939202500004,27.855622323000095],[85.08938567700005,27.855544905000045]]],[[[85.08336757500007,27.858144546000073],[85.08331350100005,27.858111918000073],[85.08332218200007,27.858152261000036],[85.08336757500007,27.858144546000073]]],[[[85.14410301700006,27.869263308000086],[85.14401787100007,27.869225144000037],[85.14403880700004,27.869281853000075],[85.14410301700006,27.869263308000086]]],[[[85.18526983200006,27.882638300000053],[85.18713315700005,27.880066331000084],[85.18512743500007,27.880931027000088],[85.18526983200006,27.882638300000053]]],[[[85.23231824500004,27.891651810000045],[85.23223067600003,27.891620428000067],[85.23225665700004,27.891674833000067],[85.23231824500004,27.891651810000045]]],[[[85.23222720200002,27.891734592000034],[85.23214207300003,27.89169644000009],[85.23216298900007,27.891753133000066],[85.23222720200002,27.891734592000034]]],[[[85.17653370800008,27.89339686400007],[85.17644514300008,27.893368754000047],[85.17647347800002,27.89342196700005],[85.17653370800008,27.89339686400007]]],[[[85.17732344800002,27.893649180000068],[85.17718253000004,27.893592808000047],[85.17717371300006,27.89364076400005],[85.17732344800002,27.893649180000068]]],[[[85.17759909600004,27.893805579000066],[85.17738488400005,27.89372722100006],[85.17750361000003,27.893943552000053],[85.17759909600004,27.893805579000066]]],[[[85.17814170500003,27.894290869000088],[85.17780808100007,27.89462731300005],[85.17816988000004,27.895229032000085],[85.17814170500003,27.894290869000088]]],[[[85.17850827900008,27.895545514000055],[85.17842315000007,27.89550736300004],[85.17844406700004,27.89556405400009],[85.17850827900008,27.895545514000055]]],[[[85.17850827900008,27.896736399000073],[85.17842313400007,27.89669824300006],[85.17844407000004,27.89675493900006],[85.17850827900008,27.896736399000073]]],[[[85.16689610700007,27.955860111000053],[85.16686905600004,27.95584382700008],[85.16687341300006,27.95586397900007],[85.16689610700007,27.955860111000053]]],[[[85.18649710500006,27.97030863400004],[85.18645362000007,27.97028740100007],[85.18644816300008,27.97030500200009],[85.18649710500006,27.97030863400004]]],[[[85.23120676100007,28.087871916000037],[85.23115547800003,28.08786225900007],[85.23120007300007,28.08792445200004],[85.23120676100007,28.087871916000037]]],[[[85.26593887300002,28.10007646000008],[85.26593735300008,28.10007359000008],[85.26593529000007,28.100073720000072],[85.26593887300002,28.10007646000008]]],[[[85.31314959000008,28.142798357000057],[85.31314596300007,28.14279097800005],[85.31314742400005,28.14282022000009],[85.31314959000008,28.142798357000057]]],[[[85.31335242800003,28.14308175000008],[85.31327152100005,28.14314256200004],[85.31336377200005,28.14314372000006],[85.31335242800003,28.14308175000008]]],[[[85.31388298800002,28.143656178000075],[85.31376018200007,28.143649741000047],[85.31391478500007,28.143675596000037],[85.31388298800002,28.143656178000075]]],[[[85.31416201100004,28.143764792000074],[85.31407619700008,28.143747889000057],[85.31422577300003,28.143852302000077],[85.31416201100004,28.143764792000074]]],[[[85.31520031400005,28.144289227000062],[85.31519180400005,28.144288927000044],[85.315201567,28.144289731000068],[85.31520031400005,28.144289227000062]]],[[[85.31897469000006,28.149042174000037],[85.31894244500006,28.14903645700006],[85.31895701500008,28.149064881000076],[85.31897469000006,28.149042174000037]]],[[[85.31887737400007,28.149249209000054],[85.31885025100007,28.149232952000098],[85.31885464200006,28.149253101000056],[85.31887737400007,28.149249209000054]]],[[[85.33505287700004,28.178664463000075],[85.33495847200003,28.178702280000042],[85.33505229800002,28.17871169700004],[85.33505287700004,28.178664463000075]]],[[[85.47052757600002,28.33699026500006],[85.49082366200008,28.33810765600009],[85.49196240400005,28.326417102000047],[85.50965993100002,28.30176103100007],[85.52945320400003,28.293464254000067],[85.52977056400005,28.28653767700007],[85.51860605300004,28.282544339000083],[85.50132212700004,28.291785174000047],[85.49765182100003,28.305813350000054],[85.48177982600004,28.320241505000048],[85.48274044000003,28.330238242000057],[85.47879568800005,28.32399539100004],[85.46369860800006,28.334408068000073],[85.45006259000004,28.33106481300007],[85.44238828000005,28.33425630900007],[85.41549205200005,28.325146468000078],[85.41494306200008,28.308127991000045],[85.39871188100003,28.297428939000035],[85.39440783400003,28.28712646100007],[85.37859475000005,28.27781317600005],[85.37884637900004,28.26505221800005],[85.36759451200004,28.25742826700008],[85.36728078900006,28.25045478300007],[85.35948168900006,28.242312795000085],[85.36208591300003,28.223886932000084],[85.35547456500005,28.21436275400004],[85.35437391300007,28.200608678000037],[85.34338682200006,28.180913555000075],[85.34363838400003,28.16486478300004],[85.35651085700005,28.15349407800006],[85.34037014900008,28.162880157000053],[85.33658118400007,28.15891470700006],[85.34173218600003,28.154185955000052],[85.33419677200001,28.157679803000065],[85.30697992700004,28.139432734000085],[85.30625749000006,28.137212129000083],[85.30317258700006,28.131912253000053],[85.29769642900004,28.12532494200008],[85.26929942600002,28.10172576200006],[85.26721273800007,28.10140478200009],[85.26458924000008,28.099009969000065],[85.2646193830001,28.097165541000034],[85.25168124700005,28.09180555800009],[85.23302333000004,28.08954372300008],[85.20622964400006,28.068420166000074],[85.20883245200008,28.05468500300009],[85.19531260500008,28.04023066500008],[85.19470422100005,28.02810690000007],[85.18688936300002,28.023640909000044],[85.18723345300003,27.99917603600005],[85.18160111000003,27.98214824100006],[85.18422582200003,27.974890951000074],[85.19196824800005,27.975709972000054],[85.17363795000003,27.96316139900005],[85.16440816100003,27.95372059900007],[85.16072148400006,27.94025853900007],[85.15084747300003,27.93032041900005],[85.15161853500007,27.922173979000032],[85.13683416400005,27.913624764000055],[85.14179496200006,27.90654418900004],[85.13833727200006,27.888891449000077],[85.12814942800004,27.87526180500003],[85.11522914600003,27.868285189000062],[85.11100663400003,27.859275708000034],[85.13471000800007,27.860172756000036],[85.13491954500006,27.863472500000054],[85.13922338700007,27.867117529000033],[85.14400471200005,27.866144812000073],[85.143002386,27.868723974000083],[85.14323398100001,27.874914721000035],[85.15106086300005,27.876105717000087],[85.15308363700007,27.88534750300004],[85.15664499800005,27.88995787300006],[85.16649835000004,27.893540540000053],[85.17160381800002,27.89367918000005],[85.17425889600008,27.897080257000084],[85.18098547900004,27.901978616000065],[85.21988906700004,27.898347708000074],[85.22846632700004,27.905203785000083],[85.25233471100003,27.91078838100009],[85.26122335400004,27.909776741000083],[85.27177610600006,27.915925530000035],[85.28350164800008,27.917940684000087],[85.292247597,27.914458124000078],[85.29624470500003,27.917472390000047],[85.29880840100003,27.91317984600005],[85.29991958200003,27.91949061900004],[85.30483374500005,27.91781190900008],[85.30602843100007,27.915016705000088],[85.31221753300005,27.91872361900005],[85.31424651100008,27.91800349000005],[85.30637244000005,27.914019763000056],[85.30289718300007,27.91813798900006],[85.29937968300004,27.91296256600009],[85.29800713700007,27.91233787600003],[85.29624206000005,27.916978125000064],[85.291823617,27.913862781000038],[85.28315828300002,27.91746503900004],[85.25930974000005,27.90781860900006],[85.24897441000007,27.908737848000044],[85.24249780900004,27.905030823000057],[85.22751767600005,27.903803930000038],[85.22163338200005,27.897182527000037],[85.22965470100004,27.897614577000073],[85.23843812800004,27.89239662700004],[85.24516510600003,27.89365854400006],[85.25089683800007,27.89228069600006],[85.27110490300004,27.877682375000056],[85.27341682900004,27.873651120000087],[85.2792430200001,27.870347619000086],[85.28993437900002,27.86696958200008],[85.29545297700008,27.862785111000054],[85.30197208600003,27.865818822000055],[85.30394782100004,27.864628115000073],[85.29509383200008,27.862626997000074],[85.27818101600008,27.870413479000042],[85.27293669200003,27.87359733700004],[85.26621628900006,27.880569340000076],[85.255370478,27.886552977000065],[85.25616600200004,27.883134180000063],[85.24770840800005,27.89261143000005],[85.23808917900003,27.89084837000007],[85.23188623900005,27.895394403000065],[85.22728340000003,27.895101281000045],[85.21090247400008,27.898466514000063],[85.20127309000003,27.897157853000067],[85.18950373600003,27.90064199900008],[85.17858750500002,27.895611183000096],[85.17882174400003,27.897133058000062],[85.17750349600001,27.896138555000046],[85.17739960400006,27.89567154300005],[85.17636210400008,27.896322625000035],[85.17139110500005,27.887780313000064],[85.17546673500003,27.885260760000047],[85.17726747000005,27.88550758500008],[85.18169511300003,27.884268961000085],[85.18298372500001,27.883128465000073],[85.18627872000006,27.88450470900005],[85.19043743800006,27.883585090000054],[85.19390703600004,27.885112823000043],[85.199702551,27.883627373000074],[85.20319999500003,27.879244689000075],[85.19365481600005,27.884841331000075],[85.19029271100003,27.883236993000075],[85.18616746500004,27.88409890300005],[85.18154229900004,27.881772199000068],[85.17268795200005,27.884240601000037],[85.16934524900006,27.889344046000073],[85.16673640500002,27.88892093600009],[85.16180593800001,27.890229013000056],[85.15403508700008,27.884910800000053],[85.15176739800005,27.874589563000082],[85.14376842200005,27.874167758000052],[85.14368842500005,27.868663541000057],[85.14481168600008,27.86590133400006],[85.13387459100005,27.859002976000056],[85.1199299020001,27.85661751300005],[85.09288828500007,27.85950684500006],[85.07585578600002,27.851854640000056],[85.05987381400004,27.857795226000064],[85.04434917,27.85033484200005],[85.04213000400004,27.855046819000055],[85.03307220700003,27.852968689000065],[85.02152216300003,27.842808124000037],[85.02387032000006,27.834329492000048],[85.01350619900005,27.813602794000072],[85.01487087600002,27.807484419000048],[85.00097756100008,27.800470956000083],[84.98742086900003,27.80496376400002],[84.97975528400006,27.801173773000077],[84.97289185500004,27.801236063000097],[84.95892978900008,27.817209095000067],[84.94430847500004,27.81143797300006],[84.93993806800003,27.80431053800004],[84.92352337700001,27.797060891000058],[84.90679839400005,27.803517704000058],[84.90518432900004,27.80689857400004],[84.89953187700004,27.805543816000068],[84.88856395100002,27.809028268000077],[84.87473222200005,27.807669980000075],[84.87273380700002,27.803106253000074],[84.86551222200006,27.80104965500004],[84.84970942800003,27.80816182800004],[84.84590646100008,27.80222213500008],[84.84054818000004,27.801370444000046],[84.82796046300005,27.818382568000057],[84.82318192300004,27.81588747100005],[84.82321267500004,27.808543554000043],[84.81870199000006,27.807074659000072],[84.80845090800003,27.817152301000082],[84.80346186200006,27.81453378400005],[84.79306240700004,27.81248942700005],[84.78291620300006,27.813551244000053],[84.77512749800009,27.808154139000067],[84.76959931600004,27.809956641000042],[84.76389251300003,27.81815026900006],[84.75446111100007,27.805996898000046],[84.73871823700004,27.80345351500004],[84.73705594600005,27.79808620500006],[84.73080010300004,27.795165268000066],[84.71877663400005,27.803169587000067],[84.714130885,27.80035995800005],[84.71025536800005,27.80048849800005],[84.70804429600008,27.801753164000043],[84.70675985300005,27.806566666000037],[84.695063175,27.80658013800008],[84.69333498200007,27.809199041000056],[84.68383191100008,27.810193754000068],[84.67002899000002,27.817079549000084],[84.66999230600004,27.808859298000073],[84.66315550300004,27.808735244000047],[84.66881902100002,27.816514570000034],[84.66029595700006,27.828880739000056],[84.66324519900004,27.8399193040001],[84.65968722700006,27.849739497000087],[84.64674634900007,27.853243966000036],[84.64748098400005,27.859811318000084],[84.63500518700003,27.85988326700004],[84.63281286200001,27.868593835000077],[84.62764011900003,27.871057048000072],[84.62109794500002,27.879375025000055],[84.61362146900007,27.87222895000008],[84.60771648100007,27.870815462000042],[84.58970241400002,27.87894536200008],[84.57796490500004,27.871687550000047],[84.57789394000007,27.864370069000074],[84.57381789600002,27.861055566000072],[84.55911249000008,27.85703098000005],[84.55896103700005,27.84666702000004],[84.55616533700004,27.835937888000046],[84.547660922,27.83120992400007],[84.52246153200008,27.832245905000036],[84.52096446600004,27.821274122000087],[84.51732265000004,27.815454440000057],[84.51027053900002,27.815071843000045],[84.49715751700005,27.819976334000042],[84.49428139400004,27.816437095000083],[84.49618071900005,27.819992776000042],[84.49225726600008,27.818814210000085],[84.47012176500004,27.823778126000033],[84.46314539300005,27.817967749000044],[84.44490086600005,27.82159066500008],[84.43307171300006,27.81148491600004],[84.43142551500004,27.789650619000035],[84.43902119500007,27.77910226000006],[84.45102792900008,27.77866450500005],[84.46148118100007,27.773846951000063],[84.47129011200005,27.761988494000036],[84.47238114300006,27.75147658800007],[84.45225458400006,27.758256493000083],[84.43760909100007,27.742252952000058],[84.42398576300006,27.740838347000075],[84.43265047500005,27.705015119000052],[84.38863610900006,27.679091385000053],[84.37416401700004,27.67914566000007],[84.35599055300008,27.697013844000086],[84.35918667000003,27.70402343700005],[84.37026514800003,27.68860547700006],[84.38726421000005,27.686092383000073],[84.42372234800007,27.70343727600005],[84.42715080700003,27.71053183200008],[84.41802364300005,27.756993249000065],[84.40444612300004,27.762082977000084],[84.39317768800004,27.774156820000083],[84.37641355300006,27.779665608000073],[84.39284083200005,27.77563617200008],[84.40654820300006,27.762534191000043],[84.41866394800007,27.759109862000056],[84.42371019600006,27.742552264000036],[84.436763603,27.74378354500004],[84.45160060500004,27.76031659800009],[84.47094097400003,27.75477854500008],[84.46144458700007,27.77180859000003],[84.43681746300007,27.778539003000045],[84.42873294000002,27.792478788000032],[84.43230557600002,27.81412093400008],[84.44436793500005,27.82350763200008],[84.45669232800003,27.822033020000053],[84.46617670000006,27.83108611200004],[84.43649188700003,27.833918705000087],[84.43306884,27.843934097000044],[84.42131947100006,27.842598443000043],[84.41290524800006,27.849755738000056],[84.40851990300007,27.84670508800008],[84.399674777,27.851028589000077],[84.39495766500004,27.858559003000043],[84.40013620300002,27.851962255000036],[84.41342891600004,27.850883832000083],[84.42089245700004,27.843755614000088],[84.43399058700004,27.84481833100006],[84.43952438900003,27.83538939400006],[84.46613349800003,27.832788231000052],[84.46795451900005,27.830309374000063],[84.46617492800003,27.82603998700006],[84.45593428400007,27.820118824000062],[84.46437294600007,27.819446305000046],[84.46672860600006,27.824969040000042],[84.50361939500004,27.820140746000046],[84.51332453600007,27.815854460000082],[84.51817699200006,27.817570849000045],[84.52177265900008,27.833463128000066],[84.54707981800004,27.832386615000065],[84.555757295,27.83729772400005],[84.55772668400004,27.85858623400008],[84.54712017800006,27.862772259000053],[84.55091199300003,27.87098075300008],[84.54803901800005,27.86298047600007],[84.56488865900008,27.858720964000042],[84.57679332700006,27.86437417800005],[84.57691293300007,27.871994755000067],[84.58829193600008,27.87977377200007],[84.60796784200005,27.871986300000053],[84.62160746800005,27.881418515000068],[84.63504474400007,27.86921571900006],[84.63577018900006,27.86083649400007],[84.64938820400005,27.861679709000043],[84.64736956800004,27.853800537000037],[84.66031085200007,27.85045903000007],[84.66466820400007,27.84086608500007],[84.66160773600005,27.82936843600005],[84.66965556200006,27.817887571000085],[84.70779667500005,27.807463000000006],[84.71086511500005,27.80113421700009],[84.71906986300007,27.804354356000086],[84.73093011800006,27.79610512900007],[84.73827059700004,27.80465675100004],[84.75424246200004,27.807521089000087],[84.76214974800007,27.81918698400006],[84.76757654600004,27.81825891900007],[84.77301429500002,27.80953590600006],[84.78107918100005,27.814252052000096],[84.77355799000003,27.82382660000007],[84.77294252400003,27.830368266000058],[84.77570830000006,27.835550169000044],[84.77070410500005,27.838605384000058],[84.76710164300005,27.844001098000035],[84.76845948400006,27.84758339700006],[84.77669177500007,27.835563448000077],[84.77485035000007,27.82374489300008],[84.78384558900005,27.81468728300006],[84.79266781000005,27.813019623000063],[84.80857942800003,27.81792253200007],[84.82109530100007,27.808290679000038],[84.82158507300005,27.815279280000087],[84.82762212700004,27.819556808000076],[84.83549325200005,27.81429283800009],[84.84045241300004,27.80249200600008],[84.84964965900006,27.808994861000087],[84.86848769400007,27.80258330600009],[84.87233254900008,27.807770067000043],[84.88675810500007,27.810154873000048],[84.90651753800006,27.808166408000087],[84.92432394100005,27.79836102500008],[84.93966962000007,27.805509853000046],[84.94792517900004,27.816972080000088],[84.95691794800007,27.81890813200005],[84.96940762100007,27.811717083000072],[84.97297234300001,27.802510891000054],[84.98791568100006,27.80598489900006],[85.00179860700004,27.802541343000097],[85.01309090100006,27.80816520700006],[85.01146507700007,27.811022548000036],[85.01578159500008,27.82711898200006],[85.02120912500006,27.833315846000065],[85.01676628400003,27.83348559900008],[85.02149251000002,27.83610224100005],[85.01872876900006,27.84388637400008],[85.03136185200002,27.854843391000088],[85.05127360600004,27.855554915000077],[85.06770637000005,27.86176939200005],[85.07430322300006,27.854531412000078],[85.08819248100005,27.858361455000082],[85.09167005700004,27.863723188000048],[85.10596997600001,27.859575824000043],[85.11532746200004,27.87408105300005],[85.12364705500003,27.876299356000068],[85.13498210800003,27.889283553000034],[85.13802587900004,27.905983518000088],[85.13359686400008,27.91489375100008],[85.13638007100008,27.919960115000034],[85.14741637300006,27.92306885000005],[85.14799783600006,27.93294769000004],[85.16115844700005,27.94801261900005],[85.16112411100002,27.95706974100006],[85.18128148600005,27.971851664000045],[85.17786778300007,27.98211970800008],[85.17346003500008,27.982258976000086],[85.17871154000005,27.984149927000097],[85.18433286700007,27.997340334000047],[85.18224158700006,28.020228588000062],[85.19228718600004,28.029546046000068],[85.19341843700005,28.040080935000045],[85.20701781600008,28.055330207000054],[85.20461306900006,28.067014595000042],[85.20647416100006,28.072616241000045],[85.23454932100003,28.09181414700004],[85.26324116900008,28.09825947200005],[85.29761809300004,28.12711180400004],[85.30723400400007,28.14165659200006],[85.32439743800006,28.151200989000074],[85.34130927400007,28.16578542900003],[85.34204976000004,28.178712644000065],[85.33506633300004,28.18087699000006],[85.34213574000006,28.182568814000035],[85.35186114500004,28.199581522000077],[85.3541198,28.216563687000075],[85.36024773200006,28.224517236000036],[85.35692597400002,28.242181185000057],[85.37623124300003,28.27265089900004],[85.37139745400002,28.284427524000076],[85.35336819000008,28.286096143000066],[85.34707339300007,28.289156120000083],[85.34762537200002,28.30111827100006],[85.34134555800003,28.303372149000037],[85.34759120000005,28.30217578500007],[85.34501615800008,28.31360851000005],[85.34909406300005,28.295858909000057],[85.34774643800006,28.289127802000053],[85.36987047300005,28.286629710000057],[85.37844660700006,28.280621404000048],[85.40968247600006,28.308620909000066],[85.41187315300004,28.32909211200006],[85.44447077600006,28.33963202000007],[85.44789793900003,28.336507527000037],[85.45616515400008,28.340285996000087],[85.47052757600002,28.33699026500006]],[[85.35314245700005,28.208096531000074],[85.35319288500006,28.20807449800009],[85.35319620100006,28.208094028000062],[85.35314245700005,28.208096531000074]],[[85.30593767600001,28.137288579000078],[85.30598807900003,28.13726656200003],[85.30599138500006,28.13728609300005],[85.30593767600001,28.137288579000078]],[[85.30549440600001,28.137096201000073],[85.30564723900005,28.137075069000044],[85.30564711700003,28.13716544700009],[85.30549440600001,28.137096201000073]],[[85.27096956300004,28.103835237000055],[85.27097819900007,28.103829832000095],[85.27097394300004,28.103849482000044],[85.27096956300004,28.103835237000055]],[[85.12817993300006,27.877892888000073],[85.1282345050001,27.877906351000032],[85.12818424500003,27.877910152000087],[85.12817993300006,27.877892888000073]],[[84.83455376600006,27.814543463000067],[84.83440309200003,27.814046032000086],[84.83447231800005,27.81398527800008],[84.83455376600006,27.814543463000067]],[[84.80271297500009,27.815857014000073],[84.80366784900008,27.815097279000035],[84.80409435800004,27.816259663000036],[84.80271297500009,27.815857014000073]],[[84.42922403600005,27.710373742000037],[84.42760841400006,27.704594488000055],[84.42925061900004,27.70643884500004],[84.42922403600005,27.710373742000037]],[[84.42596162300003,27.70452247100007],[84.42510834700005,27.705336853000055],[84.42441711000004,27.703623633000067],[84.42596162300003,27.70452247100007]],[[84.41393382100006,27.696802126000076],[84.40731528000003,27.69498217300009],[84.40191802700008,27.689382861000063],[84.41259952200005,27.693749839000077],[84.41393382100006,27.696802126000076]],[[84.40057855400003,27.687443836000057],[84.39730114800005,27.68531715600005],[84.40173236800007,27.687182921000048],[84.40057855400003,27.687443836000057]],[[84.39263645300008,27.68543703800008],[84.38605777400002,27.682655304000033],[84.38412137200004,27.680152368000048],[84.38906691800008,27.68126771000004],[84.39263645300008,27.68543703800008]],[[84.38175802800004,27.67934008600008],[84.37899026700006,27.67988547700008],[84.37894733500006,27.679869244000084],[84.38175802800004,27.67934008600008]],[[84.37472495400002,27.682643051000074],[84.37763423400008,27.683142948000064],[84.37277896800003,27.684581691000062],[84.37472495400002,27.682643051000074]],[[84.66505583200005,27.809929499000074],[84.66582045300004,27.809322340000055],[84.66596377100007,27.810388109000087],[84.66505583200005,27.809929499000074]],[[85.10960157200002,27.858224420000056],[85.10965123800008,27.858205958000042],[85.10960074900004,27.858234971000048],[85.10960157200002,27.858224420000056]],[[85.16673921900008,27.88954636200009],[85.17080037700005,27.89231200500007],[85.17138025100004,27.893176768000053],[85.16615931400008,27.893057220000056],[85.16673921900008,27.88954636200009]],[[85.16580130300007,27.89290234600008],[85.16579887900006,27.89291488000004],[85.16577979900006,27.892862918000045],[85.16580130300007,27.89290234600008]],[[85.17307417200004,27.88557087700008],[85.17468175700003,27.884615336000085],[85.174304772,27.885626561000038],[85.17307417200004,27.88557087700008]],[[85.18026571500006,27.88398473200004],[85.18155411300005,27.883958102000054],[85.17997209000002,27.884230947000045],[85.18026571500006,27.88398473200004]],[[85.17362924600006,27.895595140000065],[85.1730673580001,27.895545912000046],[85.17312824800005,27.89513157000004],[85.17362924600006,27.895595140000065]],[[85.17477367600002,27.896751457000033],[85.17598210900006,27.896861492000085],[85.17628884300007,27.897609725000052],[85.17477367600002,27.896751457000033]],[[85.17732433400005,27.898361273000038],[85.17802966100002,27.897672363000083],[85.17844672300004,27.898640278000073],[85.17732433400005,27.898361273000038]],[[85.17962896100005,27.899430444000078],[85.18031421500004,27.898918761000065],[85.18091824800005,27.89955585000007],[85.17962896100005,27.899430444000078]],[[85.17823878600007,27.899079976000035],[85.17815364100002,27.89911813100008],[85.17817457700005,27.89906143700005],[85.17823878600007,27.899079976000035]],[[85.18203497500006,27.899514802000063],[85.18223968600006,27.899463571000073],[85.18226895800007,27.89950467000006],[85.18203497500006,27.899514802000063]],[[85.18191801200004,27.898926297000063],[85.18129414400005,27.899026614000032],[85.18127956000006,27.898793822000073],[85.18191801200004,27.898926297000063]],[[85.18109887500002,27.899164306000042],[85.18094068600004,27.899176511000064],[85.18096790200005,27.899072894000085],[85.18109887500002,27.899164306000042]],[[85.17927312600004,27.89801137400008],[85.17928772800005,27.897812905000073],[85.17945649800004,27.897993516000042],[85.17927312600004,27.89801137400008]],[[85.17868965200003,27.89781474600005],[85.17860158400002,27.897844491000054],[85.17862756600003,27.89779009000006],[85.17868965200003,27.89781474600005]],[[85.17818607100008,27.897543685000073],[85.17840461600008,27.897504517000076],[85.17838856900005,27.89761312400007],[85.17818607100008,27.897543685000073]],[[85.17752484100004,27.896736394000076],[85.17760995300004,27.896698248000064],[85.17758903700008,27.89675493900006],[85.17752484100004,27.896736394000076]],[[85.17500957300007,27.896260039000083],[85.17509470300006,27.89622189000005],[85.17507377100003,27.896278600000077],[85.17500957300007,27.896260039000083]],[[85.18416953400003,27.899893039000066],[85.18475601500006,27.900217996000034],[85.18392199600004,27.900048087000066],[85.18416953400003,27.899893039000066]],[[85.18130931000009,27.900256661000075],[85.18137128700005,27.900323139000076],[85.18130264300005,27.90031721900004],[85.18130931000009,27.900256661000075]],[[85.18192587800006,27.90036359200008],[85.18259024900003,27.900775563000074],[85.18177367300007,27.900517292000075],[85.18192587800006,27.90036359200008]],[[85.180367098,27.900648104000084],[85.18025890500007,27.900855444000054],[85.18016038300004,27.90076773600003],[85.180367098,27.900648104000084]],[[85.18282486800007,27.90070591600005],[85.18290999700008,27.90066776800006],[85.182889066,27.900724476000047],[85.18282486800007,27.90070591600005]],[[85.19492002600003,27.90056156600009],[85.19518596700004,27.90043368500005],[85.19525696700003,27.900537896000056],[85.19492002600003,27.90056156600009]],[[85.19686138900005,27.900467222000085],[85.19640280200007,27.900235450000082],[85.19686285400006,27.900120629000067],[85.19686138900005,27.900467222000085]],[[85.19714602800006,27.900371677000063],[85.19780135900004,27.899963819000053],[85.19771073300006,27.900223195000077],[85.19714602800006,27.900371677000063]],[[85.19616512600004,27.90015545600005],[85.19604591100006,27.900114546000054],[85.19617854200004,27.90011249100007],[85.19616512600004,27.90015545600005]],[[85.19396218200005,27.899748229000064],[85.19405024900001,27.89971848400006],[85.19402426800008,27.899772884000075],[85.19396218200005,27.899748229000064]],[[85.19875861800006,27.899549379000057],[85.19876532900008,27.89905783200004],[85.19887629900005,27.899035494000092],[85.19875861800006,27.899549379000057]],[[85.19732764700007,27.899471364000078],[85.19709557100003,27.89960515300004],[85.19705878500008,27.899545808000084],[85.19732764700007,27.899471364000078]],[[85.19937146700005,27.898524120000047],[85.19951101200007,27.89848313000004],[85.19937704200002,27.898567702000037],[85.19937146700005,27.898524120000047]],[[85.22069170600007,27.89691667400006],[85.22067869000006,27.896835697000082],[85.22073195100006,27.896869431000084],[85.22069170600007,27.89691667400006]],[[85.22738273100003,27.895496576000085],[85.22716614600006,27.896236992000066],[85.22389606000007,27.896094230000074],[85.22738273100003,27.895496576000085]],[[85.22970550500008,27.89665926300006],[85.22985293800005,27.896049063000074],[85.23012413800005,27.89639326600007],[85.22970550500008,27.89665926300006]],[[85.22743523300005,27.895323302000065],[85.22732210900003,27.895253201000063],[85.22746099500006,27.89527346700003],[85.22743523300005,27.895323302000065]],[[85.23662254700008,27.89242971800007],[85.23729367500005,27.892530209000086],[85.23648233200002,27.892577219000096],[85.23662254700008,27.89242971800007]],[[85.24893873800002,27.891729571000035],[85.249026805,27.891699824000057],[85.24900082400006,27.89175422900007],[85.24893873800002,27.891729571000035]],[[85.24994651600008,27.891298463000055],[85.25009686700008,27.891325705000042],[85.24996195000006,27.891350182000053],[85.24994651600008,27.891298463000055]],[[85.25012266700003,27.890758199000054],[85.25035864400007,27.89076732700005],[85.25015687600006,27.890867885000084],[85.25012266700003,27.890758199000054]],[[85.25070473800008,27.890773666000086],[85.25050676900008,27.890530951000073],[85.25079696400005,27.89074673200008],[85.25070473800008,27.890773666000086]],[[85.25038529600005,27.889954981000077],[85.25093483400005,27.890025696000063],[85.25023658700006,27.890211302000054],[85.25038529600005,27.889954981000077]],[[85.25414686400006,27.888444943000085],[85.25424056200005,27.888405756000058],[85.25419675900008,27.88849632200004],[85.25414686400006,27.888444943000085]],[[85.25409827800004,27.888041706000084],[85.25447516100004,27.88792029800004],[85.25412334700007,27.888164137000036],[85.25409827800004,27.888041706000084]],[[85.26351009500007,27.882771630000033],[85.26365101300007,27.882715255000058],[85.26365602700008,27.882767540000085],[85.26351009500007,27.882771630000033]],[[85.22304869200008,27.89902973600003],[85.22275236800003,27.899033280000083],[85.22285855400008,27.898844939000064],[85.22304869200008,27.89902973600003]],[[85.22941042600007,27.904234014000046],[85.229312249,27.90428625300005],[85.22928979800005,27.90424658800004],[85.22941042600007,27.904234014000046]],[[85.24194982000004,27.905337978000087],[85.241888902,27.905371208000073],[85.24185567800002,27.905360467000033],[85.24194982000004,27.905337978000087]],[[85.24235196100005,27.905410170000017],[85.24236089700008,27.905414113000067],[85.24233074200004,27.905409610000053],[85.24235196100005,27.905410170000017]],[[85.24295821900006,27.905494191000052],[85.24298074900007,27.905517622000048],[85.24288748200009,27.905493781000075],[85.24295821900006,27.905494191000052]],[[85.27132566900008,27.914484094000045],[85.27187869300006,27.914559552000075],[85.27188862200006,27.91466547300007],[85.27132566900008,27.914484094000045]],[[85.27328087700005,27.91456373200009],[85.27337455900005,27.91452455600006],[85.27333075800003,27.91461510000005],[85.27328087700005,27.91456373200009]],[[85.27515555300005,27.914835175000068],[85.27482262400005,27.914957920000063],[85.27486956500007,27.914792247000037],[85.27515555300005,27.914835175000068]],[[85.30000479800002,27.916379258000063],[85.29973967600006,27.916388616000063],[85.29966602200005,27.91606829300008],[85.30000479800002,27.916379258000063]],[[85.18340688700002,27.90166759600004],[85.18302981300008,27.901626769000075],[85.18331917300003,27.901538266000045],[85.18340688700002,27.90166759600004]]]]}}]}