{"type":"FeatureCollection","name":"IOM holding centres - selected public WASH fields","features":[{"type":"Feature","properties":{"district":"Nuwakot","district_pcode":"NP0328","municipality":"Bidur","ward":"9","site_name":"Shree Sulakshana Secondary School","site_id":"NUW-007","site_type":"Collective centre","road_access":"Yes","access_constraints":"None","households":46,"individuals":88,"verification":"Estimated","latrines_total":6,"latrines_female":3,"latrines_male":3,"latrine_privacy":"Yes","drinking_source":"Tap water and bottled water","potable_source":"Tap water and bottled water","water_shortage":"No","storage_adequate":"Partially","soap_hygiene":"Yes","solid_waste":"No","priority_wash_gaps":"Inadequate water filtration and waste management; waste is disposed of in the river","wash_top_priority":true,"assessment_date":"2026-09-04"},"geometry":{"type":"Point","coordinates":[85.1588017,27.9477262]}},{"type":"Feature","properties":{"district":"Nuwakot","district_pcode":"NP0328","municipality":"Kispang","ward":"5","site_name":"Karki Manakamana Aadharbhoot School","site_id":"NUW-001","site_type":"Collective centre","road_access":"Yes","access_constraints":"Unpaved hilly road","households":3,"individuals":11,"verification":"Verified","latrines_total":2,"latrines_female":1,"latrines_male":1,"latrine_privacy":"Yes","drinking_source":"Tap water sourced from seasonal spring","potable_source":"Tap water/piped","water_shortage":"No","storage_adequate":"No","soap_hygiene":"Partially","solid_waste":"Yes","priority_wash_gaps":"Hygiene items insufficient\nNot enough water storage","wash_top_priority":true,"assessment_date":"2026-09-03"},"geometry":{"type":"Point","coordinates":[85.1743075,27.9879608]}},{"type":"Feature","properties":{"district":"Nuwakot","district_pcode":"NP0328","municipality":"Bidur","ward":"7","site_name":"Shree Jana Jagaran Mahila Samuha, Tupche","site_id":"NUW-005","site_type":"Collective centre","road_access":"Yes","access_constraints":"Largely unpaved road","households":20,"individuals":74,"verification":"Verified","latrines_total":3,"latrines_female":1,"latrines_male":2,"latrine_privacy":"Yes","drinking_source":"Tap water sourced from seasonal spring","potable_source":"Mineral water","water_shortage":"Yes","storage_adequate":"No","soap_hygiene":"Yes","solid_waste":"No","priority_wash_gaps":"Poor water quality; turbid water and no filtration, \nInsufficient water storage,\nNo functional toilets despite 6 toilets, \nNo private space for women amd girls,\nMissing sanitation supplies; no toilet cleaning brush, no disinfectant","wash_top_priority":true,"assessment_date":"2026-09-04"},"geometry":{"type":"Point","coordinates":[85.1717369,27.9685953]}},{"type":"Feature","properties":{"district":"Nuwakot","district_pcode":"NP0328","municipality":"Bidur","ward":"3","site_name":"Rana Buwaneshor Madhyamik  Vidhyalaya","site_id":"NUW-008","site_type":"Collective centre","road_access":"Yes","access_constraints":"Road damage in few area","households":2,"individuals":10,"verification":"Verified","latrines_total":4,"latrines_female":2,"latrines_male":2,"latrine_privacy":"Yes","drinking_source":"Deep boaring","potable_source":"River water","water_shortage":"Boaring required electricity ,so if electricity is available no issue","storage_adequate":"Yes","soap_hygiene":"Partially","solid_waste":"Partially","priority_wash_gaps":"Hygiene Kits","wash_top_priority":false,"assessment_date":"2026-09-05"},"geometry":{"type":"Point","coordinates":[85.1077728,27.8624734]}},{"type":"Feature","properties":{"district":"Nuwakot","district_pcode":"NP0328","municipality":"Bidur","ward":"9","site_name":"Shree Bhairum Higher Secondary School","site_id":"NUW-003","site_type":"Collective centre","road_access":"Yes","access_constraints":"Road and bridges damaged-  took almost 8hrs to reach the location via road","households":85,"individuals":250,"verification":"Estimated","latrines_total":4,"latrines_female":2,"latrines_male":2,"latrine_privacy":"Yes","drinking_source":"Relying on jar water and collected water - some organization provided water purifiers , access to safe drinking water remains a concern ","potable_source":"Collected water, mineral waters / jar donated by organizations ","water_shortage":"Yes","storage_adequate":"No","soap_hygiene":"Partially","solid_waste":"No","priority_wash_gaps":"Less drinking water supplies\n No soaps handwash facilities in bathroom  \n ","wash_top_priority":false,"assessment_date":"2026-09-04"},"geometry":{"type":"Point","coordinates":[85.1395003,27.9232893]}},{"type":"Feature","properties":{"district":"Nuwakot","district_pcode":"NP0328","municipality":"Kispang","ward":"5","site_name":"Tribhuwan Madyamik Bidhyalaya","site_id":"Nuwa-002","site_type":"Collective centre","road_access":"Yes","access_constraints":"Road damage, Steep","households":7,"individuals":45,"verification":"Verified","latrines_total":3,"latrines_female":1,"latrines_male":2,"latrine_privacy":"Partially","drinking_source":"Tap water sourced from seasonal spring","potable_source":"No","water_shortage":"No","storage_adequate":"Partially","soap_hygiene":"Partially","solid_waste":"Unknown","priority_wash_gaps":"Hygiene Kits, Sanitation, Bathroom, Awareness about Hygiene","wash_top_priority":false,"assessment_date":"2026-09-03"},"geometry":{"type":"Point","coordinates":[85.17434,28.02761]}},{"type":"Feature","properties":{"district":"Nuwakot","district_pcode":"NP0328","municipality":"Bidur","ward":"3","site_name":"Chandi School","site_id":"NUW-009","site_type":"Collective centre","road_access":"Partially","access_constraints":"Road damage","households":27,"individuals":100,"verification":"Estimated","latrines_total":2,"latrines_female":1,"latrines_male":1,"latrine_privacy":"Partially","drinking_source":"Tap water sourced from seasonal spring - significant access challenge as it takes one hour to reach the source","potable_source":"Spring water","water_shortage":"No","storage_adequate":"No","soap_hygiene":"No","solid_waste":"No","priority_wash_gaps":"Solid waste management and Drainage , Drinking water and hygiene kit","wash_top_priority":true,"assessment_date":"2026-09-05"},"geometry":{"type":"Point","coordinates":[85.08028,27.85782]}},{"type":"Feature","properties":{"district":"Nuwakot","district_pcode":"NP0328","municipality":"Bidur","ward":"9","site_name":"Tripoli Jolene Church Bhawan","site_id":"NUW-004","site_type":"Host community concentration","road_access":"Yes","access_constraints":"No","households":17,"individuals":59,"verification":"Estimated","latrines_total":45,"latrines_female":20,"latrines_male":25,"latrine_privacy":"Yes","drinking_source":"Tap, Tanker, Water Jar","potable_source":"Water Jar, Tanker","water_shortage":"Yes","storage_adequate":"Partially","soap_hygiene":"Yes","solid_waste":"Partially","priority_wash_gaps":"Solid Waste Management,  Water","wash_top_priority":false,"assessment_date":"2026-09-04"},"geometry":{"type":"Point","coordinates":[85.14554,27.92578]}},{"type":"Feature","properties":{"district":"Nuwakot","district_pcode":"NP0328","municipality":"Bidur","ward":"9","site_name":"Trishuli adharbhhut school","site_id":"NUW- 006","site_type":"Collective centre","road_access":"Yes","access_constraints":"Road damage","households":47,"individuals":179,"verification":"Estimated","latrines_total":6,"latrines_female":3,"latrines_male":3,"latrine_privacy":"Yes","drinking_source":"Tap water sourced from seasonal spring","potable_source":"Natural water","water_shortage":"Enough","storage_adequate":"Yes","soap_hygiene":"Yes","solid_waste":"No","priority_wash_gaps":"No facility available for buying and washing clothes","wash_top_priority":false,"assessment_date":"2026-09-04"},"geometry":{"type":"Point","coordinates":[85.15048,27.94477]}},{"type":"Feature","properties":{"district":"Nuwakot","district_pcode":"NP0328","municipality":"Bidur","ward":"4","site_name":"Sukumbasi Tole","site_id":"Bidur 4 NUW-001","site_type":"Collective centre","road_access":"Yes","access_constraints":"None","households":17,"individuals":51,"verification":"Verified","latrines_total":4,"latrines_female":2,"latrines_male":2,"latrine_privacy":"Yes","drinking_source":"Mineral water","potable_source":"Tanker collected from spring water from KUKL","water_shortage":"Not yet","storage_adequate":"Yes","soap_hygiene":"Partially","solid_waste":"Partially","priority_wash_gaps":"Bathing area and equipment, self dignity concern","wash_top_priority":true,"assessment_date":"2026-09-02"},"geometry":{"type":"Point","coordinates":[85.1437125,27.8993135]}},{"type":"Feature","properties":{"district":"Nuwakot","district_pcode":"NP0328","municipality":"Bidur","ward":"6","site_name":"Dugdha Chisyan Kendra","site_id":"Nuw-001","site_type":"Other","road_access":"Yes","access_constraints":"None,  landslide risk","households":2,"individuals":10,"verification":"Verified","latrines_total":1,"latrines_female":0,"latrines_male":0,"latrine_privacy":"No","drinking_source":"Mineral water","potable_source":"Local tank water and KUKL water supply","water_shortage":"Yes","storage_adequate":"No","soap_hygiene":"Partially","solid_waste":"Partially","priority_wash_gaps":"Drinking Water, Toilet","wash_top_priority":true,"assessment_date":"2026-09-02"},"geometry":{"type":"Point","coordinates":[85.1431551,27.8915287]}},{"type":"Feature","properties":{"district":"Nuwakot","district_pcode":"NP0328","municipality":"Belkotgadhi","ward":"7","site_name":"Belkotgadhi Mahadev School","site_id":"Belkotgadhi 7-NUW001","site_type":"Collective centre","road_access":"No","access_constraints":"Road damage,landslide risk","households":69,"individuals":150,"verification":"Estimated","latrines_total":16,"latrines_female":6,"latrines_male":10,"latrine_privacy":"Yes","drinking_source":"Tap water sourced from seasonal spring","potable_source":"Spring water","water_shortage":"No","storage_adequate":"Yes","soap_hygiene":"Partially","solid_waste":"No","priority_wash_gaps":"No any pads hygiene kits, Diapers, soap, shampoo, tooth brush and kit","wash_top_priority":true,"assessment_date":"2026-09-03"},"geometry":{"type":"Point","coordinates":[85.060293,27.8522439]}},{"type":"Feature","properties":{"district":"Nuwakot","district_pcode":"NP0328","municipality":"Belkotgadhi","ward":"7","site_name":"Nepal Westlian Church","site_id":"NUW-001","site_type":"Other","road_access":"No","access_constraints":"No road","households":9,"individuals":33,"verification":"Estimated","latrines_total":1,"latrines_female":0,"latrines_male":0,"latrine_privacy":"No","drinking_source":"Tap water sourced from seasonal spring and filter","potable_source":"Spring water","water_shortage":"No","storage_adequate":"No","soap_hygiene":"Partially","solid_waste":"No","priority_wash_gaps":"WASH and waste management","wash_top_priority":true,"assessment_date":"2026-09-03"},"geometry":{"type":"Point","coordinates":[85.0419843,27.8498261]}},{"type":"Feature","properties":{"district":"Nuwakot","district_pcode":"NP0328","municipality":"Belkotgadhi","ward":"7","site_name":"Mahadev Campus","site_id":"NUW-001","site_type":"Other","road_access":"No","access_constraints":"Road damage","households":6,"individuals":27,"verification":"Estimated","latrines_total":1,"latrines_female":0,"latrines_male":0,"latrine_privacy":"No","drinking_source":"Tap water sourced from seasonal spring","potable_source":"Tap water sources","water_shortage":"Yes","storage_adequate":"No","soap_hygiene":"Partially","solid_waste":"No","priority_wash_gaps":"Hygiene kits, kitchen sets, drinking water, dignity kits","wash_top_priority":true,"assessment_date":"2026-09-03"},"geometry":{"type":"Point","coordinates":[85.0648677,27.8519596]}},{"type":"Feature","properties":{"district":"Kathmandu","district_pcode":"NP0327","municipality":"Kathmandu","ward":"2","site_name":"Mustang Monastery, Swoyambhu","site_id":"KTM-001","site_type":"Other","road_access":"Yes","access_constraints":"Air access only","households":70,"individuals":260,"verification":"Estimated","latrines_total":4,"latrines_female":2,"latrines_male":2,"latrine_privacy":"Yes","drinking_source":"Mineral water","potable_source":"Water tank","water_shortage":"Yes","storage_adequate":"Partially","soap_hygiene":"Yes","solid_waste":"Yes","priority_wash_gaps":"None","wash_top_priority":true,"assessment_date":"2026-09-04"},"geometry":{"type":"Point","coordinates":[85.2863299,27.7177886]}},{"type":"Feature","properties":{"district":"Kathmandu","district_pcode":"NP0327","municipality":"Kathmandu","ward":"5","site_name":"Gosok Phuntsok Choeling Monastery, Nagarjun","site_id":"KTM-RASUW001","site_type":"Other","road_access":"Yes","access_constraints":"Air access only","households":175,"individuals":520,"verification":"Estimated","latrines_total":8,"latrines_female":8,"latrines_male":8,"latrine_privacy":"Yes","drinking_source":"Mineral water","potable_source":"Tanker supply","water_shortage":"No","storage_adequate":"Yes","soap_hygiene":"Yes","solid_waste":"Yes","priority_wash_gaps":"Not any","wash_top_priority":false,"assessment_date":"2026-09-04"},"geometry":{"type":"Point","coordinates":[85.282926,27.7260729]}},{"type":"Feature","properties":{"district":"Nuwakot","district_pcode":"NP0328","municipality":"Bidur","ward":"2","site_name":"Kriyaputri Bhawan","site_id":null,"site_type":"Collective centre","road_access":"Yes","access_constraints":"None","households":33,"individuals":200,"verification":"Estimated","latrines_total":7,"latrines_female":2,"latrines_male":5,"latrine_privacy":"Yes","drinking_source":"Bottled water","potable_source":"Water trucking","water_shortage":"No","storage_adequate":"No","soap_hygiene":"Yes","solid_waste":"Yes","priority_wash_gaps":"Water tanks, septic tank capacity","wash_top_priority":true,"assessment_date":"2026-08-31"},"geometry":{"type":"Point","coordinates":[85.1458156,27.9111001]}},{"type":"Feature","properties":{"district":"Nuwakot","district_pcode":"NP0328","municipality":"Bidur","ward":"4","site_name":"Tamamg plaza","site_id":null,"site_type":"Collective centre","road_access":"Yes","access_constraints":"None","households":70,"individuals":136,"verification":"Estimated","latrines_total":10,"latrines_female":5,"latrines_male":5,"latrine_privacy":"Yes","drinking_source":"Bottled water","potable_source":"Water trucking","water_shortage":"No","storage_adequate":"Yes","soap_hygiene":"Yes","solid_waste":"Yes","priority_wash_gaps":"Drinking water","wash_top_priority":true,"assessment_date":"2026-08-31"},"geometry":{"type":"Point","coordinates":[85.1447563,27.9037841]}},{"type":"Feature","properties":{"district":"Nuwakot","district_pcode":"NP0328","municipality":"Bidur","ward":"2","site_name":"Battar covered holding center","site_id":null,"site_type":"Collective centre","road_access":"Yes","access_constraints":"None","households":60,"individuals":238,"verification":"Estimated","latrines_total":2,"latrines_female":0,"latrines_male":0,"latrine_privacy":"No","drinking_source":"Bottled water","potable_source":"Water trucking","water_shortage":"No","storage_adequate":"No","soap_hygiene":"Yes","solid_waste":"Yes","priority_wash_gaps":"Latrines, bathing facilities, septic tank","wash_top_priority":true,"assessment_date":"2026-08-31"},"geometry":{"type":"Point","coordinates":[85.149255,27.8994801]}},{"type":"Feature","properties":{"district":"Nuwakot","district_pcode":"NP0328","municipality":"Bidur","ward":"5","site_name":"Chandra Jyoti school","site_id":null,"site_type":"Collective centre","road_access":"Yes","access_constraints":"None","households":50,"individuals":200,"verification":"Estimated","latrines_total":4,"latrines_female":2,"latrines_male":2,"latrine_privacy":"Yes","drinking_source":"Bottled water","potable_source":"Water trucking","water_shortage":"No","storage_adequate":"Yes","soap_hygiene":"Yes","solid_waste":"Yes","priority_wash_gaps":"Latrines and bathing facilities","wash_top_priority":true,"assessment_date":"2026-08-31"},"geometry":{"type":"Point","coordinates":[85.1212802,27.8684337]}},{"type":"Feature","properties":{"district":"Nuwakot","district_pcode":"NP0328","municipality":"Bidur","ward":"2","site_name":"Community multipurpose center","site_id":null,"site_type":"Collective centre","road_access":"Yes","access_constraints":"None","households":33,"individuals":91,"verification":"Estimated","latrines_total":4,"latrines_female":0,"latrines_male":0,"latrine_privacy":"No","drinking_source":"Bottled water","potable_source":"Water trucking","water_shortage":"No","storage_adequate":"Yes","soap_hygiene":"Yes","solid_waste":"Yes","priority_wash_gaps":"Separation of latrines, site cleaning and hygiene","wash_top_priority":true,"assessment_date":"2026-08-31"},"geometry":{"type":"Point","coordinates":[85.1659848,27.9172128]}},{"type":"Feature","properties":{"district":"Nuwakot","district_pcode":"NP0328","municipality":"Bidur","ward":"5","site_name":"Auyurved and Alternative Hospital","site_id":null,"site_type":"Collective centre","road_access":"Yes","access_constraints":"None","households":30,"individuals":110,"verification":"Estimated","latrines_total":15,"latrines_female":9,"latrines_male":6,"latrine_privacy":"Yes","drinking_source":"Bottled water","potable_source":"Water trucking","water_shortage":"No","storage_adequate":"No","soap_hygiene":"Yes","solid_waste":"Yes","priority_wash_gaps":"Water tanks, septic tank capacity","wash_top_priority":true,"assessment_date":"2026-08-31"},"geometry":{"type":"Point","coordinates":[85.1189521,27.8667144]}},{"type":"Feature","properties":{"district":"Rasuwa","district_pcode":"NP0329","municipality":"Uttargaya","ward":"5","site_name":"Bhimsensthan primary school","site_id":"RAS-004","site_type":"Collective centre","road_access":"Yes","access_constraints":"None","households":20,"individuals":42,"verification":"Estimated","latrines_total":1,"latrines_female":0,"latrines_male":0,"latrine_privacy":"No","drinking_source":"Tap water sourced from seasonal spring","potable_source":"Tap water","water_shortage":"No","storage_adequate":"Yes","soap_hygiene":"Yes","solid_waste":"Partially","priority_wash_gaps":"Septic tank capacity, latrines, sex separation of latrines and bathing facilities","wash_top_priority":true,"assessment_date":"2026-09-04"},"geometry":{"type":"Point","coordinates":[85.1933874,27.9848927]}},{"type":"Feature","properties":{"district":"Rasuwa","district_pcode":"NP0329","municipality":"Uttargaya","ward":"5","site_name":"Nilkhhanta school hostel","site_id":"RAS-001","site_type":"Collective centre","road_access":"Yes","access_constraints":"No","households":60,"individuals":60,"verification":"Estimated","latrines_total":4,"latrines_female":2,"latrines_male":2,"latrine_privacy":"Yes","drinking_source":"Tap water sourced from seasonal spring","potable_source":"Tap water","water_shortage":"No","storage_adequate":"Yes","soap_hygiene":"Yes","solid_waste":"No","priority_wash_gaps":"Solid waste management solution","wash_top_priority":false,"assessment_date":"2026-09-03"},"geometry":{"type":"Point","coordinates":[85.1837428,27.9804733]}},{"type":"Feature","properties":{"district":"Rasuwa","district_pcode":"NP0329","municipality":"Uttargaya","ward":"5","site_name":"Shivalaya school","site_id":"RAS-002","site_type":"Collective centre","road_access":"Yes","access_constraints":"None","households":27,"individuals":125,"verification":"Verified","latrines_total":3,"latrines_female":1,"latrines_male":1,"latrine_privacy":"Partially","drinking_source":"Tap water sourced from seasonal spring","potable_source":"Tap water","water_shortage":"No","storage_adequate":"Yes","soap_hygiene":"Yes","solid_waste":"No","priority_wash_gaps":"Bathing facilities, Latrines,","wash_top_priority":true,"assessment_date":"2026-09-03"},"geometry":{"type":"Point","coordinates":[85.1916124,27.9836633]}},{"type":"Feature","properties":{"district":"Rasuwa","district_pcode":"NP0329","municipality":"Kalika","ward":"2","site_name":"Shree Kalika Himalaya Campus","site_id":"RAS-001","site_type":"Collective centre","road_access":"Yes","access_constraints":"No","households":5,"individuals":6,"verification":"Verified","latrines_total":6,"latrines_female":3,"latrines_male":3,"latrine_privacy":"Yes","drinking_source":"Tap water sourced from seasonal spring","potable_source":"Tap water","water_shortage":"No","storage_adequate":"Yes","soap_hygiene":"Yes","solid_waste":"Yes","priority_wash_gaps":"Water filter","wash_top_priority":false,"assessment_date":"2026-09-03"},"geometry":{"type":"Point","coordinates":[85.1837806,27.9803983]}},{"type":"Feature","properties":{"district":"Rasuwa","district_pcode":"NP0329","municipality":"Uttargaya","ward":"3","site_name":"Ganesh Primary School","site_id":"RUS-002","site_type":"Collective centre","road_access":"Unknown","access_constraints":"Unknown","households":10,"individuals":38,"verification":"Estimated","latrines_total":0,"latrines_female":0,"latrines_male":0,"latrine_privacy":"Unknown","drinking_source":"Unknown","potable_source":"Unknown","water_shortage":"Unknown","storage_adequate":"Unknown","soap_hygiene":"Unknown","solid_waste":"Unknown","priority_wash_gaps":"Unknown","wash_top_priority":false,"assessment_date":"2026-09-06"},"geometry":{"type":"Point","coordinates":[85.195353,28.062572]}},{"type":"Feature","properties":{"district":"Rasuwa","district_pcode":"NP0329","municipality":"Uttargaya","ward":"2","site_name":"Simle Basic School","site_id":"RUS-001","site_type":"Collective centre","road_access":"No","access_constraints":"Telephone survey","households":20,"individuals":121,"verification":"Estimated","latrines_total":0,"latrines_female":0,"latrines_male":0,"latrine_privacy":"Unknown","drinking_source":"Unknown","potable_source":"Unknown","water_shortage":"Unknown","storage_adequate":"Unknown","soap_hygiene":"Unknown","solid_waste":"Unknown","priority_wash_gaps":"Unknown","wash_top_priority":false,"assessment_date":"2026-09-05"},"geometry":{"type":"Point","coordinates":[85.189493,28.035578]}},{"type":"Feature","properties":{"district":"Nuwakot","district_pcode":"NP0328","municipality":"Bidur","ward":"1","site_name":"Indrayani Aadharbhoot Vidyalaya Pandey Gaun","site_id":"Nuwakot Bidur Ward 1","site_type":"Collective centre","road_access":"Yes","access_constraints":"Road Damange","households":13,"individuals":58,"verification":"Verified","latrines_total":2,"latrines_female":1,"latrines_male":1,"latrine_privacy":"Yes","drinking_source":"Tap water sourced from seasonal spring","potable_source":"Spring water","water_shortage":"No","storage_adequate":"Yes","soap_hygiene":"Yes","solid_waste":"No","priority_wash_gaps":"Bathroom facilities, water storage  as water tank is very small, no proper water taps. Toilets maintainace are required. Toilets are not enough.","wash_top_priority":true,"assessment_date":"2026-09-02"},"geometry":{"type":"Point","coordinates":[85.1551419,27.9234438]}},{"type":"Feature","properties":{"district":"Nuwakot","district_pcode":"NP0328","municipality":"Bidur","ward":"10","site_name":"Gerkhutar holding Center","site_id":"Bidur 10, Nuwakot","site_type":"Collective centre","road_access":"Yes","access_constraints":"Landslide risk, river crossing, road damage","households":41,"individuals":149,"verification":"Estimated","latrines_total":4,"latrines_female":2,"latrines_male":2,"latrine_privacy":"Yes","drinking_source":"Tap water sourced from seasonal spring","potable_source":"Spring water","water_shortage":"No","storage_adequate":"Yes","soap_hygiene":"Partially","solid_waste":"No","priority_wash_gaps":"Solid waste management, hygiene","wash_top_priority":true,"assessment_date":"2026-09-02"},"geometry":{"type":"Point","coordinates":[85.1609185,27.9369216]}},{"type":"Feature","properties":{"district":"Dhading","district_pcode":"NP0330","municipality":"Gajuri","ward":"5","site_name":"Mohan Tar","site_id":"Dhading-002","site_type":"Planned camp","road_access":"Yes","access_constraints":"Road just on the side of the Trisuli and thus debris is all round the road and cleaning is on going","households":6,"individuals":29,"verification":"Verified","latrines_total":2,"latrines_female":1,"latrines_male":1,"latrine_privacy":"Yes","drinking_source":"Tap water sourced from seasonal spring","potable_source":"Spring water","water_shortage":"Yes","storage_adequate":"No","soap_hygiene":"Yes","solid_waste":"Partially","priority_wash_gaps":"Bathroom, enough latrines with proper locks and lights","wash_top_priority":true,"assessment_date":"2026-09-04"},"geometry":{"type":"Point","coordinates":[84.8928708,27.8054723]}},{"type":"Feature","properties":{"district":"Dhading","district_pcode":"NP0330","municipality":"Gajuri","ward":"1","site_name":"Chalise","site_id":"Dhading-3","site_type":"Self-settled site","road_access":"Yes","access_constraints":"No road Damage","households":10,"individuals":37,"verification":"Estimated","latrines_total":0,"latrines_female":0,"latrines_male":0,"latrine_privacy":"No","drinking_source":"Tap water sourced from seasonal spring","potable_source":"Spring water","water_shortage":"No","storage_adequate":"No","soap_hygiene":"Partially","solid_waste":"No","priority_wash_gaps":"No waste management in place\nNeed of temp latrine for male female \nWater treatment and storage","wash_top_priority":false,"assessment_date":"2026-09-04"},"geometry":{"type":"Point","coordinates":[84.869754,27.8008028]}},{"type":"Feature","properties":{"district":"Dhading","district_pcode":"NP0330","municipality":"Gajuri","ward":"5","site_name":"Forest Office","site_id":"Dhading, Gajuri Galaudi, ward 5","site_type":"Collective centre","road_access":"Yes","access_constraints":"Road damage,landslide risk, river crossing","households":40,"individuals":115,"verification":"Estimated","latrines_total":2,"latrines_female":0,"latrines_male":0,"latrine_privacy":"No","drinking_source":"Mineral Bottles, Tap water sourced from seasonal spring","potable_source":"No, local source","water_shortage":"Yes","storage_adequate":"No","soap_hygiene":"No","solid_waste":"No","priority_wash_gaps":"No proper hygienic stuff","wash_top_priority":false,"assessment_date":"2026-09-04"},"geometry":{"type":"Point","coordinates":[84.8939929,27.8053666]}},{"type":"Feature","properties":{"district":"Dhading","district_pcode":"NP0330","municipality":"Gajuri","ward":"6","site_name":"Jarekhet","site_id":"Dhading-5","site_type":"Planned camp","road_access":"Yes","access_constraints":"No such damage","households":5,"individuals":19,"verification":"Verified","latrines_total":1,"latrines_female":0,"latrines_male":0,"latrine_privacy":"No","drinking_source":"Tap water sourced from seasonal spring","potable_source":"Spring water","water_shortage":"No","storage_adequate":"No","soap_hygiene":"Partially","solid_waste":"Partially","priority_wash_gaps":"Waste management not in place, need of adequate and equality hygiene kit, water quality not good. Date expire soups and shampoo are found","wash_top_priority":false,"assessment_date":"2026-09-05"},"geometry":{"type":"Point","coordinates":[84.930065,27.7997879]}},{"type":"Feature","properties":{"district":"Dhading","district_pcode":"NP0330","municipality":"Galchhi","ward":"4","site_name":"Dhading Multiple Campus","site_id":"Dhading 1","site_type":"Collective centre","road_access":"Yes","access_constraints":"No such risks","households":68,"individuals":123,"verification":"Verified","latrines_total":2,"latrines_female":1,"latrines_male":1,"latrine_privacy":"Yes","drinking_source":"Tap water sourced from seasonal spring","potable_source":"Spring water","water_shortage":"Yes not enough water","storage_adequate":"No","soap_hygiene":"Yes","solid_waste":"No","priority_wash_gaps":"Waste management,  latrine, bath rooms, drinking water system management","wash_top_priority":true,"assessment_date":"2026-09-04"},"geometry":{"type":"Point","coordinates":[84.9572088,27.812602]}},{"type":"Feature","properties":{"district":"Dhading","district_pcode":"NP0330","municipality":"Gajuri","ward":"2","site_name":"Bihani Fuel Pump","site_id":"Dhading, Gajuri 2, Bihani Bazar","site_type":"Collective centre","road_access":"Partially","access_constraints":"Road Damage, landslide risk","households":23,"individuals":92,"verification":"Estimated","latrines_total":0,"latrines_female":0,"latrines_male":0,"latrine_privacy":"No","drinking_source":"Tap water sourced from seasonal spring","potable_source":"Spring water","water_shortage":"Partially","storage_adequate":"No","soap_hygiene":"Yes","solid_waste":"Partially","priority_wash_gaps":"Not enough sanitation and hygienic kit","wash_top_priority":false,"assessment_date":"2026-09-05"},"geometry":{"type":"Point","coordinates":[84.8502685,27.8076638]}},{"type":"Feature","properties":{"district":"Nuwakot","district_pcode":"NP0328","municipality":"Belkotgadhi","ward":"8","site_name":"Janasewa School","site_id":"Nuwkot 5","site_type":"Collective centre","road_access":"No","access_constraints":"Landslide and debris has closed the road","households":11,"individuals":32,"verification":"Estimated","latrines_total":6,"latrines_female":3,"latrines_male":3,"latrine_privacy":"Yes","drinking_source":"Tap water sourced from seasonal spring","potable_source":"Spring water","water_shortage":"Yes for drinking water due to not having water tank to store and safe due to not having filter system","storage_adequate":"No","soap_hygiene":"Partially","solid_waste":"Partially","priority_wash_gaps":"Need to water schemes management by tank construction and filter set up","wash_top_priority":true,"assessment_date":"2026-09-05"},"geometry":{"type":"Point","coordinates":[85.1050364,27.8551499]}}]}