{"type":"FeatureCollection","features":[{"type":"Feature","properties":{"OBJECTID":11454,"currstatus":null,"CURR_PHYS":1.0,"currsource":"-"},"geometry":{"type":"MultiLineString","coordinates":[[[85.31418725977697,27.734927655007898],[85.301791,27.736665999999992],[85.27022799999999,27.758508],[85.268429,27.772045000000002],[85.278154,27.776775999999995],[85.273327,27.781762999999998],[85.27849799999998,27.793193000000002],[85.265274,27.790822999999996],[85.274831,27.805787],[85.24939799999999,27.812270000000005],[85.24080899999998,27.832275999999993],[85.23165,27.818969],[85.223909,27.821099000000004],[85.21402899999998,27.812300999999998],[85.20957,27.829561000000005],[85.201818,27.831389000000005],[85.19483599999998,27.844675999999996],[85.19135199999998,27.832039000000005],[85.182013,27.837146999999998],[85.17837499999999,27.827976000000003],[85.168942,27.828722000000006],[85.172652,27.835496999999993],[85.16534699999998,27.843670000000003],[85.156314,27.829957],[85.152949,27.84068],[85.149165,27.838336],[85.15549899999999,27.863358],[85.14757899999998,27.867577999999998],[85.122812,27.860101000000007],[85.15028248415298,27.8923848942054]],[[85.33349499999998,27.750066000000004],[85.32428837401268,27.7463920782594]]]}},{"type":"Feature","properties":{"OBJECTID":11455,"currstatus":"Available alternative route","CURR_PHYS":1.0,"currsource":null},"geometry":{"type":"MultiLineString","coordinates":[[[85.03207199999999,27.428548999999997],[85.04886899999998,27.490495999999993],[85.04337599999998,27.501924000000002],[85.04888799999999,27.508511999999996],[85.069759,27.504152999999995],[85.08777099999999,27.527644999999993],[85.131708,27.545629],[85.12193299999998,27.550593999999997],[85.130529,27.560381000000007],[85.13825599999998,27.55884800000001],[85.148246,27.575571999999998],[85.156234,27.575308999999997],[85.154271,27.584381999999998]],[[85.154271,27.584381999999998],[85.167633,27.576258999999997],[85.181715,27.579653000000004],[85.19994,27.574086000000005],[85.210272,27.556683999999997],[85.226248,27.559676999999997],[85.235077,27.563884999999996],[85.23239199999999,27.568372999999998],[85.259204,27.578346],[85.25445299999998,27.584678],[85.26631499999999,27.601947000000003],[85.264708,27.613051999999996]],[[85.154271,27.584381999999998],[85.15094599999999,27.594088]],[[85.26372499999998,27.612860999999988],[85.264708,27.613051999999996]],[[85.264708,27.613051999999996],[85.26541299999998,27.62299700000001],[85.27534499999999,27.618218000000002],[85.288207,27.626827],[85.27922,27.633678999999997],[85.27714699999999,27.648411999999993],[85.30578799999999,27.661402000000002],[85.318666,27.683230000000002],[85.320565,27.70167]]]}},{"type":"Feature","properties":{"OBJECTID":11457,"currstatus":"Trishuli-Mailung-Syabrubesi road completely blocked at Khalte. (River erosion)","CURR_PHYS":4.0,"currsource":null},"geometry":{"type":"MultiLineString","coordinates":[[[85.139298,27.92353],[85.1464421369745,27.92003535620219]],[[85.1836377121689,27.9755352883887],[85.17982100000002,28.014301],[85.20737199999999,28.054529999999993],[85.20581,28.064835]],[[85.20581,28.064835],[85.233084,28.089248],[85.264667,28.097250000000003],[85.33731,28.163989]],[[85.20581,28.064835],[85.20709,28.071683]]]}},{"type":"Feature","properties":{"OBJECTID":11459,"currstatus":"Tokha - Chhahare road section: Night-time movement of all public and private vehicles, (except those providing essential services) has been prohibited from 2200 hrs to 0500 hrs","CURR_PHYS":3.0,"currsource":"UNDSS"},"geometry":{"type":"LineString","coordinates":[[85.2811247282719,27.867723681535693],[85.287866,27.869315]]}},{"type":"Feature","properties":{"OBJECTID":11460,"currstatus":null,"CURR_PHYS":3.0,"currsource":"WFP"},"geometry":{"type":"LineString","coordinates":[[85.14433389447328,27.911441623116403],[85.152527,27.915279],[85.16298999999998,27.910226999999992],[85.16598499999999,27.918731000000008],[85.19326799999999,27.934382],[85.226793,27.937794000000103],[85.23575299999999,27.943998],[85.229206,27.949674000000005],[85.23687800000002,27.956640999999998],[85.278997,27.953995999999997],[85.289746,27.97027299999999]]}},{"type":"Feature","properties":{"OBJECTID":11462,"currstatus":null,"CURR_PHYS":3.0,"currsource":"WFP"},"geometry":{"type":"MultiLineString","coordinates":[[[85.32226099999998,27.70562],[85.32282924499998,27.705714050000005]],[[85.327491,27.784406999999995],[85.32741381500009,27.784863940000008]],[[85.29275581599998,27.854094544000002],[85.28534799999998,27.866131000000003],[85.232669,27.89492199999999],[85.207681,27.897723],[85.191379,27.907331000000006],[85.14915300000001,27.892738999999995],[85.141484,27.915936999999996],[85.148343233935,27.9202393233935]],[[85.157412632565,27.9331323592477],[85.159287,27.934416000000006]],[[85.1839454256411,27.975759476928598],[85.183729,27.983864999999994],[85.18735899999999,27.978554999999997],[85.194281,27.9821020000001],[85.191079,27.987341999999998],[85.209894,27.985374999999994],[85.19790999999998,27.990123999999994],[85.197849,27.995459999999994],[85.20112599999999,27.99089],[85.19957,27.996621000000005],[85.20317899999999,27.992590999999997],[85.213155,28.002055999999996],[85.20808999999998,28.013147],[85.2173310000001,28.007968],[85.211379,28.01622],[85.222474,28.023121],[85.217611,28.033664999999996],[85.22941899999998,28.053016999999997],[85.223601,28.066136000000004],[85.27476599999999,28.087048999999997],[85.286892,28.107208999999997],[85.298492,28.113083999999997]]]}},{"type":"Feature","properties":{"OBJECTID":11465,"currstatus":"The Tokha–Chhahare Road is closed to all public and private vehicles, except essential services, from 2200hrs to 0500hrs.","CURR_PHYS":3.0,"currsource":"UNDSS"},"geometry":{"type":"MultiLineString","coordinates":[[[85.32191899999998,27.753007],[85.32536917405518,27.751437014668095]],[[85.3293010878443,27.76957189668961],[85.3292780526782,27.770337445382307]],[[85.3290865207821,27.800515551297007],[85.31830599999999,27.801651],[85.315293,27.809900999999996],[85.324918,27.817534000000002],[85.313311,27.817640000000008],[85.324839,27.835027],[85.320925,27.830412],[85.31550799999998,27.842317000000005],[85.3049350000001,27.837726000000004],[85.30468199999999,27.8461390000001],[85.29780899999999,27.844261999999997],[85.293455,27.854557999999997]]]}},{"type":"Feature","properties":{"OBJECTID":11466,"currstatus":null,"CURR_PHYS":1.0,"currsource":"wfp"},"geometry":{"type":"MultiLineString","coordinates":[[[85.3228388859717,27.705984272855016],[85.3218187993536,27.7079892001033]],[[85.3218187993536,27.7079892001033],[85.32291482932797,27.705987474840793]],[[85.3218187993536,27.7079892001033],[85.3207718290274,27.7079708136212]],[[85.3218187993536,27.7079892001033],[85.32207789953267,27.7096378003679]],[[85.32207789953267,27.7096378003679],[85.3221256000743,27.710278699955698]],[[85.32061041651568,27.709864259279],[85.32207789953267,27.7096378003679]],[[85.3221256000743,27.710278699955698],[85.3236186513257,27.710190073007805]],[[85.3221256000743,27.710278699955698],[85.32214870025177,27.712101900067385]],[[85.32324669441087,27.71262858573789],[85.32214870025177,27.712101900067385]],[[85.3219450997876,27.7136702001485],[85.32214870025177,27.712101900067385]],[[85.3178641001643,27.7130268996927],[85.3178274266109,27.71282649571639]],[[85.31773047710881,27.71283406891461],[85.3177677998675,27.713032300355298]],[[85.31813779976339,27.713260199960704],[85.3178641001643,27.7130268996927]],[[85.3178923997907,27.713211800063398],[85.3178641001643,27.7130268996927]],[[85.3177677998675,27.713032300355298],[85.3178133004349,27.7132137993629]],[[85.3177677998675,27.713032300355298],[85.31751640004697,27.713275799896802]],[[85.3178923997907,27.713211800063398],[85.31813779976339,27.713260199960704]],[[85.3178133004349,27.7132137993629],[85.3178923997907,27.713211800063398]],[[85.31751640004697,27.713275799896802],[85.3178133004349,27.7132137993629]],[[85.31813779976339,27.713260199960704],[85.3219450997876,27.7136702001485]],[[85.31541599967389,27.713682599888102],[85.31751640004697,27.713275799896802]],[[85.3153352374615,27.7133171406701],[85.31541599967389,27.713682599888102]],[[85.3219450997876,27.7136702001485],[85.3223573007389,27.713671400200305],[85.32268778676172,27.713667651289896]],[[85.316043299525,27.716847000429595],[85.31541599967389,27.713682599888102]],[[85.31512396367458,27.71370560238909],[85.31541599967389,27.713682599888102]],[[85.3161213999541,27.7170911992161],[85.316043299525,27.716847000429595]],[[85.316043299525,27.716847000429595],[85.3157625993549,27.717038599774487]],[[85.3157625993549,27.717038599774487],[85.3161213999541,27.7170911992161]],[[85.3147562993871,27.7173248001371],[85.3157625993549,27.717038599774487]],[[85.31654203762326,27.717552169053498],[85.3161213999541,27.7170911992161]],[[85.3147562993871,27.7173248001371],[85.31489839939029,27.7178413001363]],[[85.3120749001292,27.71813140058819],[85.3147562993871,27.7173248001371]],[[85.31489839939029,27.7178413001363],[85.3151333771358,27.718425079783902]],[[85.31247350058709,27.719188100068],[85.31489839939029,27.7178413001363]],[[85.3120749001292,27.71813140058819],[85.31247350058709,27.719188100068]],[[85.3118479624855,27.7181589929036],[85.3120749001292,27.71813140058819]],[[85.3145760003231,27.7281463996729],[85.31247350058709,27.719188100068]],[[85.3145760003231,27.7281463996729],[85.31538156421337,27.7285580919113]],[[85.3144904995727,27.734930200323404],[85.3145760003231,27.7281463996729]],[[85.3175727422715,27.7335111885426],[85.31769950005808,27.73507319959129]],[[85.3131943472471,27.734866011778294],[85.3144904995727,27.734930200323404]],[[85.3144904995727,27.734930200323404],[85.31769950005808,27.73507319959129]],[[85.31769950005808,27.73507319959129],[85.3180816999739,27.735090000197903]],[[85.3180816999739,27.735090000197903],[85.3184795997458,27.7351292999317]],[[85.3180816999739,27.735090000197903],[85.3182744002804,27.7354024003685]],[[85.3184795997458,27.7351292999317],[85.3195067370804,27.735224043311412]],[[85.3182744002804,27.7354024003685],[85.3184795997458,27.7351292999317]],[[85.3182744002804,27.7354024003685],[85.3239660001564,27.746397200452705]],[[85.3239660001564,27.746397200452705],[85.3218945598417,27.746656688176994]],[[85.32499465877257,27.746493510916697],[85.3239660001564,27.746397200452705]],[[85.3239660001564,27.746397200452705],[85.3305746999875,27.762772099897003]],[[85.3257150999647,27.7533331000265],[85.32554571993339,27.754286333319]],[[85.32896969983227,27.762465299650696],[85.3262145145666,27.75890502885621]],[[85.32896969983227,27.762465299650696],[85.3302739000129,27.764496599310007]],[[85.32859674634379,27.7626628345797],[85.32896969983227,27.762465299650696]],[[85.33132873028029,27.762611413113007],[85.3305746999875,27.762772099897003]],[[85.3305746999875,27.762772099897003],[85.3302739000129,27.764496599310007]],[[85.3302739000129,27.764496599310007],[85.33051440057397,27.766446999756397]],[[85.33051440057397,27.766446999756397],[85.32946813396399,27.7662149755426]],[[85.33051440057397,27.766446999756397],[85.3302330994311,27.768762499526492]],[[85.3310308521702,27.770019870255503],[85.3302330994311,27.768762499526492]],[[85.3302330994311,27.768762499526492],[85.32950902628669,27.76937484006]],[[85.32935875685577,27.770598067518105],[85.3248346000693,27.781507300783392],[85.32951600039087,27.797224300143302]],[[85.3264973871105,27.7971123083619],[85.32951600039087,27.797224300143302]],[[85.32951600039087,27.797224300143302],[85.3299466949605,27.800603315810907]],[[85.32937586791067,27.800432287543792],[85.32972567155008,27.800537093944495]]]}},{"type":"Feature","properties":{"OBJECTID":11467,"currstatus":null,"CURR_PHYS":3.0,"currsource":"WFP"},"geometry":{"type":"LineString","coordinates":[[85.32312620423168,28.1480016566705],[85.3157849000318,28.130898800209],[85.30580219985877,28.126553100375908],[85.3121550999212,28.107416999764002],[85.2999723538838,28.112068680429495]]}},{"type":"Feature","properties":{"OBJECTID":11468,"currstatus":null,"CURR_PHYS":4.0,"currsource":"WFP"},"geometry":{"type":"MultiLineString","coordinates":[[[84.664709,27.825419000000004],[84.669074,27.817096000000003],[84.73108900000011,27.794743000000008],[84.762214,27.813836],[84.77237,27.80612899999999],[84.80789299999999,27.816285999999995],[84.820502,27.806904999999997],[84.82968899999999,27.813705999999996],[84.844273105,27.80173811]],[[84.883209692,27.80483441],[84.91216999999999,27.80390699999999],[84.92470299999998,27.796913999999997],[84.955859,27.815761],[84.972659,27.800514],[84.9911022148134,27.8046951739252]],[[85.0013213831124,27.802985628053207],[85.00132299999999,27.80283]],[[84.99158981554717,27.805048003961492],[84.99764499999999,27.810495999999997],[85.0012895396557,27.803541931294195]]]}},{"type":"Feature","properties":{"OBJECTID":11469,"currstatus":null,"CURR_PHYS":4.0,"currsource":"wfp"},"geometry":{"type":"MultiLineString","coordinates":[[[85.0454232027769,27.850663083974098],[85.02281079999999,27.843617100000007],[85.016197701,27.809753599999993],[85.004482286,27.802188292999993]],[[85.0200349,27.832374600000005],[85.019823,27.832739060999998]]]}},{"type":"Feature","properties":{"OBJECTID":11470,"currstatus":null,"CURR_PHYS":4.0,"currsource":"WFP"},"geometry":{"type":"MultiLineString","coordinates":[[[85.33872804072168,28.164501846536005],[85.3617175005456,28.2238288000546],[85.35909699987738,28.2428614002654],[85.3736501238636,28.2642310551218]],[[85.33783968685067,28.1673407254773],[85.33813039993889,28.1692628477832]]]}},{"type":"Feature","properties":{"OBJECTID":11471,"currstatus":"Out of 10 km, 9.1 km is clear. The remaining 0.9 km was completely washed away, of which 0.5 km requires cutting\nthrough hard rock to construct the road (work in progress).","CURR_PHYS":3.0,"currsource":"NDRRMA"},"geometry":{"type":"MultiLineString","coordinates":[[[85.1486452922815,27.9202717691233],[85.16535710000618,27.9556107999116],[85.18444469989429,27.969636900376702],[85.18394184302278,27.975488950618203]],[[85.148185466384,27.921846174387095],[85.1484530396237,27.920930028870195]]]}},{"type":"Feature","properties":{"OBJECTID":11472,"currstatus":null,"CURR_PHYS":1.0,"currsource":"NDRRMA"},"geometry":{"type":"LineString","coordinates":[[84.53629199999999,27.900839000000005],[84.557035,27.924458999999988],[84.552996,27.941023999999995],[84.56897863287459,27.975437802938004]]}},{"type":"Feature","properties":{"OBJECTID":11473,"currstatus":"Route 1: Anbu Khaireni – 12 Kilo – Masanethanti – Khahare – Nibel – Gyampeshal – Arughat – Salyantar – Dhadhingbesi – Parewatar – Gajuritar – Mastar – Kathmandu.","CURR_PHYS":1.0,"currsource":"NDRRMA"},"geometry":{"type":"LineString","coordinates":[[84.568799,27.975655999999997],[84.56992,28.005308],[84.595317,28.035580000000003],[84.64429,28.050619000000005],[84.64942,28.057705999999996],[84.65344199999998,28.052268000000005]]}},{"type":"Feature","properties":{"OBJECTID":11474,"currstatus":"Alternative route","CURR_PHYS":1.0,"currsource":"NDRRMA"},"geometry":{"type":"MultiLineString","coordinates":[[[84.69127400313727,28.047918947116507],[84.7209119363645,28.0452670324456]],[[84.6542761681389,28.051864873524405],[84.65410746713027,28.0477173564582],[84.65636091527497,28.0458455305416],[84.65775275329818,28.055262813721807],[84.69065886073058,28.048073044354]]]}},{"type":"Feature","properties":{"OBJECTID":11475,"currstatus":null,"CURR_PHYS":1.0,"currsource":"NDRRMA"},"geometry":{"type":"LineString","coordinates":[[84.72386399999999,28.043774000000003],[84.73139599999999,28.038328999999994],[84.74532899999998,28.042202999999994],[84.766383,28.035850999999997],[84.794209,28.037708000000002],[84.80379799999999,28.028202000000007],[84.8135,28.047504999999997]]}},{"type":"Feature","properties":{"OBJECTID":11476,"currstatus":null,"CURR_PHYS":1.0,"currsource":"NDRRMA"},"geometry":{"type":"LineString","coordinates":[[85.1273904207451,27.8659691985307],[85.1189907003469,27.867862500154192],[85.109084259838,27.858518615468803]]}},{"type":"Feature","properties":{"OBJECTID":11477,"currstatus":null,"CURR_PHYS":1.0,"currsource":"NDRRMA"},"geometry":{"type":"LineString","coordinates":[[84.819917,28.008858999999998],[84.818673,27.996285000000007],[84.831474,27.994647],[84.82345199999999,27.984127],[84.86238199999998,27.953784999999996],[84.855365,27.944242],[84.86385799999998,27.9313770000001],[84.857137,27.920023],[84.86699,27.911607],[84.8835507672749,27.910199426677206]]}},{"type":"Feature","properties":{"OBJECTID":11478,"currstatus":null,"CURR_PHYS":1.0,"currsource":"NDRRMA"},"geometry":{"type":"LineString","coordinates":[[84.891622,27.911224000000008],[84.885563,27.912147000000004],[84.86839499999999,27.890081000000002],[84.87475799999999,27.88035],[84.856299,27.851871],[84.847299,27.847890000000007],[84.84524041320978,27.8218552407384]]}},{"type":"Feature","properties":{"OBJECTID":11479,"currstatus":null,"CURR_PHYS":4.0,"currsource":"WFP"},"geometry":{"type":"MultiLineString","coordinates":[[[84.861409874,27.804044396999995],[84.882864,27.804675000000003]],[[84.84604400400002,27.802353556000003],[84.84605048899999,27.802357010999998]],[[84.84784299399999,27.803468506999998],[84.84846983399999,27.803854665000006]],[[84.851266,27.822883],[84.84439756520338,27.81891749094479]]]}},{"type":"Feature","properties":{"OBJECTID":11480,"currstatus":null,"CURR_PHYS":4.0,"currsource":"NDRRMA"},"geometry":{"type":"MultiLineString","coordinates":[[[84.844423905,27.801785851000005],[84.844567199,27.801831600000003]],[[84.844567199,27.801831600000003],[84.84578223599999,27.802215646]],[[84.844567199,27.801831600000003],[84.84223899291837,27.80295431376511]],[[84.8462795410001,27.802534725999998],[84.8475646000001,27.80335924]],[[84.84238751753627,27.8031521775835],[84.84350512463752,27.803483106278392]],[[84.848662798,27.804063855],[84.861221953,27.8042569260001]]]}},{"type":"Feature","properties":{"OBJECTID":11481,"currstatus":null,"CURR_PHYS":1.0,"currsource":"NDRRMA"},"geometry":{"type":"MultiLineString","coordinates":[[[85.23408276213577,27.681573661726592],[85.2397165005121,27.686272300354798]],[[85.242148000136,27.687751000525292],[85.2621101997846,27.686081099602497],[85.26997020070418,27.6880428999524]],[[85.26997020070418,27.6880428999524],[85.26942658086497,27.686088411814705]],[[85.2397165005121,27.686272300354798],[85.24207340044148,27.6877552005112]],[[85.2397165005121,27.686272300354798],[85.2388556997725,27.6880448002818]],[[85.242148000136,27.687751000525292],[85.24452300022008,27.69222060008141]],[[85.24207340044148,27.6877552005112],[85.242148000136,27.687751000525292]],[[85.2388556997725,27.6880448002818],[85.24207340044148,27.6877552005112]],[[85.26997020070418,27.6880428999524],[85.27230560035557,27.6897899998805]],[[85.2263881993365,27.6893382002608],[85.2388556997725,27.6880448002818]],[[85.2263881993365,27.6893382002608],[85.2215617004353,27.6904489999671]],[[85.22164120043958,27.690522800143796],[85.2263881993365,27.6893382002608]],[[85.2743321996366,27.690679900175105],[85.27230560035557,27.6897899998805]],[[85.27230560035557,27.6897899998805],[85.27364250011098,27.690417200172984],[85.2743321996366,27.690679900175105]],[[85.262622400295,27.68989660032131],[85.25914729995769,27.692790400402995]],[[85.22164120043958,27.690522800143796],[85.2215617004353,27.6904489999671]],[[85.2215617004353,27.6904489999671],[85.22105150047298,27.691419100024394]],[[85.22105150047298,27.691419100024394],[85.22164120043958,27.690522800143796]],[[85.2743321996366,27.690679900175105],[85.27717332555108,27.692088844068397]],[[85.21941860044177,27.693518900426408],[85.21586977292579,27.6906950746235]],[[85.21941860044177,27.693518900426408],[85.22105150047298,27.691419100024394]],[[85.25914729995769,27.692790400402995],[85.2519790997233,27.6940762999589]],[[85.24452300022008,27.69222060008141],[85.2476776005286,27.694463400205997]],[[85.24452300022008,27.69222060008141],[85.24379867160009,27.694796410996]],[[85.25914729995769,27.692790400402995],[85.2594414002969,27.693076300078083]],[[85.21557989980668,27.696237800167694],[85.21941860044177,27.693518900426408]],[[85.2780558000326,27.6950219005201],[85.25410709993528,27.694983399229308]],[[85.2476776005286,27.694463400205997],[85.2519790997233,27.6940762999589]],[[85.2519790997233,27.6940762999589],[85.25410709993528,27.694983399229308]],[[85.2476776005286,27.694463400205997],[85.2480249432105,27.694986685981604]],[[85.25410709993528,27.694983399229308],[85.25297160759938,27.695209394032897]],[[85.2788572276061,27.69546845836911],[85.2780558000326,27.6950219005201]],[[85.27721309355498,27.696300784346697],[85.2780558000326,27.6950219005201]],[[85.2068637002168,27.705112100807302],[85.21557989980668,27.696237800167694]],[[85.21557989980668,27.696237800167694],[85.2057444999841,27.700670699631402],[85.2068637002168,27.705112100807302]],[[85.2261276074628,27.700213682931484],[85.2262383001879,27.70017518042509]],[[85.2254569285097,27.700446966451402],[85.22585455324,27.7003086599548]],[[85.22008025333838,27.702317127450396],[85.2238810870371,27.70099509238799]],[[85.2144640466748,27.705301491418307],[85.20570910007368,27.7065661001812]],[[85.20570910007368,27.7065661001812],[85.2068637002168,27.705112100807302]],[[85.18076699981597,27.71137839995511],[85.1852662999515,27.714296899768293],[85.2009800998218,27.70674649968999],[85.1977608998646,27.716531500507106],[85.20570910007368,27.7065661001812]],[[85.15140259941579,27.715394699960903],[85.16535569953268,27.7208596995255],[85.18076699981597,27.71137839995511]],[[85.1773091004198,27.7127464998826],[85.18076699981597,27.71137839995511]],[[85.1773091004198,27.7127464998826],[85.1754703999502,27.713340699933]],[[85.17610929974657,27.713470899907605],[85.1773091004198,27.7127464998826]],[[85.15140259941579,27.715394699960903],[85.14613111989857,27.716800479982705]],[[85.1349618998855,27.7342721996336],[85.15140259941579,27.715394699960903]],[[85.1455023163538,27.717364553294203],[85.1451318765943,27.7176968579143]],[[85.144047884444,27.7186692520365],[85.14404480797599,27.71867201176689]],[[85.142655379669,27.719918384390002],[85.1425393803855,27.7200224397307]],[[85.1404276034182,27.734819535183295],[85.1349618998855,27.7342721996336]],[[85.0453943000973,27.7631965002588],[85.04663549963038,27.74929890003011],[85.06307639948508,27.75347859997011],[85.084280500251,27.745014700211204],[85.11513070065638,27.7439831995257],[85.1349618998855,27.7342721996336]],[[85.0305161295997,27.7635436188772],[85.0453943000973,27.7631965002588]],[[85.00632796870768,27.796399797604803],[85.0136959993338,27.780841099741693],[85.0453943000973,27.7631965002588]],[[85.0297043264192,27.763957579841193],[85.03016102739339,27.7637246955377]]]}},{"type":"Feature","properties":{"OBJECTID":11482,"currstatus":"https://english.ratopati.com/story/77262/how-was-the-galchhi-bridge-saved-when-35-bridges-were-washed-away-in-trishuli","CURR_PHYS":1.0,"currsource":"media"},"geometry":{"type":"MultiLineString","coordinates":[[[85.00017860801599,27.7957760539693],[85.0002524002899,27.795821599979206]],[[85.0002524002899,27.795821599979206],[85.0061052481028,27.796619658508696]],[[85.00169906255799,27.800558297031703],[85.0002524002899,27.795821599979206]]]}},{"type":"Feature","properties":{"OBJECTID":11483,"currstatus":null,"CURR_PHYS":1.0,"currsource":"WFP"},"geometry":{"type":"MultiLineString","coordinates":[[[84.8420505098589,27.803173034885212],[84.84208622103358,27.803187951698796]],[[84.8434033497436,27.803738124371105],[84.842889800307,27.8041853002243]],[[84.84292466448889,27.804154941193296],[84.842889800307,27.8041853002243]],[[84.842889800307,27.8041853002243],[84.84516320292927,27.821593680487393]]]}},{"type":"Feature","properties":{"OBJECTID":11484,"currstatus":null,"CURR_PHYS":3.0,"currsource":"WFP"},"geometry":{"type":"MultiLineString","coordinates":[[[85.0039137627976,27.801772472363094],[85.00262053620678,27.800912002470188]],[[84.89905831810599,27.8113943022607],[84.91431847953778,27.8103680742534],[84.9248983347959,27.801114197949303],[84.93744266322557,27.806379407891303]],[[84.93889623598267,27.807352386394996],[84.9422823318498,27.817568855205103],[84.95846675370767,27.819064609316204],[84.9719963844064,27.816942719810804],[84.976185059693,27.803114633906205],[84.99002933340468,27.806419618624904],[85.00359828875327,27.801583869258387]],[[84.8438702952728,27.803979332960502],[84.8579028217293,27.809553735516005]],[[84.8579256766668,27.809557429438104],[84.86943776310258,27.805338165468697]],[[84.86944299309418,27.805379803753095],[84.899094070156,27.81136629598419]],[[84.9376598192855,27.8065247662726],[84.93794171111017,27.8067134567303]]]}},{"type":"Feature","properties":{"OBJECTID":11489,"currstatus":"Unpaved road","CURR_PHYS":3.0,"currsource":"WFP"},"geometry":{"type":"MultiLineString","coordinates":[[[85.0189845156093,27.832953250521395],[85.0063482007213,27.839434600593805]],[[85.0063482007213,27.839434600593805],[85.0060451475231,27.8410354139023]],[[85.0063482007213,27.839434600593805],[84.9750806381732,27.848714088746203]],[[84.96969636669897,27.8488958957729],[84.97416817120022,27.8472535653447]],[[84.9503853458381,27.8547123618753],[84.9482256163123,27.8490418897335],[84.96969669188907,27.8487762008802]],[[84.9503853458381,27.8547123618753],[84.9503961858889,27.8547062604389]],[[84.9503165961527,27.8547510583571],[84.95040328078298,27.854719919643795],[84.9503853458381,27.8547123618753]],[[84.9503165961527,27.8547510583571],[84.9503853458381,27.8547123618753]],[[84.94973466823147,27.855078602594002],[84.9503165961527,27.8547510583571]],[[84.94973466823147,27.855078602594002],[84.94980705186099,27.8549340960371],[84.9503165961527,27.8547510583571]],[[84.94966584759308,27.855215996001704],[84.94973466823147,27.855078602594002]],[[84.94966584759308,27.855215996001704],[84.9497182794463,27.8550878271937],[84.94973466823147,27.855078602594002]],[[84.9492937448412,27.856076004016803],[84.94966584759308,27.855215996001704]],[[84.9492937448412,27.856076004016803],[84.94950760834249,27.855531904577298],[84.94966584759308,27.855215996001704]],[[84.94902531565349,27.8564222922393],[84.94923497773858,27.856225515959597],[84.9492937448412,27.856076004016803]],[[84.94902531565349,27.8564222922393],[84.9492937448412,27.856076004016803]],[[84.94611666217861,27.857507238140798],[84.94708839856989,27.856422758205497],[84.9482891431086,27.8565588719805]],[[84.94611666217861,27.857507238140798],[84.9482891431086,27.8565588719805]],[[84.9488896866796,27.856549585473505],[84.94892915348659,27.856546346654294],[84.94902531565349,27.8564222922393]],[[84.9488896866796,27.856549585473505],[84.94902531565349,27.8564222922393]],[[84.94852084813158,27.856579853981508],[84.9488278181327,27.856607651587304],[84.9488896866796,27.856549585473505]],[[84.94852084813158,27.856579853981508],[84.9488896866796,27.856549585473505]],[[84.9482891431086,27.8565588719805],[84.94852084813158,27.856579853981508]],[[84.9482891431086,27.8565588719805],[84.94836045523307,27.856593016525895],[84.94852084813158,27.856579853981508]],[[84.9442771860502,27.8578463255894],[84.94520778355948,27.8575814069978]],[[84.94520778355948,27.8575814069978],[84.94559571926628,27.85773614492509],[84.94611666217861,27.857507238140798]],[[84.94520778355948,27.8575814069978],[84.94565741735661,27.857582360340608],[84.94611666217861,27.857507238140798]],[[84.94446541675498,27.857843141640984],[84.94520778355948,27.8575814069978]],[[84.9442771860502,27.8578463255894],[84.9442953944178,27.8578457450589]],[[84.94426873511507,27.857853017632497],[84.9442771860502,27.8578463255894]],[[84.8989275512484,27.88145848322131],[84.89451898275337,27.8692480502448],[84.91214840942439,27.867047704205998],[84.9127836018736,27.861771230960795],[84.93686194952778,27.863911789037505],[84.94251314947051,27.8622795370308],[84.94084337180017,27.85829407841411],[84.9442771860502,27.8578463255894]],[[84.8986849001205,27.881244100392],[84.8904401004591,27.884818100533696],[84.9001037001786,27.8867343001801],[84.891265600103,27.8968386994118],[84.8926209000502,27.909228299511383]]]}},{"type":"Feature","properties":{"OBJECTID":11490,"currstatus":null,"CURR_PHYS":3.0,"currsource":"NDRRMA"},"geometry":{"type":"LineString","coordinates":[[85.10897444732848,27.858356782595898],[85.0457238075682,27.8507051156896]]}}]}